{"type": "FeatureCollection", "features": [{"id": "1", "type": "Feature", "properties": {"NAME_FULL": "Republic of the Union of Bagansait", "NAME_SHORT": "Bagansait", "CODE": "RUP", "DEMONYM": "Bagansaiti", "LANGUAGE": "Burmese", "STATUS": "NOTIONAL", "REGION": "Indo-Pacific"}, "geometry": {"type": "MultiPolygon", "coordinates": [[[[97.66911888122559, 15.517400741577148], [97.66440010070801, 15.504095077514648], [97.65748405456543, 15.523870468139648], [97.65089225769043, 15.592229843139648], [97.65626335144043, 15.586332321166992], [97.66016960144043, 15.580389022827148], [97.66285514831543, 15.573675155639648], [97.66440010070801, 15.565580368041992], [97.67164421081543, 15.549993515014648], [97.67237663269043, 15.533353805541992], [97.66911888122559, 15.517400741577148]]], [[[94.80372428894043, 15.796575546264648], [94.77784538269043, 15.791570663452148], [94.74789619445801, 15.799467086791992], [94.72486686706543, 15.811956405639648], [94.72486686706543, 15.818792343139648], [94.74480247497559, 15.832708358764648], [94.75929069519043, 15.852239608764648], [94.78004264831543, 15.893949508666992], [94.80681419372559, 15.931097030639648], [94.82325553894043, 15.94578742980957], [94.82797431945801, 15.932157516479492], [94.82797431945801, 15.932035446166992], [94.82984733581543, 15.916448593139648], [94.83936882019043, 15.890081405639648], [94.84156608581543, 15.87742805480957], [94.83741569519043, 15.864408493041992], [94.81910514831543, 15.83470344543457], [94.80372428894043, 15.796575546264648]]], [[[94.41016960144043, 15.839262008666992], [94.40268135070801, 15.839262008666992], [94.40268135070801, 15.846746444702148], [94.41724967956543, 15.871770858764648], [94.40919303894043, 15.90745735168457], [94.38233757019043, 15.969633102416992], [94.38966178894043, 16.00092124938965], [94.41724967956543, 16.018461227416992], [94.45297431945801, 16.03388023376465], [94.48536491394043, 16.058988571166992], [94.49594306945801, 16.075590133666992], [94.51099967956543, 16.10765266418457], [94.51881217956543, 16.12042808532715], [94.54932975769043, 16.14899253845215], [94.61158561706543, 16.22174644470215], [94.64283561706543, 16.245512008666992], [94.66212272644043, 16.22186851501465], [94.66749382019043, 16.17194175720215], [94.65463447570801, 16.121976852416992], [94.62965202331543, 16.07518196105957], [94.57960319519043, 16.01325035095215], [94.56959342956543, 16.00519371032715], [94.55348014831543, 15.997503280639648], [94.49903678894043, 15.980169296264648], [94.48414421081543, 15.971258163452148], [94.47804069519043, 15.966131210327148], [94.47804069519043, 15.958158493041992], [94.47926139831543, 15.949041366577148], [94.47836494445801, 15.942327499389648], [94.46827507019043, 15.93016242980957], [94.44646263122559, 15.912908554077148], [94.43678092956543, 15.900701522827148], [94.44093132019043, 15.885404586791992], [94.43311882019043, 15.86961555480957], [94.41016960144043, 15.839262008666992]]], [[[97.57136344909668, 16.222692489624023], [97.54746055603027, 16.19993019104004], [97.51685905456543, 16.20982551574707], [97.51051139831543, 16.25421714782715], [97.49928092956543, 16.26951789855957], [97.45926856994629, 16.301362991333008], [97.46925163269043, 16.33270835876465], [97.48275947570801, 16.34202766418457], [97.48487663269043, 16.363920211791992], [97.48015403747559, 16.38910484313965], [97.47266960144043, 16.40843391418457], [97.46046257019043, 16.42597007751465], [97.45476341247559, 16.436918258666992], [97.45216178894043, 16.44940757751465], [97.45582389831543, 16.456205368041992], [97.46265983581543, 16.46100425720215], [97.46615791320801, 16.46702766418457], [97.45964622497559, 16.47736167907715], [97.46998405456543, 16.49046516418457], [97.48601341247559, 16.50096321105957], [97.50407981872559, 16.50800132751465], [97.52052116394043, 16.510892868041992], [97.56186103820801, 16.49237632751465], [97.58521842956543, 16.48602867126465], [97.60629463195801, 16.483549118041992], [97.60978889465332, 16.464155197143555], [97.61060905456543, 16.44623374938965], [97.58936882019043, 16.41526985168457], [97.58855247497559, 16.39984703063965], [97.59132194519043, 16.36115074157715], [97.58936882019043, 16.34015464782715], [97.58383369445801, 16.32904624938965], [97.57740592956543, 16.320951461791992], [97.57179069519043, 16.31207847595215], [97.56886100769043, 16.29857063293457], [97.57016181945801, 16.29002571105957], [97.56635475158691, 16.253721237182617], [97.57136344909668, 16.222692489624023]]], [[[98.86065483093262, 28.25810432434082], [98.88993644714355, 28.070905685424805], [98.93321418762207, 27.942136764526367], [99.02502250671387, 27.766450881958008], [99.04427146911621, 27.508020401000977], [99.12780952453613, 27.223276138305664], [99.18837547302246, 27.0229549407959], [99.15965461730957, 26.63667106628418], [99.16058540344238, 26.450101852416992], [99.1491527557373, 26.3638858795166], [99.13118553161621, 26.090463638305664], [99.14824485778809, 25.918615341186523], [99.20547676086426, 25.79899024963379], [99.32500267028809, 25.60603141784668], [99.56250953674316, 25.373464584350586], [99.76177787780762, 25.12907600402832], [99.97268867492676, 24.85202980041504], [100.45239067077637, 24.498167037963867], [100.43871879577637, 24.276613235473633], [100.29531288146973, 23.957807540893555], [100.15849113464355, 23.664182662963867], [100.00972938537598, 23.393983840942383], [99.93028831481934, 23.172510147094727], [99.95530128479004, 23.020998001098633], [100.00724601745605, 22.78620719909668], [100.24266242980957, 22.56941032409668], [100.39544486999512, 22.429765701293945], [100.73157691955566, 22.204118728637695], [100.95718574523926, 22.061635971069336], [101.19253349304199, 22.0058650970459], [101.3471736907959, 21.924890518188477], [101.46809959411621, 21.78252601623535], [101.50764656066895, 21.730066299438477], [101.53940010070801, 21.668996810913086], [101.56163215637207, 21.595186233520508], [101.56912422180176, 21.496244430541992], [101.66018104553223, 21.418283462524414], [101.72476005554199, 21.3724308013916], [101.76806831359863, 21.341684341430664], [101.86128044128418, 21.305620193481445], [102.00642204284668, 21.250444412231445], [102.06637382507324, 21.2344913482666], [102.13039588928223, 21.230058670043945], [102.25142860412598, 21.241384506225586], [102.32537269592285, 21.22319984436035], [102.35022926330566, 21.159364700317383], [102.38467597961426, 21.121931076049805], [102.47472953796387, 21.07607078552246], [102.5283145904541, 21.05307960510254], [102.72989845275879, 21.020917892456055], [102.76010322570801, 20.994775772094727], [102.80558204650879, 20.975980758666992], [102.87965965270996, 20.964303970336914], [102.93057060241699, 20.94462776184082], [102.93151664733887, 20.888933181762695], [102.93491172790527, 20.81865119934082], [102.94620704650879, 20.765047073364258], [102.97755241394043, 20.70926856994629], [102.95792961120605, 20.645883560180664], [102.94732093811035, 20.585660934448242], [102.93435096740723, 20.462095260620117], [102.94140815734863, 20.41184425354004], [102.99863624572754, 20.360559463500977], [103.03022193908691, 20.31593894958496], [103.03957557678223, 20.253538131713867], [103.02825355529785, 20.170995712280273], [103.01364707946777, 20.12656593322754], [102.99039649963379, 20.060426712036133], [103.00188636779785, 20.01920509338379], [103.02745246887207, 19.982755661010742], [103.08390235900879, 19.95482063293457], [103.13356971740723, 19.919530868530273], [103.14217185974121, 19.91620445251465], [103.13823127746582, 19.915063858032227], [103.12531471252441, 19.89286994934082], [103.10567665100098, 19.877004623413086], [103.05555152893066, 19.87369728088379], [103.03146934509277, 19.864164352416992], [103.00976371765137, 19.849435806274414], [102.97927665710449, 19.835817337036133], [102.9525089263916, 19.81879234313965], [102.95095634460449, 19.77153205871582], [102.94423866271973, 19.724637985229492], [102.90744590759277, 19.7171688079834], [102.8668270111084, 19.719209671020508], [102.87096214294434, 19.69559669494629], [102.85793876647949, 19.67735481262207], [102.81205177307129, 19.63761329650879], [102.75241661071777, 19.599088668823242], [102.73309135437012, 19.58079719543457], [102.71655464172363, 19.559324264526367], [102.67107963562012, 19.526304244995117], [102.6606388092041, 19.47343635559082], [102.6734561920166, 19.42194175720215], [102.7011547088623, 19.399049758911133], [102.72513008117676, 19.371557235717773], [102.74590492248535, 19.31437873840332], [102.7038402557373, 19.273683547973633], [102.64896202087402, 19.25797462463379], [102.5757884979248, 19.224252700805664], [102.54075050354004, 19.249059677124023], [102.50860786437988, 19.27838706970215], [102.50002861022949, 19.301122665405273], [102.48762702941895, 19.32130241394043], [102.4672679901123, 19.32634162902832], [102.44639015197754, 19.334867477416992], [102.45414161682129, 19.35088539123535], [102.45961952209473, 19.36809730529785], [102.43088722229004, 19.365819931030273], [102.40246391296387, 19.368120193481445], [102.3855152130127, 19.37827491760254], [102.37094306945801, 19.389204025268555], [102.34221076965332, 19.379411697387695], [102.3093433380127, 19.362436294555664], [102.27854347229004, 19.38264274597168], [102.24464225769043, 19.375822067260742], [102.22883033752441, 19.388402938842773], [102.21518898010254, 19.403261184692383], [102.18986701965332, 19.40925407409668], [102.16340827941895, 19.407655715942383], [102.12723350524902, 19.401735305786133], [102.09695243835449, 19.384347915649414], [102.08217430114746, 19.32295799255371], [102.06770515441895, 19.309934616088867], [102.05158042907715, 19.29789161682129], [102.04093742370605, 19.28399085998535], [102.02718925476074, 19.27406883239746], [102.0075511932373, 19.267972946166992], [101.99670219421387, 19.254201889038086], [101.98657035827637, 19.21283531188965], [101.95680809020996, 19.15348243713379], [101.90781593322754, 19.110021591186523], [101.8781566619873, 19.104726791381836], [101.86885261535645, 19.096769332885742], [101.85986137390137, 19.0861759185791], [101.83877754211426, 19.071550369262695], [101.81035423278809, 19.049924850463867], [101.8085994720459, 19.032533645629883], [101.80487632751465, 19.02119255065918], [101.80312156677246, 19.01051902770996], [101.80694389343262, 19.001943588256836], [101.81231880187988, 18.994295120239258], [101.81500816345215, 18.9849910736084], [101.81686592102051, 18.964399337768555], [101.8159351348877, 18.941221237182617], [101.80570411682129, 18.904146194458008], [101.80322456359863, 18.885568618774414], [101.80890846252441, 18.8702449798584], [101.85097312927246, 18.82660484313965], [101.86172294616699, 18.793325424194336], [101.85428047180176, 18.76335334777832], [101.82430839538574, 18.703691482543945], [101.81955528259277, 18.682634353637695], [101.81521415710449, 18.640748977661133], [101.81066703796387, 18.62175941467285], [101.77934837341309, 18.568815231323242], [101.76384544372559, 18.54953956604004], [101.74255561828613, 18.502206802368164], [101.73211860656738, 18.491430282592773], [101.72994804382324, 18.488431930541992], [101.7076244354248, 18.4709415435791], [101.69604682922363, 18.466703414916992], [101.6832332611084, 18.464353561401367], [101.67072486877441, 18.465280532836914], [101.65976905822754, 18.4709415435791], [101.64457893371582, 18.457582473754883], [101.62638664245605, 18.421098709106445], [101.61512184143066, 18.405466079711914], [101.59300422668457, 18.390920639038086], [101.57781028747559, 18.385053634643555], [101.57429695129395, 18.37567710876465], [101.5734691619873, 18.364408493041992], [101.57109260559082, 18.354875564575195], [101.56148338317871, 18.341283798217773], [101.54701042175293, 18.325315475463867], [101.52995872497559, 18.312009811401367], [101.51238822937012, 18.306455612182617], [101.49047660827637, 18.30296516418457], [101.48117637634277, 18.29376792907715], [101.47621726989746, 18.280668258666992], [101.46743202209473, 18.265501022338867], [101.42082023620605, 18.214704513549805], [101.40324974060059, 18.182172775268555], [101.39911460876465, 18.141347885131836], [101.40428352355957, 18.127782821655273], [101.42298698425293, 18.096311569213867], [101.4270191192627, 18.08393669128418], [101.4332218170166, 18.01226234436035], [101.43094825744629, 17.982545852661133], [101.42464256286621, 17.954614639282227], [101.42360877990723, 17.92888069152832], [101.44489860534668, 17.89487648010254], [101.4494457244873, 17.884775161743164], [101.45627021789551, 17.87733268737793], [101.47115135192871, 17.87446403503418], [101.49543952941895, 17.879064559936523], [101.50412178039551, 17.875810623168945], [101.50897789001465, 17.860795974731445], [101.51579856872559, 17.860795974731445], [101.52313804626465, 17.866586685180664], [101.53740119934082, 17.873559951782227], [101.55114555358887, 17.875112533569336], [101.55745124816895, 17.864519119262695], [101.55476188659668, 17.8570499420166], [101.5368824005127, 17.8266658782959], [101.5368824005127, 17.820463180541992], [101.54349708557129, 17.81550407409668], [101.54525566101074, 17.813901901245117], [101.54550743103027, 17.81367301940918], [101.5340404510498, 17.809560775756836], [101.55626106262207, 17.792146682739258], [101.53652000427246, 17.779123306274414], [101.50272560119629, 17.765378952026367], [101.48298454284668, 17.745790481567383], [101.47900581359863, 17.73798942565918], [101.47419929504395, 17.730600357055664], [101.47042655944824, 17.72258949279785], [101.46830940246582, 17.720369338989258], [101.45910835266113, 17.73948860168457], [101.45735359191895, 17.745790481567383], [101.4560604095459, 17.750185012817383], [101.45347785949707, 17.751012802124023], [101.44980812072754, 17.74925422668457], [101.44526100158691, 17.745790481567383], [101.43203163146973, 17.73359489440918], [101.41699409484863, 17.73235511779785], [101.40185356140137, 17.73375129699707], [101.38800239562988, 17.729307174682617], [101.38190650939941, 17.720727920532227], [101.38836479187012, 17.717782974243164], [101.39875221252441, 17.717164993286133], [101.40402412414551, 17.71556282043457], [101.4030933380127, 17.709463119506836], [101.4015941619873, 17.706674575805664], [101.38376426696777, 17.68491554260254], [101.37746238708496, 17.682641983032227], [101.36986351013184, 17.68316078186035], [101.3573055267334, 17.679025650024414], [101.24703025817871, 17.5921573638916], [101.2286319732666, 17.568490982055664], [101.20853233337402, 17.531282424926758], [101.20217323303223, 17.523168563842773], [101.1902904510498, 17.51872444152832], [101.17695808410645, 17.516401290893555], [101.16672325134277, 17.5106143951416], [101.16424369812012, 17.495729446411133], [101.14719200134277, 17.472475051879883], [101.14181709289551, 17.467153549194336], [101.1323070526123, 17.4616756439209], [101.12889671325684, 17.461156845092773], [101.12465858459473, 17.46394920349121], [101.09603309631348, 17.47526741027832], [101.06616401672363, 17.492216110229492], [101.04931449890137, 17.495729446411133], [101.03546714782715, 17.51262855529785], [101.01903343200684, 17.52663230895996], [101.00084495544434, 17.538209915161133], [100.98151588439941, 17.5476131439209], [100.9377384185791, 17.55548667907715], [100.90193367004395, 17.561925888061523], [100.88601875305176, 17.573762893676758], [100.88565635681152, 17.59588050842285], [100.89945411682129, 17.61696434020996], [100.93293952941895, 17.654531478881836], [100.95381736755371, 17.699800491333008], [100.95587730407715, 17.70753288269043], [100.96069145202637, 17.725587844848633], [100.95872688293457, 17.745790481567383], [100.95639991760254, 17.755922317504883], [100.95857048034668, 17.76413917541504], [100.96487617492676, 17.770597457885742], [100.97428321838379, 17.7755069732666], [100.97521018981934, 17.777624130249023], [100.97552299499512, 17.779794692993164], [100.97521018981934, 17.78191566467285], [100.97428321838379, 17.783979415893555], [100.96771812438965, 17.7910099029541], [100.96518516540527, 17.797624588012695], [100.9670467376709, 17.803823471069336], [100.97428321838379, 17.80925178527832], [100.99479866027832, 17.817724227905273], [101.00027656555176, 17.830488204956055], [100.99712181091309, 17.864595413208008], [101.00084495544434, 17.884801864624023], [101.0082836151123, 17.895238876342773], [101.03980827331543, 17.91203498840332], [101.06616401672363, 17.933996200561523], [101.08197593688965, 17.958337783813477], [101.09489250183105, 17.9843807220459], [101.1123104095459, 18.01130485534668], [101.12543678283691, 18.021329879760742], [101.15752601623535, 18.04045295715332], [101.16517448425293, 18.053422927856445], [101.16207313537598, 18.067453384399414], [101.14496803283691, 18.104738235473633], [101.14161109924316, 18.123960494995117], [101.14563941955566, 18.141942977905273], [101.16052436828613, 18.179513931274414], [101.16279792785645, 18.19529914855957], [101.1592845916748, 18.204057693481445], [101.15277290344238, 18.209070205688477], [101.14553642272949, 18.21299934387207], [101.13964653015137, 18.21870994567871], [101.13173866271973, 18.238862991333008], [101.12838172912598, 18.245737075805664], [101.12796592712402, 18.280954360961914], [101.13013648986816, 18.29115867614746], [101.13540840148926, 18.29839515686035], [101.15241050720215, 18.316377639770508], [101.15540885925293, 18.32288932800293], [101.14553642272949, 18.33624839782715], [101.08228492736816, 18.36420249938965], [101.0740909576416, 18.371614456176758], [101.0510196685791, 18.39246940612793], [101.03701591491699, 18.41045570373535], [101.03029823303223, 18.427793502807617], [101.03561973571777, 18.447843551635742], [101.0647144317627, 18.47641944885254], [101.07195091247559, 18.495668411254883], [101.07380867004395, 18.505773544311523], [101.07789421081543, 18.51042366027832], [101.14207649230957, 18.54429817199707], [101.15535545349121, 18.556726455688477], [101.15912818908691, 18.567705154418945], [101.15814781188965, 18.58997917175293], [101.16088676452637, 18.59979820251465], [101.16775703430176, 18.606359481811523], [101.18532752990723, 18.61253547668457], [101.19411277770996, 18.61680030822754], [101.22191429138184, 18.64204216003418], [101.23473167419434, 18.658449172973633], [101.2401065826416, 18.673643112182617], [101.23478126525879, 18.689481735229492], [101.21127128601074, 18.7119083404541], [101.20584297180176, 18.730073928833008], [101.20920372009277, 18.74632453918457], [101.2239818572998, 18.778547286987305], [101.2286319732666, 18.795625686645508], [101.22331047058105, 18.855493545532227], [101.22491264343262, 18.874765396118164], [101.23292350769043, 18.892724990844727], [101.25726127624512, 18.919492721557617], [101.26728630065918, 18.9344539642334], [101.27700233459473, 18.96706199645996], [101.28392601013184, 18.981477737426758], [101.32640647888184, 19.02054786682129], [101.3178768157959, 19.05013084411621], [101.29116249084473, 19.07899284362793], [101.2474422454834, 19.115785598754883], [101.2357120513916, 19.128110885620117], [101.22915077209473, 19.143587112426758], [101.22677421569824, 19.16715431213379], [101.22987174987793, 19.225805282592773], [101.20951271057129, 19.309419631958008], [101.20925331115723, 19.31559181213379], [101.21090888977051, 19.32063102722168], [101.21127128601074, 19.32636833190918], [101.20775413513184, 19.334688186645508], [101.20196723937988, 19.338666915893555], [101.18501853942871, 19.34200096130371], [101.17845344543457, 19.34662437438965], [101.1723575592041, 19.37639045715332], [101.17778205871582, 19.41721534729004], [101.19287300109863, 19.452795028686523], [101.21529960632324, 19.466360092163086], [101.23824501037598, 19.47230339050293], [101.25173377990723, 19.494443893432617], [101.2569522857666, 19.522790908813477], [101.25488471984863, 19.547155380249023], [101.25106239318848, 19.5603084564209], [101.24620246887207, 19.570280075073242], [101.23824501037598, 19.578187942504883], [101.22501564025879, 19.585214614868164], [101.20796394348145, 19.589555740356445], [101.19731712341309, 19.586870193481445], [101.18832588195801, 19.58074378967285], [101.17685508728027, 19.574750900268555], [101.15266990661621, 19.568368911743164], [101.12465858459473, 19.56511116027832], [101.09582328796387, 19.56728172302246], [101.06822776794434, 19.57712745666504], [101.02430534362793, 19.602861404418945], [101.00255012512207, 19.610612869262695], [100.97428321838379, 19.613481521606445], [100.88565635681152, 19.61244773864746], [100.87981605529785, 19.613584518432617], [100.87459754943848, 19.612913131713867], [100.86503791809082, 19.607152938842773], [100.8612117767334, 19.60260581970215], [100.8490161895752, 19.582529067993164], [100.80845069885254, 19.536535263061523], [100.76261329650879, 19.4954776763916], [100.75300407409668, 19.482431411743164], [100.74550819396973, 19.485013961791992], [100.73817253112793, 19.495038986206055], [100.7292308807373, 19.50465202331543], [100.71476173400879, 19.512453079223633], [100.63326835632324, 19.54216957092285], [100.60701560974121, 19.540929794311523], [100.58598518371582, 19.525968551635742], [100.57475852966309, 19.50834846496582], [100.5666561126709, 19.495634078979492], [100.54929542541504, 19.49454689025879], [100.5206127166748, 19.50261116027832], [100.49183082580566, 19.51447105407715], [100.4742603302002, 19.52498435974121], [100.46196174621582, 19.5371036529541], [100.45896339416504, 19.55183219909668], [100.45896339416504, 19.56805992126465], [100.45555305480957, 19.584672927856445], [100.4474925994873, 19.5977725982666], [100.42708015441895, 19.621801376342773], [100.41886329650879, 19.63435935974121], [100.41291999816895, 19.651567459106445], [100.41049003601074, 19.68425178527832], [100.40723609924316, 19.69993782043457], [100.40046501159668, 19.711641311645508], [100.39005088806152, 19.72438621520996], [100.38382530212402, 19.73200035095215], [100.37917518615723, 19.745668411254883], [100.38351631164551, 19.76386070251465], [100.40765953063965, 19.79425621032715], [100.4205150604248, 19.81044578552246], [100.43142127990723, 19.838274002075195], [100.43844795227051, 19.84721565246582], [100.44625282287598, 19.85212516784668], [100.46563148498535, 19.859773635864258], [100.4742603302002, 19.865354537963867], [100.48397636413574, 19.880701065063477], [100.48795509338379, 19.8969783782959], [100.4926586151123, 19.93165397644043], [100.5185489654541, 19.995424270629883], [100.5185489654541, 19.995500564575195], [100.5433521270752, 20.066579818725586], [100.55058479309082, 20.10652732849121], [100.54867362976074, 20.158021926879883], [100.5465030670166, 20.167917251586914], [100.54195594787598, 20.166730880737305], [100.53668403625488, 20.153474807739258], [100.52924537658691, 20.149728775024414], [100.5128116607666, 20.155282974243164], [100.49637794494629, 20.16486930847168], [100.48893547058105, 20.1733455657959], [100.48562812805176, 20.178770065307617], [100.46878242492676, 20.185720443725586], [100.46103096008301, 20.190706253051758], [100.45731163024902, 20.19639015197754], [100.4521427154541, 20.210241317749023], [100.44733619689941, 20.218046188354492], [100.42160224914551, 20.25018882751465], [100.3643970489502, 20.368967056274414], [100.34434700012207, 20.389970779418945], [100.30652046203613, 20.399686813354492], [100.27024269104004, 20.39183235168457], [100.2403736114502, 20.37281608581543], [100.2206859588623, 20.3489933013916], [100.20916175842285, 20.31300163269043], [100.20719718933105, 20.311140060424805], [100.20171928405762, 20.310312271118164], [100.17949867248535, 20.3024845123291], [100.1763973236084, 20.300622940063477], [100.1670970916748, 20.292612075805664], [100.16771507263184, 20.25362205505371], [100.15252113342285, 20.239152908325195], [100.13464164733887, 20.239103317260742], [100.11660957336426, 20.248018264770508], [100.10296440124512, 20.26359748840332], [100.09728050231934, 20.283235549926758], [100.09929466247559, 20.31780433654785], [100.05547523498535, 20.344186782836914], [100.04762077331543, 20.35524559020996], [100.04265785217285, 20.364778518676758], [100.03614616394043, 20.373125076293945], [100.02291679382324, 20.380773544311523], [100.00844764709473, 20.383588790893555], [99.99671745300293, 20.383512496948242], [99.98591804504395, 20.387025833129883], [99.97434425354004, 20.40082359313965], [99.96473121643066, 20.408628463745117], [99.96111488342285, 20.41782569885254], [99.95878791809082, 20.427488327026367], [99.95237922668457, 20.4362735748291], [99.94204521179199, 20.44402503967285], [99.93713569641113, 20.445009231567383], [99.93248558044434, 20.442731857299805], [99.8779125213623, 20.435136795043945], [99.85569190979004, 20.428056716918945], [99.83770942687988, 20.416845321655273], [99.82634162902832, 20.401391983032227], [99.81300926208496, 20.365270614624023], [99.80401802062988, 20.3489933013916], [99.78717231750488, 20.33408546447754], [99.76960182189941, 20.32842445373535], [99.72908592224121, 20.328527450561523], [99.70841407775879, 20.325014114379883], [99.6712589263916, 20.31013298034668], [99.65193367004395, 20.306825637817383], [99.6422176361084, 20.308839797973633], [99.62702369689941, 20.318761825561523], [99.61803245544434, 20.322378158569336], [99.60759544372559, 20.323152542114258], [99.58930015563965, 20.320775985717773], [99.57969093322754, 20.32124137878418], [99.50289726257324, 20.3452205657959], [99.45411491394043, 20.377103805541992], [99.43995475769043, 20.382169723510742], [99.42062950134277, 20.37555503845215], [99.42962074279785, 20.35868263244629], [99.4664134979248, 20.322172164916992], [99.4749927520752, 20.30372428894043], [99.48625755310059, 20.245485305786133], [99.51891899108887, 20.21217918395996], [99.52584266662598, 20.196184158325195], [99.52057075500488, 20.170969009399414], [99.51033973693848, 20.153810501098633], [99.50873374938965, 20.152807235717773], [99.49928092956543, 20.146886825561523], [99.48749732971191, 20.141252517700195], [99.47447776794434, 20.128076553344727], [99.44140434265137, 20.10161781311035], [99.32120323181152, 20.06627082824707], [99.29567527770996, 20.062498092651367], [99.27531623840332, 20.072187423706055], [99.2364559173584, 20.10272789001465], [99.2189884185791, 20.11045265197754], [99.1777515411377, 20.121797561645508], [99.15842247009277, 20.123552322387695], [99.11749458312988, 20.1177921295166], [99.0734691619873, 20.101228713989258], [99.03646659851074, 20.075159072875977], [99.0168285369873, 20.04100227355957], [99.00587272644043, 19.972349166870117], [99.00701332092285, 19.962453842163086], [99.0128002166748, 19.944238662719727], [99.01352119445801, 19.934961318969727], [99.01093864440918, 19.930208206176758], [99.00618553161621, 19.924936294555664], [99.00142860412598, 19.917882919311523], [98.99936485290527, 19.90772819519043], [99.00267219543457, 19.883596420288086], [99.00763130187988, 19.86488914489746], [99.00876808166504, 19.845922470092773], [99.00091361999512, 19.821016311645508], [98.98768424987793, 19.799360275268555], [98.97383689880371, 19.78807258605957], [98.93507957458496, 19.773473739624023], [98.89931678771973, 19.74861717224121], [98.88371086120605, 19.74546241760254], [98.86448860168457, 19.77321434020996], [98.85187721252441, 19.784040451049805], [98.83792686462402, 19.79344367980957], [98.80785179138184, 19.806543350219727], [98.7492504119873, 19.763498306274414], [98.73012733459473, 19.757295608520508], [98.64134788513184, 19.74494743347168], [98.62377738952637, 19.737504959106445], [98.61540794372559, 19.729780197143555], [98.59835243225098, 19.709081649780273], [98.59070777893066, 19.7040958404541], [98.56827735900879, 19.699987411499023], [98.54833030700684, 19.692651748657227], [98.53799629211426, 19.683889389038086], [98.53655052185059, 19.677095413208008], [98.53262138366699, 19.67585563659668], [98.51546669006348, 19.683374404907227], [98.50512886047363, 19.69151496887207], [98.49758338928223, 19.700712203979492], [98.48880195617676, 19.70670509338379], [98.4778003692627, 19.705629348754883], [98.47453880310059, 19.705312728881836], [98.43960380554199, 19.687742233276367], [98.39443778991699, 19.68634605407715], [98.34762001037598, 19.69063377380371], [98.30731391906738, 19.68998908996582], [98.26276588439941, 19.669862747192383], [98.23755073547363, 19.66469383239746], [98.21915245056152, 19.676992416381836], [98.21667289733887, 19.687456130981445], [98.2179126739502, 19.707971572875977], [98.2132625579834, 19.717763900756836], [98.20592308044434, 19.721487045288086], [98.17202186584473, 19.7315616607666], [98.13223457336426, 19.76605796813965], [98.11135673522949, 19.77713966369629], [98.0859317779541, 19.773160934448242], [98.07290840148926, 19.77729606628418], [98.06060981750488, 19.793909072875977], [98.04562187194824, 19.80763053894043], [98.02453804016113, 19.802980422973633], [98.01792335510254, 19.78938865661621], [98.00459098815918, 19.723913192749023], [98.00562477111816, 19.70564842224121], [98.01389503479004, 19.66944694519043], [98.01358222961426, 19.65174674987793], [98.00831413269043, 19.63911247253418], [98.00014686584473, 19.63629722595215], [97.99043083190918, 19.63655662536621], [97.97947883605957, 19.633325576782227], [97.97069358825684, 19.62593650817871], [97.95612144470215, 19.609373092651367], [97.94805717468262, 19.6024227142334], [97.88583946228027, 19.572813034057617], [97.8691234588623, 19.57048988342285], [97.84863090515137, 19.567644119262695], [97.8398494720459, 19.55531883239746], [97.83891868591309, 19.5371036529541], [97.84098625183105, 19.51715660095215], [97.84429359436035, 19.5045223236084], [97.84811592102051, 19.49955940246582], [97.8487377166748, 19.49397850036621], [97.84212303161621, 19.479379653930664], [97.83354377746582, 19.46870994567871], [97.80036735534668, 19.440778732299805], [97.76708793640137, 19.39752769470215], [97.7677059173584, 19.39036750793457], [97.77514839172363, 19.371068954467773], [97.77669715881348, 19.361093521118164], [97.78310585021973, 19.33709144592285], [97.79706001281738, 19.318384170532227], [97.80615425109863, 19.301095962524414], [97.79829978942871, 19.281408309936523], [97.78868675231934, 19.277738571166992], [97.77731895446777, 19.27861976623535], [97.76801872253418, 19.27712059020996], [97.76408958435059, 19.26639747619629], [97.7696704864502, 19.25727653503418], [97.79633522033691, 19.236684799194336], [97.80522346496582, 19.227354049682617], [97.81256294250488, 19.208467483520508], [97.81514549255371, 19.190561294555664], [97.81080436706543, 19.112218856811523], [97.80408668518066, 19.097959518432617], [97.78992652893066, 19.082582473754883], [97.72781181335449, 19.037084579467773], [97.71696281433105, 19.01832389831543], [97.71045112609863, 18.979902267456055], [97.70331764221191, 18.964372634887695], [97.68905448913574, 18.949750900268555], [97.6680736541748, 18.935434341430664], [97.6578426361084, 18.925722122192383], [97.66187477111816, 18.913782119750977], [97.68440437316895, 18.892492294311523], [97.70858955383301, 18.875207901000977], [97.71912956237793, 18.86463737487793], [97.72336769104004, 18.85197639465332], [97.71944236755371, 18.82588005065918], [97.72037315368652, 18.81764030456543], [97.7326717376709, 18.780508041381836], [97.73577308654785, 18.76265525817871], [97.73628807067871, 18.740591049194336], [97.74124717712402, 18.703149795532227], [97.75261878967285, 18.663434982299805], [97.7597484588623, 18.622793197631836], [97.75179100036621, 18.582487106323242], [97.74569129943848, 18.57106590270996], [97.74279975891113, 18.569257736206055], [97.73793983459473, 18.570497512817383], [97.69029426574707, 18.557886123657227], [97.63738059997559, 18.559282302856445], [97.61794853210449, 18.553159713745117], [97.54839134216309, 18.50908088684082], [97.50953102111816, 18.49127769470215], [97.46281623840332, 18.492464065551758], [97.4381160736084, 18.488122940063477], [97.42746925354004, 18.489519119262695], [97.41661643981934, 18.496030807495117], [97.41217231750488, 18.503034591674805], [97.40938377380371, 18.511354446411133], [97.38891792297363, 18.5422306060791], [97.3801326751709, 18.547758102416992], [97.37290000915527, 18.548616409301758], [97.35140037536621, 18.55116844177246], [97.35760307312012, 18.53990364074707], [97.37909889221191, 18.520784378051758], [97.39047050476074, 18.50181770324707], [97.39460182189941, 18.487089157104492], [97.41765022277832, 18.44114875793457], [97.44307518005371, 18.403348922729492], [97.44648551940918, 18.381181716918945], [97.44679832458496, 18.358312606811523], [97.45258522033691, 18.3336124420166], [97.4665355682373, 18.31144142150879], [97.48648262023926, 18.292142868041992], [97.50808525085449, 18.276559829711914], [97.52834129333496, 18.265321731567383], [97.53764533996582, 18.272581100463867], [97.5419864654541, 18.280229568481445], [97.56058692932129, 18.328264236450195], [97.56244850158691, 18.33051109313965], [97.57381629943848, 18.333093643188477], [97.62466621398926, 18.313405990600586], [97.63758659362793, 18.306325912475586], [97.64378547668457, 18.29131507873535], [97.64327049255371, 18.273019790649414], [97.6357250213623, 18.257596969604492], [97.62074089050293, 18.25108528137207], [97.61794853210449, 18.24167823791504], [97.62900733947754, 18.220853805541992], [97.68037223815918, 18.152639389038086], [97.68430137634277, 18.14610481262207], [97.68533515930176, 18.140161514282227], [97.68533515930176, 18.131608963012695], [97.6875057220459, 18.11982536315918], [97.69680595397949, 18.10158348083496], [97.6990795135498, 18.090654373168945], [97.69804573059082, 18.08466148376465], [97.6937084197998, 18.075124740600586], [97.69277763366699, 18.070112228393555], [97.69422340393066, 18.06151008605957], [97.6977367401123, 18.06073570251465], [97.70218086242676, 18.061845779418945], [97.70641899108887, 18.05928611755371], [97.72006034851074, 18.05306053161621], [97.72212791442871, 18.048925399780273], [97.72522926330566, 18.03675651550293], [97.73980140686035, 18.0029354095459], [97.74403953552246, 17.997819900512695], [97.74724388122559, 17.992494583129883], [97.75179100036621, 17.980764389038086], [97.75406455993652, 17.96903419494629], [97.7508602142334, 17.963659286499023], [97.7475528717041, 17.960920333862305], [97.72006034851074, 17.94319725036621], [97.69184684753418, 17.895601272583008], [97.6855411529541, 17.880720138549805], [97.6990795135498, 17.83333396911621], [97.67613792419434, 17.83033561706543], [97.68399238586426, 17.816537857055664], [97.69649696350098, 17.806562423706055], [97.70652198791504, 17.794729232788086], [97.71117210388184, 17.781293869018555], [97.71685600280762, 17.7697696685791], [97.74104118347168, 17.750185012817383], [97.74962043762207, 17.739850997924805], [97.75158500671387, 17.72956657409668], [97.75179100036621, 17.71809196472168], [97.75313377380371, 17.705381393432617], [97.75933647155762, 17.69148063659668], [97.76894569396973, 17.679182052612305], [97.90799522399902, 17.55486488342285], [97.93379402160645, 17.531801223754883], [97.94857597351074, 17.52239418029785], [97.97224235534668, 17.51169776916504], [97.98278617858887, 17.50544548034668], [97.99167442321777, 17.495729446411133], [97.99611854553223, 17.48079490661621], [98.01823616027832, 17.447412490844727], [98.0285701751709, 17.41878318786621], [98.03549385070801, 17.405038833618164], [98.0487232208252, 17.391550064086914], [98.0622615814209, 17.38483238220215], [98.07683753967285, 17.38002586364746], [98.08872032165527, 17.372793197631836], [98.09471702575684, 17.358633041381836], [98.09409523010254, 17.34633445739746], [98.09047889709473, 17.32525062561035], [98.09264945983887, 17.312227249145508], [98.10060691833496, 17.302614212036133], [98.18618202209473, 17.22422218322754], [98.2017879486084, 17.215696334838867], [98.22101402282715, 17.200761795043945], [98.25625801086426, 17.1516170501709], [98.27899360656738, 17.136579513549805], [98.27083015441895, 17.12779426574707], [98.26618003845215, 17.11637306213379], [98.26834678649902, 17.107744216918945], [98.29439353942871, 17.107587814331055], [98.29532432556152, 17.099836349487305], [98.2901554107666, 17.090845108032227], [98.28623008728027, 17.087434768676758], [98.2996654510498, 17.064748764038086], [98.31330680847168, 17.052034378051758], [98.3306713104248, 17.0468692779541], [98.37976264953613, 17.0457820892334], [98.39991569519043, 17.040151596069336], [98.41790199279785, 17.02903938293457], [98.43619346618652, 17.011571884155273], [98.44673728942871, 16.996328353881836], [98.46368598937988, 16.9636173248291], [98.47453880310059, 16.950441360473633], [98.48042869567871, 16.9372615814209], [98.48073768615723, 16.92057228088379], [98.48446083068848, 16.905893325805664], [98.50006675720215, 16.8989200592041], [98.50946998596191, 16.892667770385742], [98.51598167419434, 16.87897300720215], [98.52456092834473, 16.850446701049805], [98.51194953918457, 16.859281539916992], [98.50058174133301, 16.86223030090332], [98.49252128601074, 16.857423782348633], [98.49004173278809, 16.843210220336914], [98.49438285827637, 16.8311710357666], [98.50337409973145, 16.82600212097168], [98.51319313049316, 16.822179794311523], [98.52052879333496, 16.814119338989258], [98.51753044128418, 16.803007125854492], [98.50544166564941, 16.7906551361084], [98.48921394348145, 16.780733108520508], [98.47453880310059, 16.77665138244629], [98.46254920959473, 16.760114669799805], [98.4546947479248, 16.740995407104492], [98.4566593170166, 16.72321891784668], [98.48631858825684, 16.700998306274414], [98.49138450622559, 16.689733505249023], [98.49841117858887, 16.662397384643555], [98.51226234436035, 16.643274307250977], [98.54709053039551, 16.6201229095459], [98.56155967712402, 16.601728439331055], [98.56579780578613, 16.5915470123291], [98.56776237487793, 16.582502365112305], [98.56734657287598, 16.573305130004883], [98.56403923034668, 16.562711715698242], [98.56424903869629, 16.55196189880371], [98.57044792175293, 16.541574478149414], [98.63163566589355, 16.463132858276367], [98.63979911804199, 16.44499397277832], [98.63825035095215, 16.434450149536133], [98.62822151184082, 16.413572311401367], [98.62946510314941, 16.40266990661621], [98.64238166809082, 16.373628616333008], [98.65695381164551, 16.3016414642334], [98.66325950622559, 16.286657333374023], [98.6823787689209, 16.27347755432129], [98.69840049743652, 16.28495216369629], [98.72826957702637, 16.328256607055664], [98.78862571716309, 16.37455940246582], [98.80206108093262, 16.398279190063477], [98.81043434143066, 16.439619064331055], [98.81870079040527, 16.455636978149414], [98.83957862854004, 16.47243309020996], [98.84340476989746, 16.438379287719727], [98.86211204528809, 16.420652389526367], [98.88526344299316, 16.40618324279785], [98.90252113342285, 16.38163948059082], [98.90334892272949, 16.363447189331055], [98.8934268951416, 16.319883346557617], [98.88867378234863, 16.274564743041992], [98.88371086120605, 16.258752822875977], [98.85560035705566, 16.22696876525879], [98.84309196472168, 16.20872688293457], [98.8366870880127, 16.18903923034668], [98.8347225189209, 16.167749404907227], [98.83544731140137, 16.14454460144043], [98.8307933807373, 16.13560676574707], [98.80722999572754, 16.110544204711914], [98.7984447479248, 16.10444450378418], [98.78304481506348, 16.10243034362793], [98.7760181427002, 16.106874465942383], [98.77033424377441, 16.11385154724121], [98.75844764709473, 16.119173049926758], [98.6971607208252, 16.12687110900879], [98.67959022521973, 16.126150131225586], [98.65871238708496, 16.11627769470215], [98.65033912658691, 16.099637985229492], [98.64414024353027, 16.079641342163086], [98.63018608093262, 16.06000328063965], [98.61912727355957, 16.05101203918457], [98.61158180236816, 16.04693031311035], [98.60310935974121, 16.04584312438965], [98.59008598327637, 16.045793533325195], [98.57995796203613, 16.04878807067871], [98.56765937805176, 16.053956985473633], [98.55587577819824, 16.055509567260742], [98.54698753356934, 16.04749870300293], [98.55008888244629, 16.034215927124023], [98.57695960998535, 15.996908187866211], [98.58378028869629, 15.976961135864258], [98.5806827545166, 15.959131240844727], [98.56859016418457, 15.920167922973633], [98.56931114196777, 15.896139144897461], [98.57665061950684, 15.854177474975586], [98.57437705993652, 15.83598518371582], [98.54306221008301, 15.735372543334961], [98.54026985168457, 15.71196174621582], [98.54405784606934, 15.675100326538086], [98.54574775695801, 15.658632278442383], [98.54368019104004, 15.601503372192383], [98.56714057922363, 15.452547073364258], [98.56900215148926, 15.402135848999023], [98.55990791320801, 15.355318069458008], [98.5335521697998, 15.325963973999023], [98.53024482727051, 15.347723007202148], [98.51546669006348, 15.363458633422852], [98.4950008392334, 15.374799728393555], [98.47453880310059, 15.383481979370117], [98.45541572570801, 15.373636245727539], [98.43939781188965, 15.367589950561523], [98.40342903137207, 15.360097885131836], [98.39692115783691, 15.355730056762695], [98.39619636535645, 15.347620010375977], [98.40033149719238, 15.330667495727539], [98.39909172058105, 15.321779251098633], [98.39361381530762, 15.316274642944336], [98.38482856750488, 15.311368942260742], [98.38369178771973, 15.310281753540039], [98.3812084197998, 15.306638717651367], [98.37883186340332, 15.301626205444336], [98.37748908996582, 15.296457290649414], [98.37996864318848, 15.293848037719727], [98.38606834411621, 15.290388107299805], [98.39206123352051, 15.285837173461914], [98.39475059509277, 15.28007698059082], [98.39475059509277, 15.264909744262695], [98.39226722717285, 15.258245468139648], [98.38524055480957, 15.256254196166992], [98.37025260925293, 15.261911392211914], [98.33604621887207, 15.282171249389648], [98.3178539276123, 15.288991928100586], [98.29511833190918, 15.292608261108398], [98.28302574157715, 15.289972305297852], [98.24767875671387, 15.240930557250977], [98.23289680480957, 15.226797103881836], [98.21543312072754, 15.218866348266602], [98.20769309997559, 15.219217300415039], [98.17719078063965, 15.220598220825195], [98.17790794372559, 15.208921432495117], [98.17791557312012, 15.20878791809082], [98.18468284606934, 15.193155288696289], [98.19072914123535, 15.179178237915039], [98.18577003479004, 15.160783767700195], [98.16499519348145, 15.125795364379883], [98.16044807434082, 15.106367111206055], [98.1680736541748, 15.082773208618164], [98.1680965423584, 15.082700729370117], [98.19880104064941, 15.051584243774414], [98.19899940490723, 15.051382064819336], [98.20437431335449, 15.029577255249023], [98.20116996765137, 15.019292831420898], [98.19569206237793, 15.010686874389648], [98.19135093688965, 15.001153945922852], [98.19122505187988, 14.99321174621582], [98.13719367980957, 14.99177360534668], [98.1189022064209, 14.99311637878418], [98.10680961608887, 14.996374130249023], [98.10070991516113, 14.999059677124023], [98.09719657897949, 15.001386642456055], [98.08706855773926, 15.01081657409668], [98.07528495788574, 15.024820327758789], [98.03714942932129, 15.087350845336914], [98.0285701751709, 15.096494674682617], [98.02081871032715, 15.099130630493164], [98.01275825500488, 15.09809684753418], [97.9867115020752, 15.088743209838867], [97.96862602233887, 15.084714889526367], [97.93441581726074, 15.081071853637695], [97.9220142364502, 15.080839157104492], [97.90227317810059, 15.078435897827148], [97.89596748352051, 15.072183609008789], [97.89204216003418, 15.064146041870117], [97.88625526428223, 15.027532577514648], [97.87964057922363, 15.000947952270508], [97.8715763092041, 14.978570938110352], [97.85493659973145, 14.944902420043945], [97.83447456359863, 14.913637161254883], [97.82083320617676, 14.898187637329102], [97.79706001281738, 14.88191032409668], [97.79492378234863, 14.880155563354492], [97.79477119445801, 14.880315780639648], [97.80030632019043, 14.890325546264648], [97.80250358581543, 14.900945663452148], [97.80225944519043, 14.924711227416992], [97.80445671081543, 14.935979843139648], [97.81373405456543, 14.95018196105957], [97.81593132019043, 14.958806991577148], [97.81283760070801, 14.983343124389648], [97.80437278747559, 14.998685836791992], [97.79118919372559, 15.008733749389648], [97.77426338195801, 15.017484664916992], [97.77979850769043, 15.025785446166992], [97.78744697570801, 15.030706405639648], [97.79688835144043, 15.03245735168457], [97.80836296081543, 15.031156539916992], [97.80437278747559, 15.038236618041992], [97.79908561706543, 15.051458358764648], [97.79477119445801, 15.058500289916992], [97.80681419372559, 15.075262069702148], [97.81023216247559, 15.095121383666992], [97.80714225769043, 15.174955368041992], [97.81088447570801, 15.19114875793457], [97.82276725769043, 15.209295272827148], [97.79493522644043, 15.208806991577148], [97.78028678894043, 15.211492538452148], [97.76938056945801, 15.223333358764648], [97.74317741394043, 15.26683235168457], [97.74089622497559, 15.275579452514648], [97.74024772644043, 15.291814804077148], [97.74203681945801, 15.317937850952148], [97.73829460144043, 15.329008102416992], [97.72641181945801, 15.33958625793457], [97.72950553894043, 15.348943710327148], [97.73406028747559, 15.355291366577148], [97.74089622497559, 15.358953475952148], [97.75050163269043, 15.36009407043457], [97.76075553894043, 15.394231796264648], [97.76693916320801, 15.389348983764648], [97.77515983581543, 15.393133163452148], [97.79477119445801, 15.407903671264648], [97.78687858581543, 15.41942024230957], [97.76140403747559, 15.490545272827148], [97.76189231872559, 15.50389289855957], [97.77426338195801, 15.531400680541992], [97.76742744445801, 15.544012069702148], [97.74293327331543, 15.60447883605957], [97.74366569519043, 15.610258102416992], [97.74732780456543, 15.617742538452148], [97.74732780456543, 15.626165390014648], [97.74464225769043, 15.634428024291992], [97.74024772644043, 15.641263961791992], [97.74447822570801, 15.650701522827148], [97.74366569519043, 15.664861679077148], [97.73845481872559, 15.67991828918457], [97.73023796081543, 15.69212532043457], [97.72559928894043, 15.701322555541992], [97.72738838195801, 15.710027694702148], [97.73170280456543, 15.718412399291992], [97.73390007019043, 15.72630500793457], [97.73080635070801, 15.733953475952148], [97.71681022644043, 15.749456405639648], [97.71290397644043, 15.75731086730957], [97.71412467956543, 15.763372421264648], [97.72340202331543, 15.771795272827148], [97.72641181945801, 15.77781867980957], [97.72706413269043, 15.843206405639648], [97.72136497497559, 15.85618782043457], [97.70606803894043, 15.86033821105957], [97.71225166320801, 15.88768196105957], [97.69141960144043, 15.912298202514648], [97.63722038269043, 15.949163436889648], [97.60971260070801, 15.98387336730957], [97.58228874206543, 16.00909996032715], [97.57569694519043, 16.01740074157715], [97.57594108581543, 16.02216148376465], [97.56886100769043, 16.062406539916992], [97.56934928894043, 16.07257652282715], [97.57179069519043, 16.08002281188965], [97.57699775695801, 16.08470344543457], [97.58595085144043, 16.086332321166992], [97.60084342956543, 16.09247398376465], [97.61215400695801, 16.10740852355957], [97.61964225769043, 16.12543296813965], [97.63900947570801, 16.23834800720215], [97.64820671081543, 16.25922203063965], [97.65089225769043, 16.27130699157715], [97.64991569519043, 16.283842086791992], [97.64674186706543, 16.29327964782715], [97.63722038269043, 16.31220054626465], [97.62647819519043, 16.35162925720215], [97.62306022644043, 16.39447593688965], [97.62663841247559, 16.43756675720215], [97.63722038269043, 16.47736167907715], [97.65186882019043, 16.507230758666992], [97.67384147644043, 16.53343391418457], [97.70313835144043, 16.55206871032715], [97.74008369445801, 16.559232711791992], [97.74024772644043, 16.55927085876465], [97.73552513122559, 16.566801071166992], [97.72950553894043, 16.57249641418457], [97.72185325622559, 16.57684898376465], [97.71290397644043, 16.57977867126465], [97.70351982116699, 16.573537826538086], [97.65284538269043, 16.53986167907715], [97.63038444519043, 16.53196907043457], [97.61296653747559, 16.53058433532715], [97.54835319519043, 16.53815269470215], [97.52296257019043, 16.53644371032715], [97.49984931945801, 16.53196907043457], [97.49398994445801, 16.52899742126465], [97.48943138122559, 16.52448081970215], [97.48414421081543, 16.52020835876465], [97.47633171081543, 16.51829719543457], [97.47071647644043, 16.51923179626465], [97.45875358581543, 16.52338218688965], [97.45216178894043, 16.524564743041992], [97.42310905456543, 16.52342414855957], [97.40260124206543, 16.51691246032715], [97.38648796081543, 16.50389289855957], [97.37029075622559, 16.483549118041992], [97.33741569519043, 16.63157844543457], [97.33741569519043, 16.65550422668457], [97.3298282623291, 16.67984962463379], [97.31119346618652, 16.652368545532227], [97.28583717346191, 16.65892219543457], [97.25544548034668, 16.6978702545166], [97.24027824401855, 16.731901168823242], [97.23017311096191, 16.76914405822754], [97.23021125793457, 16.796648025512695], [97.24480247497559, 16.81744956970215], [97.23568916320801, 16.82953453063965], [97.23308372497559, 16.83983039855957], [97.23341178894043, 16.84894371032715], [97.24049186706543, 16.87457847595215], [97.23308372497559, 16.87457847595215], [97.22429466247559, 16.85325813293457], [97.22087669372559, 16.84064292907715], [97.21949577331543, 16.82615852355957], [97.20899772644043, 16.83319664001465], [97.20484733581543, 16.84520149230957], [97.20460319519043, 16.85980796813965], [97.20582389831543, 16.87457847595215], [97.21949577331543, 16.901273727416992], [97.21143913269043, 16.907865524291992], [97.20240592956543, 16.90680503845215], [97.19157981872559, 16.901273727416992], [97.18327903747559, 16.921537399291992], [97.18669700622559, 16.94700813293457], [97.19898796081543, 16.997465133666992], [97.19825553894043, 17.01349449157715], [97.19508171081543, 17.021879196166992], [97.17848014831543, 17.038480758666992], [97.17213249206543, 17.04657554626465], [97.16456413269043, 17.05931282043457], [97.15854072570801, 17.07371711730957], [97.15723991394043, 17.08685874938965], [97.17448997497559, 17.11249351501465], [97.20240592956543, 17.10602378845215], [97.23365592956543, 17.09515953063965], [97.26099967956543, 17.107328414916992], [97.22234153747559, 17.12543296813965], [97.20265007019043, 17.13157844543457], [97.18189811706543, 17.13401985168457], [97.15805244445801, 17.129301071166992], [97.14796257019043, 17.11688804626465], [97.14193916320801, 17.09935188293457], [97.13062858581543, 17.07941246032715], [97.11443138122559, 17.10032844543457], [97.10027122497559, 17.13377571105957], [97.09596061706543, 17.16575813293457], [97.10963249206543, 17.18243980407715], [97.10963249206543, 17.18927574157715], [97.08871650695801, 17.193510055541992], [97.08180046081543, 17.20978355407715], [97.07862663269043, 17.231351852416992], [97.06861686706543, 17.251371383666992], [97.04867744445801, 17.26080894470215], [97.02361106872559, 17.267484664916992], [97.00717353820801, 17.27806282043457], [97.01335716247559, 17.29913902282715], [96.90455436706543, 17.37531089782715], [96.89552116394043, 17.384672164916992], [96.88990592956543, 17.39472007751465], [96.88705635070801, 17.41185188293457], [96.88835716247559, 17.44428062438965], [96.88306999206543, 17.457426071166992], [96.88290214538574, 17.457197189331055], [96.87159538269043, 17.44171714782715], [96.86345481872559, 17.40338706970215], [96.85572624206543, 17.38849449157715], [96.85206413269043, 17.39402961730957], [96.84449577331543, 17.40265464782715], [96.84205436706543, 17.40900230407715], [96.83570671081543, 17.40619468688965], [96.82984733581543, 17.40241050720215], [96.82488059997559, 17.39838218688965], [96.82154655456543, 17.39472007751465], [96.82838249206543, 17.38849449157715], [96.85124778747559, 17.35956382751465], [96.88461494445801, 17.33885383605957], [96.91065788269043, 17.31708335876465], [96.91090202331543, 17.28485679626465], [96.89047431945801, 17.26093101501465], [96.86549186706543, 17.24030113220215], [96.84937858581543, 17.21295738220215], [96.85572624206543, 17.16876792907715], [96.89527702331543, 17.10154914855957], [96.91016960144043, 17.06683921813965], [96.91090202331543, 17.024808883666992], [96.90495872497559, 17.010404586791992], [96.88689231872559, 16.979398727416992], [96.87907981872559, 16.934720993041992], [96.86833763122559, 16.92841148376465], [96.83521842956543, 16.93602180480957], [96.83806419372559, 16.92645835876465], [96.84254264831543, 16.91766929626465], [96.84840202331543, 16.909330368041992], [96.85572624206543, 16.901273727416992], [96.84278678894043, 16.902494430541992], [96.82081413269043, 16.90753746032715], [96.80787467956543, 16.90867805480957], [96.80787467956543, 16.901273727416992], [96.82154655456543, 16.89435386657715], [96.8271541595459, 16.890356063842773], [96.83432197570801, 16.88524055480957], [96.84400749206543, 16.873929977416992], [96.84889030456543, 16.86029624938965], [96.84669303894043, 16.84491539001465], [96.83188056945801, 16.821928024291992], [96.82569694519043, 16.79938316345215], [96.81129264831543, 16.76471519470215], [96.79640007019043, 16.762357711791992], [96.78940010070801, 16.75609016418457], [96.79086494445801, 16.747465133666992], [96.80103874206543, 16.73737144470215], [96.78321647644043, 16.71234703063965], [96.76612663269043, 16.69708824157715], [96.72584342956543, 16.66913414001465], [96.71632194519043, 16.658353805541992], [96.69841575622559, 16.62994956970215], [96.67947578430176, 16.57486915588379], [96.64002799987793, 16.545373916625977], [96.61594200134277, 16.518007278442383], [96.55898094177246, 16.496896743774414], [96.49762916564941, 16.484189987182617], [96.4362621307373, 16.47776985168457], [96.40015983581543, 16.504056930541992], [96.37712669372559, 16.50812339782715], [96.35710716247559, 16.51849937438965], [96.28980827331543, 16.56683921813965], [96.27312278747559, 16.58209800720215], [96.26596260070801, 16.596830368041992], [96.26498603820801, 16.62177085876465], [96.26156806945801, 16.64069175720215], [96.25562858581543, 16.65729331970215], [96.23552513122559, 16.69782066345215], [96.22926139831543, 16.71873664855957], [96.22641181945801, 16.739408493041992], [96.22575950622559, 16.76129722595215], [96.23454856872559, 16.77692222595215], [96.27491569519043, 16.80267906188965], [96.28712272644043, 16.813138961791992], [96.25758171081543, 16.81590461730957], [96.20655632019043, 16.777494430541992], [96.17115592956543, 16.77155113220215], [96.17693138122559, 16.76227378845215], [96.19410514831543, 16.74315071105957], [96.19776725769043, 16.734037399291992], [96.20460319519043, 16.69647789001465], [96.21485710144043, 16.67963218688965], [96.24089622497559, 16.65013313293457], [96.24610710144043, 16.63129234313965], [96.24382591247559, 16.61945152282715], [96.23365592956543, 16.59788703918457], [96.23194694519043, 16.58722496032715], [96.23463249206543, 16.57636070251465], [96.24635124206543, 16.55487632751465], [96.29444694519043, 16.49152183532715], [96.31007194519043, 16.46458625793457], [96.32732200622559, 16.45343589782715], [96.33643913269043, 16.43943977355957], [96.32130241394043, 16.41526985168457], [96.30470085144043, 16.406400680541992], [96.28533744812012, 16.365995407104492], [96.2218189239502, 16.344789505004883], [96.16423606872559, 16.33270835876465], [96.14405632019043, 16.32489585876465], [96.11898994445801, 16.32176399230957], [96.09766960144043, 16.32855796813965], [96.08855247497559, 16.34979820251465], [96.07740592956543, 16.36082649230957], [96.00660514831543, 16.387357711791992], [96.01725959777832, 16.3781681060791], [96.06657981872559, 16.33563804626465], [96.06755638122559, 16.31024742126465], [96.01881217956543, 16.256742477416992], [95.97999382019043, 16.22313117980957], [95.96192741394043, 16.216703414916992], [95.94239616394043, 16.21906089782715], [95.94174385070801, 16.22654914855957], [95.94857978820801, 16.23932456970215], [95.95142936706543, 16.25763511657715], [95.93385124206543, 16.24310874938965], [95.92213249206543, 16.22540855407715], [95.90788841247559, 16.21173667907715], [95.88306999206543, 16.20917320251465], [95.88624382019043, 16.217679977416992], [95.88990592956543, 16.24396324157715], [95.81812858581543, 16.17601203918457], [95.79770088195801, 16.144926071166992], [95.77662467956543, 16.14069175720215], [95.75554466247559, 16.14525032043457], [95.74586296081543, 16.158353805541992], [95.74480247497559, 16.17462730407715], [95.74122428894043, 16.19481086730957], [95.73463249206543, 16.21283531188965], [95.72486686706543, 16.22284507751465], [95.73227119445801, 16.12726402282715], [95.72527122497559, 16.10643196105957], [95.69703483581543, 16.06598472595215], [95.69068717956543, 16.048490524291992], [95.69068717956543, 16.00067710876465], [95.68734931945801, 15.988225936889648], [95.66472434997559, 15.94920539855957], [95.52345085144043, 15.803655624389648], [95.46159934997559, 15.76072883605957], [95.43197822570801, 15.73362922668457], [95.41578483581543, 15.722967147827148], [95.39649772644043, 15.716375350952148], [95.37419700622559, 15.715032577514648], [95.31056022644043, 15.723211288452148], [95.29444694519043, 15.727849960327148], [95.28793525695801, 15.740140914916992], [95.28256416320801, 15.838323593139648], [95.29029655456543, 15.846746444702148], [95.30225944519043, 15.852483749389648], [95.31267356872559, 15.866521835327148], [95.31772041320801, 15.884183883666992], [95.31397819519043, 15.900701522827148], [95.33855247497559, 15.922025680541992], [95.35474967956543, 15.951360702514648], [95.36427116394043, 15.984563827514648], [95.36915397644043, 16.01740074157715], [95.36850166320801, 16.03880500793457], [95.36361885070801, 16.05451011657715], [95.34864616394043, 16.086332321166992], [95.34547233581543, 16.10496711730957], [95.34962272644043, 16.11693000793457], [95.35661888122559, 16.12913703918457], [95.36158561706543, 16.14838218688965], [95.35548210144043, 16.14838218688965], [95.34791374206543, 16.138822555541992], [95.33822822570801, 16.12986946105957], [95.33025169372559, 16.11993980407715], [95.32748603820801, 16.10740852355957], [95.33180046081543, 16.09105110168457], [95.34555244445801, 16.06085777282715], [95.34864616394043, 16.04157066345215], [95.34571647644043, 15.996488571166992], [95.34181022644043, 15.98387336730957], [95.31186103820801, 15.947088241577148], [95.29713249206543, 15.902982711791992], [95.27475166320801, 15.87645149230957], [95.25163841247559, 15.868230819702148], [95.23878288269043, 15.893949508666992], [95.24610710144043, 15.915227890014648], [95.26270866394043, 15.94090461730957], [95.27589225769043, 15.970647811889648], [95.27296257019043, 16.00372886657715], [95.23902702331543, 15.950345993041992], [95.22397041320801, 15.918607711791992], [95.21762275695801, 15.88426399230957], [95.22437858581543, 15.810125350952148], [95.21273994445801, 15.786565780639648], [95.17359733581543, 15.77781867980957], [95.14454460144043, 15.789129257202148], [95.12574577331543, 15.81761360168457], [95.11622428894043, 15.855291366577148], [95.11524772644043, 15.893949508666992], [95.13754463195801, 16.00665855407715], [95.12891960144043, 16.03851890563965], [95.10775947570801, 15.98387336730957], [95.09766960144043, 16.02513313293457], [95.11020088195801, 16.06744956970215], [95.13795280456543, 16.10032844543457], [95.17359733581543, 16.11359214782715], [95.20720481872559, 16.11155891418457], [95.21762275695801, 16.11359214782715], [95.22592353820801, 16.11993980407715], [95.22250556945801, 16.124174118041992], [95.21225166320801, 16.12653160095215], [95.20069694519043, 16.12726402282715], [95.19369697570801, 16.12938117980957], [95.18881416320801, 16.138822555541992], [95.18360710144043, 16.14093589782715], [95.17848014831543, 16.13995933532715], [95.16309928894043, 16.13471031188965], [95.15553092956543, 16.13401985168457], [95.14869499206543, 16.13202476501465], [95.14242744445801, 16.13483238220215], [95.13575553894043, 16.14838218688965], [95.12891960144043, 16.14838218688965], [95.12159538269043, 16.13165855407715], [95.09400749206543, 16.093656539916992], [95.07056999206543, 16.074857711791992], [95.06788444519043, 16.04832649230957], [95.07374382019043, 15.997503280639648], [95.07292747497559, 15.970647811889648], [95.05502510070801, 15.846136093139648], [95.04688835144043, 15.822088241577148], [95.03394889831543, 15.805730819702148], [95.02377510070801, 15.802190780639648], [95.00993919372559, 15.79930305480957], [94.99757194519043, 15.795316696166992], [94.99244499206543, 15.788396835327148], [94.99049186706543, 15.78123664855957], [94.98617744445801, 15.773344039916992], [94.98072624206543, 15.76683235168457], [94.97559928894043, 15.76414680480957], [94.94996452331543, 15.762639999389648], [94.93775749206543, 15.76414680480957], [94.90357780456543, 15.77781867980957], [94.85865592956543, 15.782621383666992], [94.84685325622559, 15.790594100952148], [94.85865592956543, 15.80882453918457], [94.86931419372559, 15.815496444702148], [94.88054466247559, 15.820379257202148], [94.89039421081543, 15.827054977416992], [94.89674186706543, 15.839262008666992], [94.89633369445801, 15.84739875793457], [94.89283561706543, 15.856634140014648], [94.88770866394043, 15.864202499389648], [94.88258171081543, 15.86717414855957], [94.86394309997559, 15.844144821166992], [94.85320091247559, 15.840276718139648], [94.84840202331543, 15.86375617980957], [94.85011100769043, 15.895452499389648], [94.84840202331543, 15.908147811889648], [94.83595085144043, 15.936674118041992], [94.83473014831543, 15.949163436889648], [94.83961296081543, 15.962064743041992], [94.85035514831543, 15.978094100952148], [94.86280632019043, 15.991765975952148], [94.87257194519043, 15.997503280639648], [94.88949775695801, 15.999456405639648], [94.90723991394043, 16.00604820251465], [94.92066764831543, 16.01862144470215], [94.92408561706543, 16.03851890563965], [94.88933372497559, 16.01740074157715], [94.88453483581543, 16.036039352416992], [94.88022041320801, 16.079984664916992], [94.86353874206543, 16.11237144470215], [94.86313056945801, 16.12775230407715], [94.86842155456543, 16.14203453063965], [94.88705635070801, 16.170804977416992], [94.90007591247559, 16.18378257751465], [94.91732978820801, 16.19236946105957], [94.94093132019043, 16.19554328918457], [94.95924186706543, 16.20087242126465], [94.97511100769043, 16.21434211730957], [94.98682975769043, 16.23224449157715], [94.99244499206543, 16.25079917907715], [94.98805046081543, 16.24437141418457], [94.97478294372559, 16.23151206970215], [94.97193717956543, 16.22654914855957], [94.96697044372559, 16.22040367126465], [94.94288444519043, 16.21637535095215], [94.92465400695801, 16.20880699157715], [94.90251731872559, 16.209623336791992], [94.89307975769043, 16.20575523376465], [94.86842155456543, 16.17389488220215], [94.86573600769043, 16.16888999938965], [94.85466575622559, 16.16022300720215], [94.84945869445801, 16.139799118041992], [94.84840202331543, 16.09650230407715], [94.85059928894043, 16.08576011657715], [94.85987663269043, 16.06541633605957], [94.86207389831543, 16.05560874938965], [94.86402702331543, 16.04962730407715], [94.86768913269043, 16.045316696166992], [94.86939811706543, 16.04096031188965], [94.85645866394043, 16.01849937438965], [94.85523796081543, 16.01398277282715], [94.84620475769043, 15.99998664855957], [94.78687858581543, 15.96214485168457], [94.77418327331543, 15.94334602355957], [94.74537467956543, 15.88084602355957], [94.73520088195801, 15.86839485168457], [94.72120475769043, 15.85667610168457], [94.70387077331543, 15.848455429077148], [94.68385124206543, 15.846746444702148], [94.65870475769043, 15.85447883605957], [94.64893913269043, 15.868597030639648], [94.64454460144043, 15.887113571166992], [94.63551139831543, 15.908147811889648], [94.63282585144043, 15.889715194702148], [94.62240791320801, 15.891546249389648], [94.61020088195801, 15.904973983764648], [94.60133171081543, 15.921209335327148], [94.62867546081543, 15.939153671264648], [94.66554069519043, 15.957914352416992], [94.70313835144043, 15.982366561889648], [94.73227119445801, 16.01740074157715], [94.74171257019043, 16.067289352416992], [94.74903678894043, 16.07567024230957], [94.75806999206543, 16.08344078063965], [94.76588249206543, 16.093168258666992], [94.76978874206543, 16.10228157043457], [94.77198600769043, 16.110990524291992], [94.77271842956543, 16.131010055541992], [94.77662467956543, 16.134916305541992], [94.78516960144043, 16.13963508605957], [94.79265403747559, 16.14789390563965], [94.79371452331543, 16.162015914916992], [94.77515983581543, 16.15155601501465], [94.76596260070801, 16.13947105407715], [94.75221061706543, 16.10740852355957], [94.72543525695801, 16.06390953063965], [94.71803092956543, 16.04466438293457], [94.70533561706543, 16.020658493041992], [94.68922233581543, 16.00731086730957], [94.67140007019043, 15.99656867980957], [94.61475944519043, 15.943670272827148], [94.58985710144043, 15.931585311889648], [94.56657981872559, 15.935491561889648], [94.56234931945801, 15.961858749389648], [94.58871650695801, 15.996244430541992], [94.64234733581543, 16.04466438293457], [94.66334342956543, 16.079984664916992], [94.67888450622559, 16.12128257751465], [94.68669700622559, 16.16534996032715], [94.68385124206543, 16.20917320251465], [94.66871452331543, 16.240873336791992], [94.66521263122559, 16.25763511657715], [94.67359733581543, 16.27472496032715], [94.68531608581543, 16.29197883605957], [94.70492744445801, 16.35321617126465], [94.71070671081543, 16.36033821105957], [94.72055244445801, 16.36212730407715], [94.73227119445801, 16.36066246032715], [94.73227119445801, 16.36749839782715], [94.72169303894043, 16.37848472595215], [94.70582389831543, 16.47308921813965], [94.70622825622559, 16.48444175720215], [94.71070671081543, 16.497220993041992], [94.71729850769043, 16.50291633605957], [94.72543525695801, 16.50511360168457], [94.73161888122559, 16.51019859313965], [94.73227119445801, 16.524564743041992], [94.69727897644043, 16.50836753845215], [94.68393135070801, 16.51080894470215], [94.67701530456543, 16.53196907043457], [94.67017936706543, 16.509672164916992], [94.68385124206543, 16.42206382751465], [94.68385124206543, 16.36408042907715], [94.67848014831543, 16.348539352416992], [94.65512275695801, 16.32269859313965], [94.64975166320801, 16.30882453918457], [94.64372825622559, 16.28351402282715], [94.62794303894043, 16.26019859313965], [94.60670280456543, 16.24310874938965], [94.58399772644043, 16.23651695251465], [94.58204460144043, 16.24347496032715], [94.59262275695801, 16.25922203063965], [94.61500358581543, 16.285551071166992], [94.63551139831543, 16.32648277282715], [94.62973213195801, 16.34418296813965], [94.61817741394043, 16.34202766418457], [94.60670280456543, 16.32599449157715], [94.59889030456543, 16.29364585876465], [94.59254264831543, 16.28351402282715], [94.58366966247559, 16.27484703063965], [94.57398796081543, 16.27130699157715], [94.56202507019043, 16.27374839782715], [94.55404853820801, 16.27972984313965], [94.54762077331543, 16.28656578063965], [94.53988838195801, 16.29169273376465], [94.52116966247559, 16.29547691345215], [94.51563835144043, 16.287260055541992], [94.51881217956543, 16.24738121032715], [94.51734733581543, 16.22394371032715], [94.51319694519043, 16.20514488220215], [94.50700950622559, 16.189603805541992], [94.45557975769043, 16.105619430541992], [94.42807197570801, 16.07416343688965], [94.39649772644043, 16.058988571166992], [94.37574577331543, 16.056058883666992], [94.36060905456543, 16.04926109313965], [94.35133171081543, 16.03436851501465], [94.34799385070801, 16.00714683532715], [94.34001731872559, 15.996244430541992], [94.32146263122559, 15.989934921264648], [94.30079460144043, 15.98973274230957], [94.28663444519043, 15.997503280639648], [94.26563835144043, 15.97508430480957], [94.25147819519043, 15.968450546264648], [94.23951530456543, 15.97630500793457], [94.21461296081543, 16.014799118041992], [94.20981025695801, 16.02899742126465], [94.20924186706543, 16.04450035095215], [94.21510124206543, 16.15765953063965], [94.23780632019043, 16.27313804626465], [94.23536491394043, 16.34837532043457], [94.23813056945801, 16.36066246032715], [94.24171257019043, 16.36603355407715], [94.25407981872559, 16.37946128845215], [94.25863838195801, 16.387357711791992], [94.27312278747559, 16.46649742126465], [94.26832389831543, 16.527494430541992], [94.27312278747559, 16.53815269470215], [94.30860710144043, 16.52777671813965], [94.33106803894043, 16.52863121032715], [94.34132194519043, 16.54840660095215], [94.34897041320801, 16.57811164855957], [94.34620475769043, 16.592435836791992], [94.32765007019043, 16.600248336791992], [94.32765007019043, 16.60643196105957], [94.35206413269043, 16.61859703063965], [94.36198997497559, 16.63548469543457], [94.36231803894043, 16.68585777282715], [94.36443138122559, 16.70111656188965], [94.37338447570801, 16.72931480407715], [94.37550163269043, 16.74078941345215], [94.37965202331543, 16.75535774230957], [94.39845085144043, 16.775785446166992], [94.40268135070801, 16.78827476501465], [94.40064811706543, 16.83063316345215], [94.39649772644043, 16.84662437438965], [94.38347434997559, 16.87201499938965], [94.37891960144043, 16.88694953918457], [94.38233757019043, 16.901273727416992], [94.39063835144043, 16.906644821166992], [94.40064811706543, 16.904447555541992], [94.41187858581543, 16.90070152282715], [94.42318916320801, 16.901273727416992], [94.43531608581543, 16.91014289855957], [94.46469306945801, 16.94965171813965], [94.44434928894043, 16.94965171813965], [94.45387077331543, 16.965238571166992], [94.45777702331543, 16.98289680480957], [94.45671653747559, 17.05060386657715], [94.45785713195801, 17.05955696105957], [94.46192741394043, 17.06964683532715], [94.47836494445801, 17.09308433532715], [94.48414421081543, 17.10569953918457], [94.48878288269043, 17.12421226501465], [94.48568916320801, 17.141019821166992], [94.45777702331543, 17.15375328063965], [94.45265007019043, 17.16620445251465], [94.45435905456543, 17.180082321166992], [94.46469306945801, 17.18927574157715], [94.51091575622559, 17.16901206970215], [94.51881217956543, 17.172513961791992], [94.52247428894043, 17.17780113220215], [94.53044700622559, 17.18195152282715], [94.53785514831543, 17.187406539916992], [94.53988838195801, 17.19672203063965], [94.53500556945801, 17.20514488220215], [94.52662467956543, 17.20941734313965], [94.51783561706543, 17.212553024291992], [94.51197624206543, 17.217191696166992], [94.50863838195801, 17.230131149291992], [94.51197624206543, 17.27521324157715], [94.51889228820801, 17.28815269470215], [94.53321647644043, 17.29034996032715], [94.54542350769043, 17.29608726501465], [94.54615592956543, 17.31964683532715], [94.55933952331543, 17.316312789916992], [94.57252311706543, 17.31110191345215], [94.58448600769043, 17.30328941345215], [94.59449577331543, 17.29230308532715], [94.57683372497559, 17.35834312438965], [94.56772041320801, 17.462881088256836], [94.5681095123291, 17.462759017944336], [94.63622093200684, 17.416250228881836], [94.65595817565918, 17.407182693481445], [94.67962837219238, 17.404882431030273], [94.69595909118652, 17.401288986206055], [94.71476936340332, 17.388525009155273], [94.72995948791504, 17.373979568481445], [94.73657417297363, 17.36943244934082], [94.74422264099121, 17.366666793823242], [94.75435066223145, 17.371652603149414], [94.78783988952637, 17.429712295532227], [94.79941368103027, 17.465394973754883], [94.80209922790527, 17.5405330657959], [94.8072681427002, 17.57724952697754], [94.80706214904785, 17.606576919555664], [94.80954170227051, 17.623991012573242], [94.81791496276855, 17.64130210876465], [94.86897087097168, 17.696931838989258], [94.88292121887207, 17.729978561401367], [94.88912391662598, 17.783464431762695], [94.90173149108887, 17.8154239654541], [94.90297508239746, 17.8337459564209], [94.90266227722168, 17.8508243560791], [94.87537956237793, 17.898286819458008], [94.86638832092285, 17.911104202270508], [94.8632869720459, 17.917383193969727], [94.85946083068848, 17.927976608276367], [94.85791206359863, 17.94236946105957], [94.85822105407715, 17.957536697387695], [94.87537956237793, 17.998849868774414], [94.87403297424316, 18.101274490356445], [94.89150047302246, 18.18052101135254], [94.89005470275879, 18.236536026000977], [94.87920188903809, 18.277387619018555], [94.83659553527832, 18.357622146606445], [94.83651924133301, 18.357770919799805], [94.82090950012207, 18.3730411529541], [94.8086109161377, 18.38911247253418], [94.7636547088623, 18.4663143157959], [94.76303291320801, 18.47432518005371], [94.76334190368652, 18.485074996948242], [94.76840782165527, 18.507890701293945], [94.77274894714355, 18.521142959594727], [94.77585029602051, 18.535974502563477], [94.77274894714355, 18.553983688354492], [94.74670219421387, 18.605379104614258], [94.74401664733887, 18.623567581176758], [94.75528144836426, 18.644006729125977], [94.78597831726074, 18.67237663269043], [94.79093742370605, 18.684621810913086], [94.79186820983887, 18.697153091430664], [94.77233695983887, 18.727487564086914], [94.72871971130371, 18.76593589782715], [94.72437858581543, 18.771284103393555], [94.72107124328613, 18.77650260925293], [94.72014045715332, 18.783788681030273], [94.72282981872559, 18.79136085510254], [94.73554039001465, 18.796655654907227], [94.76809883117676, 18.800920486450195], [94.78473854064941, 18.805986404418945], [94.79724311828613, 18.813066482543945], [94.8039608001709, 18.823427200317383], [94.80468559265137, 18.83717155456543], [94.7960033416748, 18.85784339904785], [94.78949165344238, 18.869958877563477], [94.74649620056152, 18.923860549926758], [94.73440361022949, 18.9238338470459], [94.7184886932373, 18.943727493286133], [94.68231391906738, 19.024988174438477], [94.63446235656738, 19.075502395629883], [94.60180473327637, 19.092504501342773], [94.58444023132324, 19.095373153686523], [94.57121086120605, 19.0992488861084], [94.55953025817871, 19.114931106567383], [94.5492992401123, 19.140230178833008], [94.53359031677246, 19.197900772094727], [94.53493309020996, 19.220998764038086], [94.54268455505371, 19.233091354370117], [94.55302238464355, 19.233789443969727], [94.55953025817871, 19.236448287963867], [94.56066703796387, 19.246267318725586], [94.55550193786621, 19.264097213745117], [94.53152275085449, 19.30579948425293], [94.4394359588623, 19.432199478149414], [94.43013572692871, 19.451345443725586], [94.40873908996582, 19.559167861938477], [94.36977577209473, 19.730581283569336], [94.32791709899902, 19.81809425354004], [94.32481575012207, 19.831968307495117], [94.32430076599121, 19.84773063659668], [94.32977867126465, 19.874189376831055], [94.34000968933105, 19.905710220336914], [94.34311103820801, 19.919252395629883], [94.34135246276855, 19.933073043823242], [94.33391380310059, 19.949560165405273], [94.31685829162598, 19.970849990844727], [94.28657722473145, 19.99986457824707], [94.28378486633301, 20.001855850219727], [94.26518440246582, 20.016942977905273], [94.2580509185791, 20.032732009887695], [94.25267601013184, 20.0487003326416], [94.25618934631348, 20.111356735229492], [94.20761680603027, 20.166677474975586], [94.19355964660645, 20.19150733947754], [94.16989326477051, 20.25938606262207], [94.15593910217285, 20.28739356994629], [94.02654075622559, 20.492109298706055], [94.0228214263916, 20.501127243041992], [94.01165962219238, 20.517946243286133], [94.00018501281738, 20.532106399536133], [93.98385810852051, 20.54469108581543], [93.96763038635254, 20.551435470581055], [93.92659950256348, 20.558618545532227], [93.91378211975098, 20.56435203552246], [93.90396308898926, 20.581071853637695], [93.90458488464355, 20.70191764831543], [93.97786140441895, 20.655664443969727], [93.99522590637207, 20.65302848815918], [94.02302742004395, 20.65155601501465], [94.10819053649902, 20.672304153442383], [94.13030815124512, 20.682485580444336], [94.13826560974121, 20.692949295043945], [94.13764381408691, 20.700780868530273], [94.13547325134277, 20.70610237121582], [94.13247871398926, 20.712121963500977], [94.10395240783691, 20.746511459350586], [94.09589195251465, 20.76033592224121], [94.09020805358887, 20.776277542114258], [94.08204078674316, 20.81883430480957], [94.07418632507324, 20.842294692993164], [94.0416316986084, 20.90678596496582], [94.03946113586426, 20.9166316986084], [94.0462818145752, 20.9574031829834], [94.10973930358887, 21.06551170349121], [94.11666297912598, 21.086828231811523], [94.1191463470459, 21.11137580871582], [94.11625099182129, 21.177236557006836], [94.11263465881348, 21.195890426635742], [94.10601997375488, 21.208730697631836], [94.09258460998535, 21.219533920288086], [94.05217170715332, 21.242734909057617], [94.02798652648926, 21.265836715698242], [94.05775260925293, 21.32037925720215], [94.07552909851074, 21.43662452697754], [94.12534523010254, 21.538610458374023], [94.13020515441895, 21.555402755737305], [94.13030815124512, 21.572999954223633], [94.12524223327637, 21.58550453186035], [94.10705375671387, 21.614988327026367], [94.06054496765137, 21.688291549682617], [94.02178764343262, 21.75606346130371], [94.00700569152832, 21.790090560913086], [94.00369834899902, 21.82792091369629], [94.0073184967041, 21.891069412231445], [94.01692771911621, 21.921945571899414], [94.02375221252441, 21.93010902404785], [94.03336143493652, 21.93724250793457], [94.04969215393066, 21.945146560668945], [94.05372428894043, 21.9520206451416], [94.05341148376465, 21.959074020385742], [94.05155372619629, 21.962614059448242], [94.04390525817871, 21.98137092590332], [94.0214786529541, 22.049428939819336], [94.02592277526855, 22.070463180541992], [94.0462818145752, 22.115678787231445], [94.05031394958496, 22.139787673950195], [94.04969215393066, 22.1597843170166], [94.02178764343262, 22.29429817199707], [94.0214786529541, 22.31279945373535], [94.02540397644043, 22.325796127319336], [94.04721260070801, 22.36003303527832], [94.05072593688965, 22.374399185180664], [94.04721260070801, 22.382535934448242], [94.03873634338379, 22.385793685913086], [94.02560997009277, 22.387964248657227], [94.02375221252441, 22.39512062072754], [94.03398323059082, 22.41912269592285], [94.03542900085449, 22.43315315246582], [94.02333641052246, 22.536401748657227], [94.0274715423584, 22.573095321655273], [94.0261287689209, 22.59027671813965], [94.01537895202637, 22.623788833618164], [94.00700569152832, 22.678022384643555], [93.99439811706543, 22.743162155151367], [94.00049781799316, 22.771608352661133], [94.00545692443848, 22.77977180480957], [94.0139331817627, 22.814966201782227], [94.00917625427246, 22.88139533996582], [94.00214958190918, 22.895631790161133], [93.99801445007324, 22.909120559692383], [93.9925365447998, 22.920255661010742], [93.99346733093262, 22.932554244995117], [94.01548194885254, 23.01154136657715], [94.02002906799316, 23.052003860473633], [94.01941108703613, 23.071821212768555], [94.00173759460449, 23.16685676574707], [93.99811744689941, 23.220006942749023], [93.99925422668457, 23.23101234436035], [94.01144981384277, 23.2779598236084], [94.01052284240723, 23.29496192932129], [94.00028800964355, 23.330541610717773], [94.01052284240723, 23.337308883666992], [94.03542900085449, 23.335603713989258], [94.04442024230957, 23.339792251586914], [94.04907035827637, 23.34795570373535], [94.05413627624512, 23.423017501831055], [94.05165672302246, 23.436891555786133], [94.04452323913574, 23.461179733276367], [94.04452323913574, 23.490556716918945], [94.05031394958496, 23.4993953704834], [94.05372428894043, 23.500608444213867], [94.0598201751709, 23.50138282775879], [94.06622886657715, 23.500219345092773], [94.06684684753418, 23.50001335144043], [94.09950828552246, 23.480920791625977], [94.11418342590332, 23.476579666137695], [94.12348747253418, 23.475854873657227], [94.12813758850098, 23.478517532348633], [94.1353702545166, 23.485620498657227], [94.13940238952637, 23.491411209106445], [94.14177894592285, 23.49730110168457], [94.14250373840332, 23.49928855895996], [94.15097618103027, 23.573110580444336], [94.15697288513184, 23.600576400756836], [94.17009925842285, 23.694963455200195], [94.16399955749512, 23.721033096313477], [94.1455020904541, 23.760461807250977], [94.14012718200684, 23.778318405151367], [94.13454627990723, 23.843557357788086], [94.12885856628418, 23.853906631469727], [94.13185691833496, 23.856969833374023], [94.13506126403809, 23.87730598449707], [94.13361549377441, 23.8991641998291], [94.13506126403809, 23.919008255004883], [94.1448802947998, 23.938875198364258], [94.19025230407715, 23.995283126831055], [94.19386863708496, 24.009672164916992], [94.19914054870605, 24.048093795776367], [94.20368766784668, 24.05776023864746], [94.21412467956543, 24.069177627563477], [94.21846580505371, 24.086671829223633], [94.22218894958496, 24.122636795043945], [94.23396873474121, 24.160337448120117], [94.28275108337402, 24.266427993774414], [94.28688621520996, 24.28306770324707], [94.28998756408691, 24.31675910949707], [94.29536247253418, 24.332597732543945], [94.30280113220215, 24.34102439880371], [94.32367897033691, 24.354665756225586], [94.33070945739746, 24.362855911254883], [94.33173942565918, 24.3710994720459], [94.32832908630371, 24.388486862182617], [94.32874488830566, 24.39448356628418], [94.34000968933105, 24.406007766723633], [94.35220527648926, 24.413938522338867], [94.36119651794434, 24.4254093170166], [94.36367607116699, 24.465822219848633], [94.37039375305176, 24.477731704711914], [94.38186836242676, 24.486310958862305], [94.39705848693848, 24.49506950378418], [94.41080665588379, 24.54594612121582], [94.41845512390137, 24.560312271118164], [94.43023490905762, 24.570905685424805], [94.47498893737793, 24.59739112854004], [94.48708152770996, 24.62046241760254], [94.50795936584473, 24.68901252746582], [94.51632881164551, 24.704954147338867], [94.53100395202637, 24.707487106323242], [94.54340934753418, 24.70733070373535], [94.55570793151855, 24.7088565826416], [94.5694522857666, 24.716402053833008], [94.58154487609863, 24.730119705200195], [94.58950233459473, 24.747251510620117], [94.59322547912598, 24.765932083129883], [94.59322547912598, 24.783784866333008], [94.59901237487793, 24.813474655151367], [94.63911247253418, 24.8627986907959], [94.65482139587402, 24.8891544342041], [94.67352867126465, 24.974809646606445], [94.68975639343262, 24.995092391967773], [94.70856666564941, 25.02589225769043], [94.71383857727051, 25.068265914916992], [94.70680809020996, 25.109941482543945], [94.68913459777832, 25.138521194458008], [94.65327262878418, 25.15412712097168], [94.61296272277832, 25.161359786987305], [94.57689476013184, 25.173608779907227], [94.55333137512207, 25.20414924621582], [94.55012702941895, 25.245283126831055], [94.60800361633301, 25.394628524780273], [94.63053321838379, 25.42738914489746], [94.65036201477051, 25.4466495513916], [94.65947151184082, 25.455503463745117], [94.69202995300293, 25.476327896118164], [94.71114921569824, 25.482786178588867], [94.74577140808105, 25.48661231994629], [94.76437568664551, 25.491674423217773], [94.78235816955566, 25.504594802856445], [94.80799293518066, 25.542627334594727], [94.82235908508301, 25.559114456176758], [94.8310375213623, 25.562471389770508], [94.85077857971191, 25.56278419494629], [94.86028861999512, 25.567174911499023], [94.86100959777832, 25.571413040161133], [94.85294914245605, 25.580766677856445], [94.85346794128418, 25.58603858947754], [94.85749626159668, 25.589345932006836], [94.86804008483887, 25.594717025756836], [94.87165641784668, 25.598024368286133], [94.96146965026855, 25.717966079711914], [94.96901512145996, 25.725614547729492], [94.97862815856934, 25.72907829284668], [94.99991798400879, 25.731557846069336], [95.0088062286377, 25.737138748168945], [95.01531791687012, 25.7551212310791], [95.01345634460449, 25.7777042388916], [94.99320030212402, 25.880952835083008], [94.99402809143066, 25.90043830871582], [95.00064277648926, 25.92203712463379], [95.01201057434082, 25.93144416809082], [95.04942512512207, 25.943742752075195], [95.06585502624512, 25.95381736755371], [95.10823249816895, 25.995107650756836], [95.13954734802246, 26.029939651489258], [95.1512279510498, 26.049936294555664], [95.15009117126465, 26.07097053527832], [95.13747978210449, 26.082956314086914], [95.10172080993652, 26.09339714050293], [95.08818244934082, 26.104093551635742], [95.0783634185791, 26.171323776245117], [95.0823917388916, 26.179800033569336], [95.08973121643066, 26.18760108947754], [95.09448432922363, 26.195043563842773], [95.09076499938965, 26.20269203186035], [95.08280754089355, 26.206621170043945], [95.07453727722168, 26.20832633972168], [95.06637382507324, 26.21101188659668], [95.05872535705566, 26.217679977416992], [95.04632377624512, 26.247961044311523], [95.04177665710449, 26.287595748901367], [95.04363441467285, 26.327695846557617], [95.05045890808105, 26.35906410217285], [95.0642032623291, 26.392602920532227], [95.06606483459473, 26.407434463500977], [95.06172370910645, 26.426607131958008], [95.04260063171387, 26.459680557250977], [95.04063987731934, 26.475595474243164], [95.05438423156738, 26.494871139526367], [95.06988716125488, 26.50623893737793], [95.09924125671387, 26.536108016967773], [95.10957527160645, 26.551301956176758], [95.11495018005371, 26.56256675720215], [95.11618995666504, 26.569337844848633], [95.11588096618652, 26.575639724731445], [95.11908531188965, 26.604219436645508], [95.12280464172363, 26.611608505249023], [95.13262367248535, 26.620805740356445], [95.14140892028809, 26.624990463256836], [95.16342353820801, 26.62974739074707], [95.17323875427246, 26.63382911682129], [95.18161201477051, 26.64168357849121], [95.19556617736816, 26.66075325012207], [95.20486640930176, 26.667573928833008], [95.22326469421387, 26.67036247253418], [95.23907661437988, 26.649641036987305], [95.24693489074707, 26.64890480041504], [95.26057243347168, 26.647626876831055], [95.27897071838379, 26.6529483795166], [95.31596946716309, 26.6690731048584], [95.39266014099121, 26.69175910949707], [95.41064262390137, 26.701627731323242], [95.43999290466309, 26.73537254333496], [95.46273231506348, 26.777177810668945], [95.48980903625488, 26.81071662902832], [95.53135871887207, 26.820276260375977], [95.55440711975098, 26.816606521606445], [95.57476615905762, 26.81614112854004], [95.5913028717041, 26.823740005493164], [95.60339546203613, 26.844255447387695], [95.61331748962402, 26.867921829223633], [95.6242733001709, 26.880739212036133], [95.63998222351074, 26.886423110961914], [95.68607902526855, 26.891279220581055], [95.69930458068848, 26.896188735961914], [95.70922660827637, 26.907453536987305], [95.73496437072754, 26.947298049926758], [95.7779598236084, 26.995149612426758], [95.80493354797363, 27.004762649536133], [95.8614673614502, 27.014219284057617], [95.88885688781738, 27.02703285217285], [95.91645240783691, 27.051374435424805], [95.9383602142334, 27.07990074157715], [95.97484397888184, 27.142892837524414], [96.0131893157959, 27.190797805786133], [96.07416725158691, 27.2298641204834], [96.14258766174316, 27.25751304626465], [96.40778923034668, 27.298181533813477], [96.47466087341309, 27.29538917541504], [96.49006080627441, 27.290739059448242], [96.51093482971191, 27.292497634887695], [96.53181266784668, 27.29854393005371], [96.54731559753418, 27.306447982788086], [96.56746864318848, 27.328310012817383], [96.57604789733887, 27.34541130065918], [96.58690071105957, 27.353578567504883], [96.61418724060059, 27.34840965270996], [96.62317848205566, 27.343656539916992], [96.62927436828613, 27.338693618774414], [96.63640785217285, 27.335542678833008], [96.64901542663574, 27.336214065551758], [96.65924644470215, 27.341432571411133], [96.6758861541748, 27.3576602935791], [96.68725776672363, 27.36174201965332], [96.70524024963379, 27.360761642456055], [96.72415351867676, 27.356264114379883], [96.75887870788574, 27.341745376586914], [96.77634620666504, 27.33063316345215], [96.78916358947754, 27.31797218322754], [96.80993461608887, 27.28577995300293], [96.82171821594238, 27.2730655670166], [96.85375785827637, 27.248727798461914], [96.85964775085449, 27.2407169342041], [96.85127830505371, 27.221181869506836], [96.84176826477051, 27.204389572143555], [96.84269905090332, 27.18852424621582], [96.86533164978027, 27.1716251373291], [97.00300025939941, 27.11452293395996], [97.01188850402832, 27.107030868530273], [97.0189151763916, 27.098711013793945], [97.02676963806152, 27.091474533081055], [97.03803443908691, 27.0870304107666], [97.04785346984863, 27.087804794311523], [97.05882835388184, 27.092077255249023], [97.06697654724121, 27.095247268676758], [97.07720756530762, 27.096487045288086], [97.08991813659668, 27.092199325561523], [97.09798240661621, 27.085893630981445], [97.10604286193848, 27.08258628845215], [97.11916923522949, 27.087289810180664], [97.12288856506348, 27.093698501586914], [97.13301658630371, 27.11958885192871], [97.13477516174316, 27.12734031677246], [97.12929725646973, 27.137880325317383], [97.12082099914551, 27.1439266204834], [97.11172676086426, 27.148836135864258], [97.1043872833252, 27.15601921081543], [97.1017017364502, 27.16526985168457], [97.10128974914551, 27.183305740356445], [97.09549903869629, 27.19126319885254], [97.06790351867676, 27.217100143432617], [96.90512275695801, 27.40840721130371], [96.8813533782959, 27.444116592407227], [96.87701225280762, 27.46307945251465], [96.8902416229248, 27.492483139038086], [96.88848304748535, 27.507184982299805], [96.8846607208252, 27.515840530395508], [96.88104438781738, 27.534395217895508], [96.88031959533691, 27.543851852416992], [96.87732124328613, 27.553075790405273], [96.86615943908691, 27.568449020385742], [96.86202430725098, 27.578371047973633], [96.86213111877441, 27.59929847717285], [96.87019157409668, 27.61909294128418], [96.88352394104004, 27.636323928833008], [96.89975166320801, 27.649477005004883], [96.93953895568848, 27.67402458190918], [96.95700645446777, 27.688077926635742], [96.99090766906738, 27.72662925720215], [97.0040340423584, 27.734277725219727], [97.03617668151855, 27.742921829223633], [97.0505428314209, 27.746782302856445], [97.05674171447754, 27.746782302856445], [97.06036186218262, 27.750452041625977], [97.06201362609863, 27.76334571838379], [97.06532096862793, 27.77399253845215], [97.07234764099121, 27.779184341430664], [97.09219169616699, 27.785490036010742], [97.09818840026855, 27.791017532348633], [97.10604286193848, 27.805540084838867], [97.11245155334473, 27.8092098236084], [97.12319755554199, 27.81215476989746], [97.13177680969238, 27.816858291625977], [97.1821117401123, 27.857267379760742], [97.19802665710449, 27.873262405395508], [97.21094703674316, 27.88951301574707], [97.22293281555176, 27.899721145629883], [97.2412281036377, 27.90785789489746], [97.26065635681152, 27.912046432495117], [97.27636909484863, 27.910341262817383], [97.28804588317871, 27.897756576538086], [97.28866767883301, 27.884347915649414], [97.29290580749512, 27.87755012512207], [97.31491661071777, 27.88460350036621], [97.33352088928223, 27.894166946411133], [97.33817100524902, 27.90155601501465], [97.33631324768066, 27.913183212280273], [97.33569145202637, 27.935609817504883], [97.34003257751465, 27.951810836791992], [97.35677528381348, 27.98056983947754], [97.36225318908691, 27.994882583618164], [97.35512351989746, 28.023046493530273], [97.30654716491699, 28.069658279418945], [97.29290580749512, 28.095083236694336], [97.29889869689941, 28.129240036010742], [97.32866477966309, 28.190011978149414], [97.32349586486816, 28.217477798461914], [97.33383369445801, 28.235254287719727], [97.36959266662598, 28.253469467163086], [97.37785911560059, 28.263601303100586], [97.38437080383301, 28.28483772277832], [97.39822196960449, 28.288896560668945], [97.41671943664551, 28.286054611206055], [97.43666648864746, 28.286413192749023], [97.44782829284668, 28.2976016998291], [97.45237922668457, 28.317678451538086], [97.45237922668457, 28.35548210144043], [97.45020866394043, 28.364858627319336], [97.44679832458496, 28.374006271362305], [97.44534873962402, 28.382970809936523], [97.45010566711426, 28.39191246032715], [97.46571159362793, 28.40669059753418], [97.47149848937988, 28.414960861206055], [97.47459983825684, 28.426198959350586], [97.48813819885254, 28.44193458557129], [97.50301933288574, 28.477720260620117], [97.51397514343262, 28.49469566345215], [97.52772331237793, 28.52952766418457], [97.54622077941895, 28.53846549987793], [97.56751441955566, 28.525495529174805], [97.58994102478027, 28.49469566345215], [97.61360740661621, 28.481985092163086], [97.64109992980957, 28.49836540222168], [97.67045402526855, 28.51128578186035], [97.69959831237793, 28.4880313873291], [97.7400074005127, 28.382612228393555], [97.76532936096191, 28.35243034362793], [97.79726600646973, 28.343931198120117], [97.85907173156738, 28.37013053894043], [97.89752006530762, 28.35532569885254], [97.94474983215332, 28.29884147644043], [97.9787540435791, 28.28059959411621], [97.9929141998291, 28.268922805786133], [97.99384498596191, 28.25254249572754], [97.98484992980957, 28.22422218322754], [97.99105262756348, 28.214017868041992], [98.03135871887207, 28.208330154418945], [98.04862022399902, 28.19962501525879], [98.11500358581543, 28.143888473510742], [98.11517906188965, 28.14399528503418], [98.13626289367676, 28.15644645690918], [98.21196937561035, 28.191587448120117], [98.23016166687012, 28.202878952026367], [98.24767875671387, 28.22003746032715], [98.26147651672363, 28.23967170715332], [98.27083015441895, 28.261892318725586], [98.28292274475098, 28.315351486206055], [98.29976844787598, 28.354806900024414], [98.32602119445801, 28.344446182250977], [98.33676719665527, 28.33542823791504], [98.34576225280762, 28.326025009155273], [98.37366676330566, 28.28985023498535], [98.40999412536621, 28.250600814819336], [98.43154335021973, 28.236623764038086], [98.44756507873535, 28.231714248657227], [98.47960090637207, 28.242643356323242], [98.4898853302002, 28.248071670532227], [98.55722236633301, 28.299875259399414], [98.5758228302002, 28.317548751831055], [98.61354637145996, 28.367570877075195], [98.62956809997559, 28.397363662719727], [98.64042091369629, 28.424131393432617], [98.64429664611816, 28.443899154663086], [98.64444923400879, 28.459402084350586], [98.64290046691895, 28.473146438598633], [98.64021110534668, 28.48586082458496], [98.63576698303223, 28.500303268432617], [98.61282539367676, 28.5394229888916], [98.59401512145996, 28.583166122436523], [98.58502388000488, 28.62654685974121], [98.58450508117676, 28.64915657043457], [98.58920860290527, 28.6702938079834], [98.59757804870605, 28.683210372924805], [98.60734748840332, 28.69486427307129], [98.61871528625488, 28.70424461364746], [98.6723575592041, 28.736204147338867], [98.67752265930176, 28.74235725402832], [98.67865943908691, 28.74912452697754], [98.67814445495605, 28.75705909729004], [98.66522407531738, 28.80491065979004], [98.66114234924316, 28.813230514526367], [98.65669822692871, 28.81907081604004], [98.6530818939209, 28.825578689575195], [98.65158271789551, 28.8359432220459], [98.65297889709473, 28.84498405456543], [98.65509605407715, 28.850255966186523], [98.65452766418457, 28.855165481567383], [98.64166069030762, 28.871030807495117], [98.63871574401855, 28.878652572631836], [98.63825035095215, 28.9305362701416], [98.63530540466309, 28.94138526916504], [98.63791847229004, 28.94639015197754], [98.67068672180176, 28.87766456604004], [98.69014167785645, 28.731714248657227], [98.80951881408691, 28.48612403869629], [98.82178688049316, 28.458871841430664], [98.86285209655762, 28.36763572692871], [98.86065483093262, 28.25810432434082]]]]}}]}