{"type": "FeatureCollection", "name": "World Capital Cities", "source": {"name": "Natural Earth", "dataset": "1:10m Populated Places", "version": "5.1.2", "url": "https://raw.githubusercontent.com/nvkelso/natural-earth-vector/v5.1.2/geojson/ne_10m_populated_places.geojson", "license": "Public domain", "filter": "ADM0CAP = 1", "exclusion": "Remove WORLD capital points covered by any DATASET=DATE country polygon", "source_sha256": "9b8e3de09048ef00dfc70357dbb9fa324493f214b5e0ae4daf1aa79a8d10116b"}, "date_country_exclusion": {"excluded_count": 20, "excluded_capitals": [{"id": "natural-earth-1159150593", "name": "Kampala", "country": "Uganda"}, {"id": "natural-earth-1159150655", "name": "Kathmandu", "country": "Nepal"}, {"id": "natural-earth-1159150665", "name": "Honiara", "country": "Solomon Islands"}, {"id": "natural-earth-1159150961", "name": "Tbilisi", "country": "Georgia"}, {"id": "natural-earth-1159150991", "name": "Vientiane", "country": "Laos"}, {"id": "natural-earth-1159151119", "name": "Yerevan", "country": "Armenia"}, {"id": "natural-earth-1159151123", "name": "Baku", "country": "Azerbaijan"}, {"id": "natural-earth-1159151127", "name": "Phnom Penh", "country": "Cambodia"}, {"id": "natural-earth-1159151149", "name": "Minsk", "country": "Belarus"}, {"id": "natural-earth-1159151151", "name": "Thimphu", "country": "Bhutan"}, {"id": "natural-earth-1159151179", "name": "Naypyidaw", "country": "Myanmar"}, {"id": "natural-earth-1159151251", "name": "Hanoi", "country": "Vietnam"}, {"id": "natural-earth-1159151305", "name": "Dar es Salaam", "country": "Tanzania"}, {"id": "natural-earth-1159151467", "name": "Dhaka", "country": "Bangladesh"}, {"id": "natural-earth-1159151495", "name": "Kyiv", "country": "Ukraine"}, {"id": "natural-earth-1159151509", "name": "Bangkok", "country": "Thailand"}, {"id": "natural-earth-1159151525", "name": "Manila", "country": "Philippines"}, {"id": "natural-earth-1159151551", "name": "Tehran", "country": "Iran"}, {"id": "natural-earth-1159151585", "name": "Moscow", "country": "Russia"}, {"id": "natural-earth-1159151597", "name": "Nairobi", "country": "Kenya"}]}, "features": [{"type": "Feature", "id": "natural-earth-1159151561", "properties": {"name": "Kabul", "country": "Afghanistan", "sovereign": "Afghanistan", "code": "AFG", "iso_a2": "AF", "population": 3277000, "wikidata_id": "Q5838", "DATASET": "WORLD", "source": "Natural Earth 5.1.2"}, "geometry": {"type": "Point", "coordinates": [69.181314, 34.518636]}}, {"type": "Feature", "id": "natural-earth-1159151117", "properties": {"name": "Tirana", "country": "Albania", "sovereign": "Albania", "code": "ALB", "iso_a2": "AL", "population": 895350, "wikidata_id": "Q19689", "DATASET": "WORLD", "source": "Natural Earth 5.1.2"}, "geometry": {"type": "Point", "coordinates": [19.818883, 41.327541]}}, {"type": "Feature", "id": "natural-earth-1159151471", "properties": {"name": "Algiers", "country": "Algeria", "sovereign": "Algeria", "code": "DZA", "iso_a2": "DZ", "population": 3354000, "wikidata_id": "Q3561", "DATASET": "WORLD", "source": "Natural Earth 5.1.2"}, "geometry": {"type": "Point", "coordinates": [3.048607, 36.765011]}}, {"type": "Feature", "id": "natural-earth-1159149089", "properties": {"name": "Andorra la Vella", "country": "Andorra", "sovereign": "Andorra", "code": "AND", "iso_a2": "AD", "population": 53998, "wikidata_id": "Q1863", "DATASET": "WORLD", "source": "Natural Earth 5.1.2"}, "geometry": {"type": "Point", "coordinates": [1.526594, 42.510753]}}, {"type": "Feature", "id": "natural-earth-1159151469", "properties": {"name": "Luanda", "country": "Angola", "sovereign": "Angola", "code": "AGO", "iso_a2": "AO", "population": 5172900, "wikidata_id": "Q3897", "DATASET": "WORLD", "source": "Natural Earth 5.1.2"}, "geometry": {"type": "Point", "coordinates": [13.232481, -8.83634]}}, {"type": "Feature", "id": "natural-earth-1159150457", "properties": {"name": "Saint John's", "country": "Antigua and Barbuda", "sovereign": "Antigua and Barbuda", "code": "ATG", "iso_a2": "AG", "population": 35499, "wikidata_id": "Q36262", "DATASET": "WORLD", "source": "Natural Earth 5.1.2"}, "geometry": {"type": "Point", "coordinates": [-61.850034, 17.118036]}}, {"type": "Feature", "id": "natural-earth-1159151559", "properties": {"name": "Buenos Aires", "country": "Argentina", "sovereign": "Argentina", "code": "ARG", "iso_a2": "AR", "population": 12795000, "wikidata_id": "Q1486", "DATASET": "WORLD", "source": "Natural Earth 5.1.2"}, "geometry": {"type": "Point", "coordinates": [-58.432513, -34.610715]}}, {"type": "Feature", "id": "natural-earth-1159151161", "properties": {"name": "Canberra", "country": "Australia", "sovereign": "Australia", "code": "AUS", "iso_a2": "AU", "population": 327700, "wikidata_id": "Q3114", "DATASET": "WORLD", "source": "Natural Earth 5.1.2"}, "geometry": {"type": "Point", "coordinates": [149.129026, -35.283029]}}, {"type": "Feature", "id": "natural-earth-1159151563", "properties": {"name": "Vienna", "country": "Austria", "sovereign": "Austria", "code": "AUT", "iso_a2": "AT", "population": 2400000, "wikidata_id": "Q1741", "DATASET": "WORLD", "source": "Natural Earth 5.1.2"}, "geometry": {"type": "Point", "coordinates": [16.364693, 48.201961]}}, {"type": "Feature", "id": "natural-earth-1159150451", "properties": {"name": "Manama", "country": "Bahrain", "sovereign": "Bahrain", "code": "BHR", "iso_a2": "BH", "population": 563920, "wikidata_id": "Q3882", "DATASET": "WORLD", "source": "Natural Earth 5.1.2"}, "geometry": {"type": "Point", "coordinates": [50.583052, 26.236136]}}, {"type": "Feature", "id": "natural-earth-1159150339", "properties": {"name": "Bridgetown", "country": "Barbados", "sovereign": "Barbados", "code": "BRB", "iso_a2": "BB", "population": 191152, "wikidata_id": "Q36168", "DATASET": "WORLD", "source": "Natural Earth 5.1.2"}, "geometry": {"type": "Point", "coordinates": [-59.616527, 13.102003]}}, {"type": "Feature", "id": "natural-earth-1159151465", "properties": {"name": "Brussels", "country": "Belgium", "sovereign": "Belgium", "code": "BEL", "iso_a2": "BE", "population": 1743000, "wikidata_id": "Q239", "DATASET": "WORLD", "source": "Natural Earth 5.1.2"}, "geometry": {"type": "Point", "coordinates": [4.331371, 50.835263]}}, {"type": "Feature", "id": "natural-earth-1159151109", "properties": {"name": "Belmopan", "country": "Belize", "sovereign": "Belize", "code": "BLZ", "iso_a2": "BZ", "population": 15220, "wikidata_id": "Q3043", "DATASET": "WORLD", "source": "Natural Earth 5.1.2"}, "geometry": {"type": "Point", "coordinates": [-88.767073, 17.252033]}}, {"type": "Feature", "id": "natural-earth-1159151141", "properties": {"name": "Cotonou", "country": "Benin", "sovereign": "Benin", "code": "BEN", "iso_a2": "BJ", "capital_type": "De facto, admin", "population": 762000, "wikidata_id": "Q43595", "DATASET": "WORLD", "source": "Natural Earth 5.1.2"}, "geometry": {"type": "Point", "coordinates": [2.404355, 6.36298]}}, {"type": "Feature", "id": "natural-earth-1159151185", "properties": {"name": "Hamilton", "country": "Bermuda", "sovereign": "United Kingdom", "code": "BMU", "iso_a2": "BM", "capital_type": "Admin-0 region capital", "population": 52320, "wikidata_id": "Q30985", "DATASET": "WORLD", "source": "Natural Earth 5.1.2"}, "geometry": {"type": "Point", "coordinates": [-64.783937, 32.29419]}}, {"type": "Feature", "id": "natural-earth-1159151133", "properties": {"name": "La Paz", "country": "Bolivia", "sovereign": "Bolivia", "code": "BOL", "iso_a2": "BO", "capital_type": "Administrative", "population": 1590000, "wikidata_id": "Q1491", "DATASET": "WORLD", "source": "Natural Earth 5.1.2"}, "geometry": {"type": "Point", "coordinates": [-68.151931, -16.496028]}}, {"type": "Feature", "id": "natural-earth-1159151095", "properties": {"name": "Sucre", "country": "Bolivia", "sovereign": "Bolivia", "code": "BOL", "iso_a2": "BO", "capital_type": "Official (const", "population": 224838, "wikidata_id": "Q2907", "DATASET": "WORLD", "source": "Natural Earth 5.1.2"}, "geometry": {"type": "Point", "coordinates": [-65.259516, -19.040971]}}, {"type": "Feature", "id": "natural-earth-1159151177", "properties": {"name": "Sarajevo", "country": "Bosnia and Herzegovina", "sovereign": "Bosnia and Herzegovina", "code": "BIH", "iso_a2": "BA", "population": 696731, "wikidata_id": "Q11194", "DATASET": "WORLD", "source": "Natural Earth 5.1.2"}, "geometry": {"type": "Point", "coordinates": [18.383002, 43.850022]}}, {"type": "Feature", "id": "natural-earth-1159151153", "properties": {"name": "Gaborone", "country": "Botswana", "sovereign": "Botswana", "code": "BWA", "iso_a2": "BW", "population": 208411, "wikidata_id": "Q3919", "DATASET": "WORLD", "source": "Natural Earth 5.1.2"}, "geometry": {"type": "Point", "coordinates": [25.911948, -24.646314]}}, {"type": "Feature", "id": "natural-earth-1159151443", "properties": {"name": "Bras\u00edlia", "country": "Brazil", "sovereign": "Brazil", "code": "BRA", "iso_a2": "BR", "population": 3716996, "wikidata_id": "Q2844", "DATASET": "WORLD", "source": "Natural Earth 5.1.2"}, "geometry": {"type": "Point", "coordinates": [-47.917998, -15.781394]}}, {"type": "Feature", "id": "natural-earth-1159151083", "properties": {"name": "Bandar Seri Begawan", "country": "Brunei", "sovereign": "Brunei", "code": "BRN", "iso_a2": "BN", "population": 296500, "wikidata_id": "Q9279", "DATASET": "WORLD", "source": "Natural Earth 5.1.2"}, "geometry": {"type": "Point", "coordinates": [114.933284, 4.883331]}}, {"type": "Feature", "id": "natural-earth-1159151147", "properties": {"name": "Sofia", "country": "Bulgaria", "sovereign": "Bulgaria", "code": "BGR", "iso_a2": "BG", "population": 1185000, "wikidata_id": "Q472", "DATASET": "WORLD", "source": "Natural Earth 5.1.2"}, "geometry": {"type": "Point", "coordinates": [23.314708, 42.685295]}}, {"type": "Feature", "id": "natural-earth-1159151173", "properties": {"name": "Ouagadougou", "country": "Burkina Faso", "sovereign": "Burkina Faso", "code": "BFA", "iso_a2": "BF", "population": 1149000, "wikidata_id": "Q3777", "DATASET": "WORLD", "source": "Natural Earth 5.1.2"}, "geometry": {"type": "Point", "coordinates": [-1.52667, 12.372262]}}, {"type": "Feature", "id": "natural-earth-1159150427", "properties": {"name": "Bujumbura", "country": "Burundi", "sovereign": "Burundi", "code": "BDI", "iso_a2": "BI", "population": 331700, "wikidata_id": "Q3854", "DATASET": "WORLD", "source": "Natural Earth 5.1.2"}, "geometry": {"type": "Point", "coordinates": [29.360006, -3.376087]}}, {"type": "Feature", "id": "natural-earth-1159151115", "properties": {"name": "Yaound\u00e9", "country": "Cameroon", "sovereign": "Cameroon", "code": "CMR", "iso_a2": "CM", "population": 1611000, "wikidata_id": "Q3808", "DATASET": "WORLD", "source": "Natural Earth 5.1.2"}, "geometry": {"type": "Point", "coordinates": [11.514705, 3.868647]}}, {"type": "Feature", "id": "natural-earth-1159151059", "properties": {"name": "Ottawa", "country": "Canada", "sovereign": "Canada", "code": "CAN", "iso_a2": "CA", "population": 1145000, "wikidata_id": "Q1930", "DATASET": "WORLD", "source": "Natural Earth 5.1.2"}, "geometry": {"type": "Point", "coordinates": [-75.701961, 45.418643]}}, {"type": "Feature", "id": "natural-earth-1159151205", "properties": {"name": "Praia", "country": "Cape Verde", "sovereign": "Cape Verde", "code": "CPV", "iso_a2": "CV", "population": 113364, "wikidata_id": "Q3751", "DATASET": "WORLD", "source": "Natural Earth 5.1.2"}, "geometry": {"type": "Point", "coordinates": [-23.516689, 14.916698]}}, {"type": "Feature", "id": "natural-earth-1159151111", "properties": {"name": "Bangui", "country": "Central African Republic", "sovereign": "Central African Republic", "code": "CAF", "iso_a2": "CF", "population": 831925, "wikidata_id": "Q3832", "DATASET": "WORLD", "source": "Natural Earth 5.1.2"}, "geometry": {"type": "Point", "coordinates": [18.558288, 4.366644]}}, {"type": "Feature", "id": "natural-earth-1159150863", "properties": {"name": "N'Djamena", "country": "Chad", "sovereign": "Chad", "code": "TCD", "iso_a2": "TD", "population": 989000, "wikidata_id": "Q3659", "DATASET": "WORLD", "source": "Natural Earth 5.1.2"}, "geometry": {"type": "Point", "coordinates": [15.047202, 12.115042]}}, {"type": "Feature", "id": "natural-earth-1159151615", "properties": {"name": "Santiago", "country": "Chile", "sovereign": "Chile", "code": "CHL", "iso_a2": "CL", "capital_type": "Official, admin", "population": 5720000, "wikidata_id": "Q2887", "DATASET": "WORLD", "source": "Natural Earth 5.1.2"}, "geometry": {"type": "Point", "coordinates": [-70.650504, -33.440205]}}, {"type": "Feature", "id": "natural-earth-1159151595", "properties": {"name": "Beijing", "country": "China", "sovereign": "China", "code": "CHN", "iso_a2": "CN", "population": 11106000, "wikidata_id": "Q956", "DATASET": "WORLD", "source": "Natural Earth 5.1.2"}, "geometry": {"type": "Point", "coordinates": [116.394201, 39.90172]}}, {"type": "Feature", "id": "natural-earth-1159151601", "properties": {"name": "Bogot\u00e1", "country": "Colombia", "sovereign": "Colombia", "code": "COL", "iso_a2": "CO", "population": 7772000, "wikidata_id": "Q2841", "DATASET": "WORLD", "source": "Natural Earth 5.1.2"}, "geometry": {"type": "Point", "coordinates": [-74.08529, 4.598369]}}, {"type": "Feature", "id": "natural-earth-1159149083", "properties": {"name": "Moroni", "country": "Comoros", "sovereign": "Comoros", "code": "COM", "iso_a2": "KM", "population": 128698, "wikidata_id": "Q3901", "DATASET": "WORLD", "source": "Natural Earth 5.1.2"}, "geometry": {"type": "Point", "coordinates": [43.240244, -11.704158]}}, {"type": "Feature", "id": "natural-earth-1159150993", "properties": {"name": "Brazzaville", "country": "Congo (Brazzaville)", "sovereign": "Congo (Brazzaville)", "code": "COG", "iso_a2": "CG", "population": 1355000, "wikidata_id": "Q3844", "DATASET": "WORLD", "source": "Natural Earth 5.1.2"}, "geometry": {"type": "Point", "coordinates": [15.282744, -4.25724]}}, {"type": "Feature", "id": "natural-earth-1159151539", "properties": {"name": "Kinshasa", "country": "Congo (Kinshasa)", "sovereign": "Congo (Kinshasa)", "code": "COD", "iso_a2": "CD", "population": 7843000, "wikidata_id": "Q3838", "DATASET": "WORLD", "source": "Natural Earth 5.1.2"}, "geometry": {"type": "Point", "coordinates": [15.313026, -4.327778]}}, {"type": "Feature", "id": "natural-earth-1159150849", "properties": {"name": "San Jos\u00e9", "country": "Costa Rica", "sovereign": "Costa Rica", "code": "CRI", "iso_a2": "CR", "population": 1284000, "wikidata_id": "Q3070", "DATASET": "WORLD", "source": "Natural Earth 5.1.2"}, "geometry": {"type": "Point", "coordinates": [-84.078814, 9.930371]}}, {"type": "Feature", "id": "natural-earth-1159150875", "properties": {"name": "Zagreb", "country": "Croatia", "sovereign": "Croatia", "code": "HRV", "iso_a2": "HR", "population": 722526, "wikidata_id": "Q1435", "DATASET": "WORLD", "source": "Natural Earth 5.1.2"}, "geometry": {"type": "Point", "coordinates": [15.999995, 45.800007]}}, {"type": "Feature", "id": "natural-earth-1159151347", "properties": {"name": "Havana", "country": "Cuba", "sovereign": "Cuba", "code": "CUB", "iso_a2": "CU", "population": 2174000, "wikidata_id": "Q1563", "DATASET": "WORLD", "source": "Natural Earth 5.1.2"}, "geometry": {"type": "Point", "coordinates": [-82.366128, 23.133905]}}, {"type": "Feature", "id": "natural-earth-1159151209", "properties": {"name": "Nicosia", "country": "Cyprus", "sovereign": "Cyprus", "code": "CYP", "iso_a2": "CY", "capital_type": "Capital of both", "population": 224300, "wikidata_id": "Q3856", "DATASET": "WORLD", "source": "Natural Earth 5.1.2"}, "geometry": {"type": "Point", "coordinates": [33.366635, 35.166677]}}, {"type": "Feature", "id": "natural-earth-1159151359", "properties": {"name": "Prague", "country": "Czechia", "sovereign": "Czechia", "code": "CZE", "iso_a2": "CZ", "population": 1162000, "wikidata_id": "Q1085", "DATASET": "WORLD", "source": "Natural Earth 5.1.2"}, "geometry": {"type": "Point", "coordinates": [14.422939, 50.086967]}}, {"type": "Feature", "id": "natural-earth-1159151437", "properties": {"name": "Copenhagen", "country": "Denmark", "sovereign": "Denmark", "code": "DNK", "iso_a2": "DK", "population": 1085000, "wikidata_id": "Q1748", "DATASET": "WORLD", "source": "Natural Earth 5.1.2"}, "geometry": {"type": "Point", "coordinates": [12.56154, 55.68051]}}, {"type": "Feature", "id": "natural-earth-1159149869", "properties": {"name": "Djibouti", "country": "Djibouti", "sovereign": "Djibouti", "code": "DJI", "iso_a2": "DJ", "population": 923000, "wikidata_id": "Q3604", "DATASET": "WORLD", "source": "Natural Earth 5.1.2"}, "geometry": {"type": "Point", "coordinates": [43.148002, 11.595014]}}, {"type": "Feature", "id": "natural-earth-1159149847", "properties": {"name": "Roseau", "country": "Dominica", "sovereign": "Dominica", "code": "DMA", "iso_a2": "DM", "population": 23336, "wikidata_id": "Q36281", "DATASET": "WORLD", "source": "Natural Earth 5.1.2"}, "geometry": {"type": "Point", "coordinates": [-61.387013, 15.301016]}}, {"type": "Feature", "id": "natural-earth-1159151401", "properties": {"name": "Santo Domingo", "country": "Dominican Republic", "sovereign": "Dominican Republic", "code": "DOM", "iso_a2": "DO", "population": 2154000, "wikidata_id": "Q34820", "DATASET": "WORLD", "source": "Natural Earth 5.1.2"}, "geometry": {"type": "Point", "coordinates": [-69.929742, 18.470745]}}, {"type": "Feature", "id": "natural-earth-1159150577", "properties": {"name": "Dili", "country": "East Timor", "sovereign": "East Timor", "code": "TLS", "iso_a2": "TL", "population": 234331, "wikidata_id": "Q9310", "DATASET": "WORLD", "source": "Natural Earth 5.1.2"}, "geometry": {"type": "Point", "coordinates": [125.579456, -8.559388]}}, {"type": "Feature", "id": "natural-earth-1159150847", "properties": {"name": "Quito", "country": "Ecuador", "sovereign": "Ecuador", "code": "ECU", "iso_a2": "EC", "population": 1701000, "wikidata_id": "Q2900", "DATASET": "WORLD", "source": "Natural Earth 5.1.2"}, "geometry": {"type": "Point", "coordinates": [-78.501997, -0.213042]}}, {"type": "Feature", "id": "natural-earth-1159151603", "properties": {"name": "Cairo", "country": "Egypt", "sovereign": "Egypt", "code": "EGY", "iso_a2": "EG", "population": 11893000, "wikidata_id": "Q85", "DATASET": "WORLD", "source": "Natural Earth 5.1.2"}, "geometry": {"type": "Point", "coordinates": [31.248022, 30.051906]}}, {"type": "Feature", "id": "natural-earth-1159150853", "properties": {"name": "San Salvador", "country": "El Salvador", "sovereign": "El Salvador", "code": "SLV", "iso_a2": "SV", "population": 1433000, "wikidata_id": "Q3110", "DATASET": "WORLD", "source": "Natural Earth 5.1.2"}, "geometry": {"type": "Point", "coordinates": [-89.215576, 13.70328]}}, {"type": "Feature", "id": "natural-earth-1159150867", "properties": {"name": "Malabo", "country": "Equatorial Guinea", "sovereign": "Equatorial Guinea", "code": "GNQ", "iso_a2": "GQ", "population": 155963, "wikidata_id": "Q3818", "DATASET": "WORLD", "source": "Natural Earth 5.1.2"}, "geometry": {"type": "Point", "coordinates": [8.783278, 3.750015]}}, {"type": "Feature", "id": "natural-earth-1159150873", "properties": {"name": "Asmara", "country": "Eritrea", "sovereign": "Eritrea", "code": "ERI", "iso_a2": "ER", "population": 620802, "wikidata_id": "Q3642", "DATASET": "WORLD", "source": "Natural Earth 5.1.2"}, "geometry": {"type": "Point", "coordinates": [38.933324, 15.333339]}}, {"type": "Feature", "id": "natural-earth-1159150877", "properties": {"name": "Tallinn", "country": "Estonia", "sovereign": "Estonia", "code": "EST", "iso_a2": "EE", "population": 394024, "wikidata_id": "Q1770", "DATASET": "WORLD", "source": "Natural Earth 5.1.2"}, "geometry": {"type": "Point", "coordinates": [24.728041, 59.433877]}}, {"type": "Feature", "id": "natural-earth-1159149413", "properties": {"name": "Mbabane", "country": "eSwatini", "sovereign": "eSwatini", "code": "SWZ", "iso_a2": "SZ", "capital_type": "Administrative", "population": 90138, "wikidata_id": "Q3904", "DATASET": "WORLD", "source": "Natural Earth 5.1.2"}, "geometry": {"type": "Point", "coordinates": [31.133335, -26.316651]}}, {"type": "Feature", "id": "natural-earth-1159151549", "properties": {"name": "Addis Ababa", "country": "Ethiopia", "sovereign": "Ethiopia", "code": "ETH", "iso_a2": "ET", "population": 3100000, "wikidata_id": "Q3624", "DATASET": "WORLD", "source": "Natural Earth 5.1.2"}, "geometry": {"type": "Point", "coordinates": [38.698059, 9.035256]}}, {"type": "Feature", "id": "natural-earth-1159149061", "properties": {"name": "Palikir", "country": "Federated States of Micronesia", "sovereign": "Federated States of Micronesia", "code": "FSM", "iso_a2": "FM", "population": 4645, "wikidata_id": "Q42751", "DATASET": "WORLD", "source": "Natural Earth 5.1.2"}, "geometry": {"type": "Point", "coordinates": [158.149974, 6.916644]}}, {"type": "Feature", "id": "natural-earth-1159150917", "properties": {"name": "Suva", "country": "Fiji", "sovereign": "Fiji", "code": "FJI", "iso_a2": "FJ", "population": 175399, "wikidata_id": "Q38807", "DATASET": "WORLD", "source": "Natural Earth 5.1.2"}, "geometry": {"type": "Point", "coordinates": [178.441707, -18.133016]}}, {"type": "Feature", "id": "natural-earth-1159151419", "properties": {"name": "Helsinki", "country": "Finland", "sovereign": "Finland", "code": "FIN", "iso_a2": "FI", "population": 1115000, "wikidata_id": "Q1757", "DATASET": "WORLD", "source": "Natural Earth 5.1.2"}, "geometry": {"type": "Point", "coordinates": [24.932457, 60.163804]}}, {"type": "Feature", "id": "natural-earth-1159151613", "properties": {"name": "Paris", "country": "France", "sovereign": "French Republic", "code": "FRA", "iso_a2": "FR", "population": 9904000, "wikidata_id": "Q90", "DATASET": "WORLD", "source": "Natural Earth 5.1.2"}, "geometry": {"type": "Point", "coordinates": [2.352992, 48.858092]}}, {"type": "Feature", "id": "natural-earth-1159150913", "properties": {"name": "Libreville", "country": "Gabon", "sovereign": "Gabon", "code": "GAB", "iso_a2": "GA", "population": 578156, "wikidata_id": "Q3825", "DATASET": "WORLD", "source": "Natural Earth 5.1.2"}, "geometry": {"type": "Point", "coordinates": [9.457965, 0.385389]}}, {"type": "Feature", "id": "natural-earth-1159151529", "properties": {"name": "Berlin", "country": "Germany", "sovereign": "Germany", "code": "DEU", "iso_a2": "DE", "population": 3406000, "wikidata_id": "Q64", "DATASET": "WORLD", "source": "Natural Earth 5.1.2"}, "geometry": {"type": "Point", "coordinates": [13.399603, 52.523764]}}, {"type": "Feature", "id": "natural-earth-1159151403", "properties": {"name": "Accra", "country": "Ghana", "sovereign": "Ghana", "code": "GHA", "iso_a2": "GH", "population": 2121000, "wikidata_id": "Q3761", "DATASET": "WORLD", "source": "Natural Earth 5.1.2"}, "geometry": {"type": "Point", "coordinates": [-0.218662, 5.55198]}}, {"type": "Feature", "id": "natural-earth-1159151545", "properties": {"name": "Athens", "country": "Greece", "sovereign": "Greece", "code": "GRC", "iso_a2": "GR", "population": 3242000, "wikidata_id": "Q1524", "DATASET": "WORLD", "source": "Natural Earth 5.1.2"}, "geometry": {"type": "Point", "coordinates": [23.731375, 37.985272]}}, {"type": "Feature", "id": "natural-earth-1159150447", "properties": {"name": "St. George's", "country": "Grenada", "sovereign": "Grenada", "code": "GRD", "iso_a2": "GD", "population": 33734, "wikidata_id": "Q41547", "DATASET": "WORLD", "source": "Natural Earth 5.1.2"}, "geometry": {"type": "Point", "coordinates": [-61.741643, 12.052633]}}, {"type": "Feature", "id": "natural-earth-1159150909", "properties": {"name": "Guatemala City", "country": "Guatemala", "sovereign": "Guatemala", "code": "GTM", "iso_a2": "GT", "population": 1024000, "wikidata_id": "Q1555", "DATASET": "WORLD", "source": "Natural Earth 5.1.2"}, "geometry": {"type": "Point", "coordinates": [-90.528911, 14.623081]}}, {"type": "Feature", "id": "natural-earth-1159150997", "properties": {"name": "Conakry", "country": "Guinea", "sovereign": "Guinea", "code": "GIN", "iso_a2": "GN", "population": 1494000, "wikidata_id": "Q3733", "DATASET": "WORLD", "source": "Natural Earth 5.1.2"}, "geometry": {"type": "Point", "coordinates": [-13.682181, 9.533469]}}, {"type": "Feature", "id": "natural-earth-1159150803", "properties": {"name": "Bissau", "country": "Guinea Bissau", "sovereign": "Guinea Bissau", "code": "GNB", "iso_a2": "GW", "population": 403339, "wikidata_id": "Q3739", "DATASET": "WORLD", "source": "Natural Earth 5.1.2"}, "geometry": {"type": "Point", "coordinates": [-15.598361, 11.865024]}}, {"type": "Feature", "id": "natural-earth-1159150585", "properties": {"name": "Georgetown", "country": "Guyana", "sovereign": "Guyana", "code": "GUY", "iso_a2": "GY", "population": 264350, "wikidata_id": "Q10717", "DATASET": "WORLD", "source": "Natural Earth 5.1.2"}, "geometry": {"type": "Point", "coordinates": [-58.167029, 6.801974]}}, {"type": "Feature", "id": "natural-earth-1159150589", "properties": {"name": "Port-au-Prince", "country": "Haiti", "sovereign": "Haiti", "code": "HTI", "iso_a2": "HT", "population": 1998000, "wikidata_id": "Q34261", "DATASET": "WORLD", "source": "Natural Earth 5.1.2"}, "geometry": {"type": "Point", "coordinates": [-72.33798, 18.54297]}}, {"type": "Feature", "id": "natural-earth-1159150583", "properties": {"name": "Tegucigalpa", "country": "Honduras", "sovereign": "Honduras", "code": "HND", "iso_a2": "HN", "population": 946000, "wikidata_id": "Q3238", "DATASET": "WORLD", "source": "Natural Earth 5.1.2"}, "geometry": {"type": "Point", "coordinates": [-87.219475, 14.103991]}}, {"type": "Feature", "id": "natural-earth-1159151257", "properties": {"name": "Budapest", "country": "Hungary", "sovereign": "Hungary", "code": "HUN", "iso_a2": "HU", "population": 1679000, "wikidata_id": "Q1781", "DATASET": "WORLD", "source": "Natural Earth 5.1.2"}, "geometry": {"type": "Point", "coordinates": [19.081375, 47.501952]}}, {"type": "Feature", "id": "natural-earth-1159150587", "properties": {"name": "Reykjav\u00edk", "country": "Iceland", "sovereign": "Iceland", "code": "ISL", "iso_a2": "IS", "population": 166212, "wikidata_id": "Q1764", "DATASET": "WORLD", "source": "Natural Earth 5.1.2"}, "geometry": {"type": "Point", "coordinates": [-21.936546, 64.143459]}}, {"type": "Feature", "id": "natural-earth-1159151541", "properties": {"name": "New Delhi", "country": "India", "sovereign": "India", "code": "IND", "iso_a2": "IN", "population": 317797, "wikidata_id": "Q987", "DATASET": "WORLD", "source": "Natural Earth 5.1.2"}, "geometry": {"type": "Point", "coordinates": [77.19998, 28.600023]}}, {"type": "Feature", "id": "natural-earth-1159151599", "properties": {"name": "Jakarta", "country": "Indonesia", "sovereign": "Indonesia", "code": "IDN", "iso_a2": "ID", "population": 9125000, "wikidata_id": "Q3630", "DATASET": "WORLD", "source": "Natural Earth 5.1.2"}, "geometry": {"type": "Point", "coordinates": [106.827492, -6.172472]}}, {"type": "Feature", "id": "natural-earth-1159151547", "properties": {"name": "Baghdad", "country": "Iraq", "sovereign": "Iraq", "code": "IRQ", "iso_a2": "IQ", "population": 5054000, "wikidata_id": "Q1530", "DATASET": "WORLD", "source": "Natural Earth 5.1.2"}, "geometry": {"type": "Point", "coordinates": [44.391923, 33.340594]}}, {"type": "Feature", "id": "natural-earth-1159151309", "properties": {"name": "Dublin", "country": "Ireland", "sovereign": "Ireland", "code": "IRL", "iso_a2": "IE", "population": 1059000, "wikidata_id": "Q1761", "DATASET": "WORLD", "source": "Natural Earth 5.1.2"}, "geometry": {"type": "Point", "coordinates": [-6.25698, 53.346731]}}, {"type": "Feature", "id": "natural-earth-1159151203", "properties": {"name": "Jerusalem", "country": "Israel", "sovereign": "Israel", "code": "ISR", "iso_a2": "IL", "capital_type": "De facto capita", "population": 1029300, "wikidata_id": "Q1218", "DATASET": "WORLD", "source": "Natural Earth 5.1.2"}, "geometry": {"type": "Point", "coordinates": [35.206626, 31.778408]}}, {"type": "Feature", "id": "natural-earth-1159151593", "properties": {"name": "Rome", "country": "Italy", "sovereign": "Italy", "code": "ITA", "iso_a2": "IT", "population": 3339000, "wikidata_id": "Q220", "DATASET": "WORLD", "source": "Natural Earth 5.1.2"}, "geometry": {"type": "Point", "coordinates": [12.481313, 41.897902]}}, {"type": "Feature", "id": "natural-earth-1159151439", "properties": {"name": "Abidjan", "country": "Ivory Coast", "sovereign": "Ivory Coast", "code": "CIV", "iso_a2": "CI", "capital_type": "De facto, admin", "population": 3802000, "wikidata_id": "Q1515", "DATASET": "WORLD", "source": "Natural Earth 5.1.2"}, "geometry": {"type": "Point", "coordinates": [-4.020207, 5.323126]}}, {"type": "Feature", "id": "natural-earth-1159150999", "properties": {"name": "Yamoussoukro", "country": "Ivory Coast", "sovereign": "Ivory Coast", "code": "CIV", "iso_a2": "CI", "capital_type": "Official capita", "population": 206499, "wikidata_id": "Q3768", "DATASET": "WORLD", "source": "Natural Earth 5.1.2"}, "geometry": {"type": "Point", "coordinates": [-5.275503, 6.818381]}}, {"type": "Feature", "id": "natural-earth-1159150855", "properties": {"name": "Kingston", "country": "Jamaica", "sovereign": "Jamaica", "code": "JAM", "iso_a2": "JM", "population": 937700, "wikidata_id": "Q34692", "DATASET": "WORLD", "source": "Natural Earth 5.1.2"}, "geometry": {"type": "Point", "coordinates": [-76.767434, 17.977077]}}, {"type": "Feature", "id": "natural-earth-1159151609", "properties": {"name": "Tokyo", "country": "Japan", "sovereign": "Japan", "code": "JPN", "iso_a2": "JP", "capital_type": "De facto capita", "population": 35676000, "wikidata_id": "Q1490", "DATASET": "WORLD", "source": "Natural Earth 5.1.2"}, "geometry": {"type": "Point", "coordinates": [139.749462, 35.686963]}}, {"type": "Feature", "id": "natural-earth-1159150807", "properties": {"name": "Amman", "country": "Jordan", "sovereign": "Jordan", "code": "JOR", "iso_a2": "JO", "population": 1060000, "wikidata_id": "Q3805", "DATASET": "WORLD", "source": "Natural Earth 5.1.2"}, "geometry": {"type": "Point", "coordinates": [35.931354, 31.951971]}}, {"type": "Feature", "id": "natural-earth-1159150965", "properties": {"name": "Nur-Sultan", "country": "Kazakhstan", "sovereign": "Kazakhstan", "code": "KAZ", "iso_a2": "KZ", "population": 345604, "wikidata_id": "Q1520", "DATASET": "WORLD", "source": "Natural Earth 5.1.2"}, "geometry": {"type": "Point", "coordinates": [71.427774, 51.181125]}}, {"type": "Feature", "id": "natural-earth-1159149079", "properties": {"name": "South Tarawa", "country": "Kiribati", "sovereign": "Kiribati", "code": "KIR", "iso_a2": "KI", "population": 28802, "wikidata_id": "Q131233", "DATASET": "WORLD", "source": "Natural Earth 5.1.2"}, "geometry": {"type": "Point", "coordinates": [173.017571, 1.338188]}}, {"type": "Feature", "id": "natural-earth-1159149757", "properties": {"name": "Pristina", "country": "Kosovo", "sovereign": "Kosovo", "code": "KOS", "iso_a2": "-99", "population": 465186, "wikidata_id": "Q25270", "DATASET": "WORLD", "source": "Natural Earth 5.1.2"}, "geometry": {"type": "Point", "coordinates": [21.165984, 42.66671]}}, {"type": "Feature", "id": "natural-earth-1159151361", "properties": {"name": "Kuwait City", "country": "Kuwait", "sovereign": "Kuwait", "code": "KWT", "iso_a2": "KW", "population": 2063000, "wikidata_id": "Q35178", "DATASET": "WORLD", "source": "Natural Earth 5.1.2"}, "geometry": {"type": "Point", "coordinates": [47.976355, 29.371664]}}, {"type": "Feature", "id": "natural-earth-1159150813", "properties": {"name": "Bishkek", "country": "Kyrgyzstan", "sovereign": "Kyrgyzstan", "code": "KGZ", "iso_a2": "KG", "population": 837000, "wikidata_id": "Q9361", "DATASET": "WORLD", "source": "Natural Earth 5.1.2"}, "geometry": {"type": "Point", "coordinates": [74.583258, 42.875025]}}, {"type": "Feature", "id": "natural-earth-1159150811", "properties": {"name": "Riga", "country": "Latvia", "sovereign": "Latvia", "code": "LVA", "iso_a2": "LV", "population": 742572, "wikidata_id": "Q1773", "DATASET": "WORLD", "source": "Natural Earth 5.1.2"}, "geometry": {"type": "Point", "coordinates": [24.099965, 56.950024]}}, {"type": "Feature", "id": "natural-earth-1159150957", "properties": {"name": "Beirut", "country": "Lebanon", "sovereign": "Lebanon", "code": "LBN", "iso_a2": "LB", "population": 1846000, "wikidata_id": "Q3820", "DATASET": "WORLD", "source": "Natural Earth 5.1.2"}, "geometry": {"type": "Point", "coordinates": [35.507762, 33.873921]}}, {"type": "Feature", "id": "natural-earth-1159150831", "properties": {"name": "Maseru", "country": "Lesotho", "sovereign": "Lesotho", "code": "LSO", "iso_a2": "LS", "population": 361324, "wikidata_id": "Q3909", "DATASET": "WORLD", "source": "Natural Earth 5.1.2"}, "geometry": {"type": "Point", "coordinates": [27.483273, -29.316674]}}, {"type": "Feature", "id": "natural-earth-1159151311", "properties": {"name": "Monrovia", "country": "Liberia", "sovereign": "Liberia", "code": "LBR", "iso_a2": "LR", "population": 1041000, "wikidata_id": "Q3748", "DATASET": "WORLD", "source": "Natural Earth 5.1.2"}, "geometry": {"type": "Point", "coordinates": [-10.79966, 6.314582]}}, {"type": "Feature", "id": "natural-earth-1159151415", "properties": {"name": "Tripoli", "country": "Libya", "sovereign": "Libya", "code": "LBY", "iso_a2": "LY", "population": 2189000, "wikidata_id": "Q3579", "DATASET": "WORLD", "source": "Natural Earth 5.1.2"}, "geometry": {"type": "Point", "coordinates": [13.180012, 32.8925]}}, {"type": "Feature", "id": "natural-earth-1159146061", "properties": {"name": "Vaduz", "country": "Liechtenstein", "sovereign": "Liechtenstein", "code": "LIE", "iso_a2": "LI", "population": 36281, "wikidata_id": "Q1844", "DATASET": "WORLD", "source": "Natural Earth 5.1.2"}, "geometry": {"type": "Point", "coordinates": [9.51667, 47.133724]}}, {"type": "Feature", "id": "natural-earth-1159150809", "properties": {"name": "Vilnius", "country": "Lithuania", "sovereign": "Lithuania", "code": "LTU", "iso_a2": "LT", "population": 542366, "wikidata_id": "Q216", "DATASET": "WORLD", "source": "Natural Earth 5.1.2"}, "geometry": {"type": "Point", "coordinates": [25.316635, 54.683366]}}, {"type": "Feature", "id": "natural-earth-1159146437", "properties": {"name": "Luxembourg", "country": "Luxembourg", "sovereign": "Luxembourg", "code": "LUX", "iso_a2": "LU", "population": 107260, "wikidata_id": "Q1842", "DATASET": "WORLD", "source": "Natural Earth 5.1.2"}, "geometry": {"type": "Point", "coordinates": [6.130003, 49.61166]}}, {"type": "Feature", "id": "natural-earth-1159150835", "properties": {"name": "Antananarivo", "country": "Madagascar", "sovereign": "Madagascar", "code": "MDG", "iso_a2": "MG", "population": 1697000, "wikidata_id": "Q3915", "DATASET": "WORLD", "source": "Natural Earth 5.1.2"}, "geometry": {"type": "Point", "coordinates": [47.514678, -18.914691]}}, {"type": "Feature", "id": "natural-earth-1159150907", "properties": {"name": "Lilongwe", "country": "Malawi", "sovereign": "Malawi", "code": "MWI", "iso_a2": "MW", "population": 646750, "wikidata_id": "Q3876", "DATASET": "WORLD", "source": "Natural Earth 5.1.2"}, "geometry": {"type": "Point", "coordinates": [33.783302, -13.983295]}}, {"type": "Feature", "id": "natural-earth-1159151317", "properties": {"name": "Kuala Lumpur", "country": "Malaysia", "sovereign": "Malaysia", "code": "MYS", "iso_a2": "MY", "capital_type": "Official and le", "population": 1448000, "wikidata_id": "Q1865", "DATASET": "WORLD", "source": "Natural Earth 5.1.2"}, "geometry": {"type": "Point", "coordinates": [101.688699, 3.139797]}}, {"type": "Feature", "id": "natural-earth-1159151201", "properties": {"name": "Mal\u00e9", "country": "Maldives", "sovereign": "Maldives", "code": "MDV", "iso_a2": "MV", "population": 112927, "wikidata_id": "Q9347", "DATASET": "WORLD", "source": "Natural Earth 5.1.2"}, "geometry": {"type": "Point", "coordinates": [73.508901, 4.172037]}}, {"type": "Feature", "id": "natural-earth-1159150945", "properties": {"name": "Bamako", "country": "Mali", "sovereign": "Mali", "code": "MLI", "iso_a2": "ML", "population": 1494000, "wikidata_id": "Q3703", "DATASET": "WORLD", "source": "Natural Earth 5.1.2"}, "geometry": {"type": "Point", "coordinates": [-8.001985, 12.65196]}}, {"type": "Feature", "id": "natural-earth-1159151199", "properties": {"name": "Valletta", "country": "Malta", "sovereign": "Malta", "code": "MLT", "iso_a2": "MT", "population": 368250, "wikidata_id": "Q23800", "DATASET": "WORLD", "source": "Natural Earth 5.1.2"}, "geometry": {"type": "Point", "coordinates": [14.514711, 35.899732]}}, {"type": "Feature", "id": "natural-earth-1159149063", "properties": {"name": "Majuro", "country": "Marshall Islands", "sovereign": "Marshall Islands", "code": "MHL", "iso_a2": "MH", "population": 25400, "wikidata_id": "Q12919", "DATASET": "WORLD", "source": "Natural Earth 5.1.2"}, "geometry": {"type": "Point", "coordinates": [171.38, 7.103004]}}, {"type": "Feature", "id": "natural-earth-1159150943", "properties": {"name": "Nouakchott", "country": "Mauritania", "sovereign": "Mauritania", "code": "MRT", "iso_a2": "MR", "population": 742144, "wikidata_id": "Q3688", "DATASET": "WORLD", "source": "Natural Earth 5.1.2"}, "geometry": {"type": "Point", "coordinates": [-15.97534, 18.086427]}}, {"type": "Feature", "id": "natural-earth-1159150443", "properties": {"name": "Port Louis", "country": "Mauritius", "sovereign": "Mauritius", "code": "MUS", "iso_a2": "MU", "population": 595491, "wikidata_id": "Q3929", "DATASET": "WORLD", "source": "Natural Earth 5.1.2"}, "geometry": {"type": "Point", "coordinates": [57.499994, -20.166639]}}, {"type": "Feature", "id": "natural-earth-1159151587", "properties": {"name": "Mexico City", "country": "Mexico", "sovereign": "Mexico", "code": "MEX", "iso_a2": "MX", "population": 19028000, "wikidata_id": "Q1489", "DATASET": "WORLD", "source": "Natural Earth 5.1.2"}, "geometry": {"type": "Point", "coordinates": [-99.132934, 19.444388]}}, {"type": "Feature", "id": "natural-earth-1159150677", "properties": {"name": "Chi\u0219in\u0103u", "country": "Moldova", "sovereign": "Moldova", "code": "MDA", "iso_a2": "MD", "population": 688134, "wikidata_id": "Q21197", "DATASET": "WORLD", "source": "Natural Earth 5.1.2"}, "geometry": {"type": "Point", "coordinates": [28.857711, 47.005024]}}, {"type": "Feature", "id": "natural-earth-1159149077", "properties": {"name": "Monaco", "country": "Monaco", "sovereign": "Monaco", "code": "MCO", "iso_a2": "MC", "population": 36371, "wikidata_id": "Q235", "DATASET": "WORLD", "source": "Natural Earth 5.1.2"}, "geometry": {"type": "Point", "coordinates": [7.406913, 43.739646]}}, {"type": "Feature", "id": "natural-earth-1159150781", "properties": {"name": "Ulaanbaatar", "country": "Mongolia", "sovereign": "Mongolia", "code": "MNG", "iso_a2": "MN", "population": 885000, "wikidata_id": "Q23430", "DATASET": "WORLD", "source": "Natural Earth 5.1.2"}, "geometry": {"type": "Point", "coordinates": [106.91467, 47.918619]}}, {"type": "Feature", "id": "natural-earth-1159149511", "properties": {"name": "Podgorica", "country": "Montenegro", "sovereign": "Montenegro", "code": "MNE", "iso_a2": "ME", "population": 145850, "wikidata_id": "Q23564", "DATASET": "WORLD", "source": "Natural Earth 5.1.2"}, "geometry": {"type": "Point", "coordinates": [19.266307, 42.465972]}}, {"type": "Feature", "id": "natural-earth-1159150673", "properties": {"name": "Rabat", "country": "Morocco", "sovereign": "Morocco", "code": "MAR", "iso_a2": "MA", "population": 1705000, "wikidata_id": "Q3551", "DATASET": "WORLD", "source": "Natural Earth 5.1.2"}, "geometry": {"type": "Point", "coordinates": [-6.836408, 34.025307]}}, {"type": "Feature", "id": "natural-earth-1159150683", "properties": {"name": "Maputo", "country": "Mozambique", "sovereign": "Mozambique", "code": "MOZ", "iso_a2": "MZ", "population": 1446000, "wikidata_id": "Q3889", "DATASET": "WORLD", "source": "Natural Earth 5.1.2"}, "geometry": {"type": "Point", "coordinates": [32.587217, -25.953332]}}, {"type": "Feature", "id": "natural-earth-1159150785", "properties": {"name": "Windhoek", "country": "Namibia", "sovereign": "Namibia", "code": "NAM", "iso_a2": "NA", "population": 268132, "wikidata_id": "Q3935", "DATASET": "WORLD", "source": "Natural Earth 5.1.2"}, "geometry": {"type": "Point", "coordinates": [17.083546, -22.570006]}}, {"type": "Feature", "id": "natural-earth-1159151519", "properties": {"name": "Amsterdam", "country": "Netherlands", "sovereign": "Kingdom of the Netherlands", "code": "NLD", "iso_a2": "NL", "capital_type": "De facto capita", "population": 1031000, "wikidata_id": "Q727", "DATASET": "WORLD", "source": "Natural Earth 5.1.2"}, "geometry": {"type": "Point", "coordinates": [4.914694, 52.351914]}}, {"type": "Feature", "id": "natural-earth-1159151699", "properties": {"name": "Wellington", "country": "New Zealand", "sovereign": "New Zealand", "code": "NZL", "iso_a2": "NZ", "population": 393400, "wikidata_id": "Q23661", "DATASET": "WORLD", "source": "Natural Earth 5.1.2"}, "geometry": {"type": "Point", "coordinates": [174.777201, -41.292068]}}, {"type": "Feature", "id": "natural-earth-1159150623", "properties": {"name": "Managua", "country": "Nicaragua", "sovereign": "Nicaragua", "code": "NIC", "iso_a2": "NI", "population": 920000, "wikidata_id": "Q3274", "DATASET": "WORLD", "source": "Natural Earth 5.1.2"}, "geometry": {"type": "Point", "coordinates": [-86.270437, 12.154962]}}, {"type": "Feature", "id": "natural-earth-1159150605", "properties": {"name": "Niamey", "country": "Niger", "sovereign": "Niger", "code": "NER", "iso_a2": "NE", "population": 915000, "wikidata_id": "Q3674", "DATASET": "WORLD", "source": "Natural Earth 5.1.2"}, "geometry": {"type": "Point", "coordinates": [2.11471, 13.518652]}}, {"type": "Feature", "id": "natural-earth-1159150799", "properties": {"name": "Abuja", "country": "Nigeria", "sovereign": "Nigeria", "code": "NGA", "iso_a2": "NG", "capital_type": "Official and ad", "population": 1576000, "wikidata_id": "Q3787", "DATASET": "WORLD", "source": "Natural Earth 5.1.2"}, "geometry": {"type": "Point", "coordinates": [7.489505, 9.05462]}}, {"type": "Feature", "id": "natural-earth-1159151303", "properties": {"name": "Pyongyang", "country": "North Korea", "sovereign": "Korea, North", "code": "PRK", "iso_a2": "KP", "population": 3300000, "wikidata_id": "Q18808", "DATASET": "WORLD", "source": "Natural Earth 5.1.2"}, "geometry": {"type": "Point", "coordinates": [125.752745, 39.021385]}}, {"type": "Feature", "id": "natural-earth-1159150073", "properties": {"name": "Skopje", "country": "North Macedonia", "sovereign": "North Macedonia", "code": "MKD", "iso_a2": "MK", "population": 494087, "wikidata_id": "Q384", "DATASET": "WORLD", "source": "Natural Earth 5.1.2"}, "geometry": {"type": "Point", "coordinates": [21.433461, 42.000006]}}, {"type": "Feature", "id": "natural-earth-1159151281", "properties": {"name": "Oslo", "country": "Norway", "sovereign": "Kingdom of Norway", "code": "NOR", "iso_a2": "NO", "population": 835000, "wikidata_id": "Q585", "DATASET": "WORLD", "source": "Natural Earth 5.1.2"}, "geometry": {"type": "Point", "coordinates": [10.748033, 59.918636]}}, {"type": "Feature", "id": "natural-earth-1159150717", "properties": {"name": "Muscat", "country": "Oman", "sovereign": "Oman", "code": "OMN", "iso_a2": "OM", "population": 734697, "wikidata_id": "Q3826", "DATASET": "WORLD", "source": "Natural Earth 5.1.2"}, "geometry": {"type": "Point", "coordinates": [58.378311, 23.585179]}}, {"type": "Feature", "id": "natural-earth-1159150645", "properties": {"name": "Islamabad", "country": "Pakistan", "sovereign": "Pakistan", "code": "PAK", "iso_a2": "PK", "population": 780000, "wikidata_id": "Q1362", "DATASET": "WORLD", "source": "Natural Earth 5.1.2"}, "geometry": {"type": "Point", "coordinates": [73.08063, 33.689368]}}, {"type": "Feature", "id": "natural-earth-1159149073", "properties": {"name": "Melekeok", "country": "Palau", "sovereign": "Palau", "code": "PLW", "iso_a2": "PW", "population": 7026, "wikidata_id": "Q154002", "DATASET": "WORLD", "source": "Natural Earth 5.1.2"}, "geometry": {"type": "Point", "coordinates": [134.626549, 7.487396]}}, {"type": "Feature", "id": "natural-earth-1159150667", "properties": {"name": "Panama City", "country": "Panama", "sovereign": "Panama", "code": "PAN", "iso_a2": "PA", "population": 1281000, "wikidata_id": "Q3306", "DATASET": "WORLD", "source": "Natural Earth 5.1.2"}, "geometry": {"type": "Point", "coordinates": [-79.534983, 8.969963]}}, {"type": "Feature", "id": "natural-earth-1159150663", "properties": {"name": "Port Moresby", "country": "Papua New Guinea", "sovereign": "Papua New Guinea", "code": "PNG", "iso_a2": "PG", "population": 283733, "wikidata_id": "Q36526", "DATASET": "WORLD", "source": "Natural Earth 5.1.2"}, "geometry": {"type": "Point", "coordinates": [147.192504, -9.464708]}}, {"type": "Feature", "id": "natural-earth-1159150621", "properties": {"name": "Asunci\u00f3n", "country": "Paraguay", "sovereign": "Paraguay", "code": "PRY", "iso_a2": "PY", "population": 1870000, "wikidata_id": "Q2933", "DATASET": "WORLD", "source": "Natural Earth 5.1.2"}, "geometry": {"type": "Point", "coordinates": [-57.625834, -25.290671]}}, {"type": "Feature", "id": "natural-earth-1159151511", "properties": {"name": "Lima", "country": "Peru", "sovereign": "Peru", "code": "PER", "iso_a2": "PE", "population": 8012000, "wikidata_id": "Q2868", "DATASET": "WORLD", "source": "Natural Earth 5.1.2"}, "geometry": {"type": "Point", "coordinates": [-77.052008, -12.046067]}}, {"type": "Feature", "id": "natural-earth-1159151299", "properties": {"name": "Warsaw", "country": "Poland", "sovereign": "Poland", "code": "POL", "iso_a2": "PL", "population": 1707000, "wikidata_id": "Q270", "DATASET": "WORLD", "source": "Natural Earth 5.1.2"}, "geometry": {"type": "Point", "coordinates": [21.005347, 52.230872]}}, {"type": "Feature", "id": "natural-earth-1159151273", "properties": {"name": "Lisbon", "country": "Portugal", "sovereign": "Portugal", "code": "PRT", "iso_a2": "PT", "population": 2812000, "wikidata_id": "Q597", "DATASET": "WORLD", "source": "Natural Earth 5.1.2"}, "geometry": {"type": "Point", "coordinates": [-9.146812, 38.724669]}}, {"type": "Feature", "id": "natural-earth-1159149469", "properties": {"name": "Doha", "country": "Qatar", "sovereign": "Qatar", "code": "QAT", "iso_a2": "QA", "population": 1450000, "wikidata_id": "Q3861", "DATASET": "WORLD", "source": "Natural Earth 5.1.2"}, "geometry": {"type": "Point", "coordinates": [51.532968, 25.286556]}}, {"type": "Feature", "id": "natural-earth-1159151263", "properties": {"name": "Bucharest", "country": "Romania", "sovereign": "Romania", "code": "ROU", "iso_a2": "RO", "population": 1942000, "wikidata_id": "Q19660", "DATASET": "WORLD", "source": "Natural Earth 5.1.2"}, "geometry": {"type": "Point", "coordinates": [26.098001, 44.435318]}}, {"type": "Feature", "id": "natural-earth-1159149385", "properties": {"name": "Kigali", "country": "Rwanda", "sovereign": "Rwanda", "code": "RWA", "iso_a2": "RW", "population": 860000, "wikidata_id": "Q3859", "DATASET": "WORLD", "source": "Natural Earth 5.1.2"}, "geometry": {"type": "Point", "coordinates": [30.058586, -1.951644]}}, {"type": "Feature", "id": "natural-earth-1159150435", "properties": {"name": "Basseterre", "country": "Saint Kitts and Nevis", "sovereign": "Saint Kitts and Nevis", "code": "KNA", "iso_a2": "KN", "population": 21887, "wikidata_id": "Q41295", "DATASET": "WORLD", "source": "Natural Earth 5.1.2"}, "geometry": {"type": "Point", "coordinates": [-62.717009, 17.302031]}}, {"type": "Feature", "id": "natural-earth-1159150433", "properties": {"name": "Castries", "country": "Saint Lucia", "sovereign": "Saint Lucia", "code": "LCA", "iso_a2": "LC", "population": 37963, "wikidata_id": "Q41699", "DATASET": "WORLD", "source": "Natural Earth 5.1.2"}, "geometry": {"type": "Point", "coordinates": [-60.992875, 14.007875]}}, {"type": "Feature", "id": "natural-earth-1159150431", "properties": {"name": "Kingstown", "country": "Saint Vincent and the Grenadines", "sovereign": "Saint Vincent and the Grenadines", "code": "VCT", "iso_a2": "VC", "population": 49485, "wikidata_id": "Q41474", "DATASET": "WORLD", "source": "Natural Earth 5.1.2"}, "geometry": {"type": "Point", "coordinates": [-61.220236, 13.155756]}}, {"type": "Feature", "id": "natural-earth-1159151197", "properties": {"name": "Apia", "country": "Samoa", "sovereign": "Samoa", "code": "WSM", "iso_a2": "WS", "population": 61916, "wikidata_id": "Q36260", "DATASET": "WORLD", "source": "Natural Earth 5.1.2"}, "geometry": {"type": "Point", "coordinates": [-171.768599, -13.835715]}}, {"type": "Feature", "id": "natural-earth-1159146051", "properties": {"name": "San Marino", "country": "San Marino", "sovereign": "San Marino", "code": "SMR", "iso_a2": "SM", "population": 29579, "wikidata_id": "Q1848", "DATASET": "WORLD", "source": "Natural Earth 5.1.2"}, "geometry": {"type": "Point", "coordinates": [12.44177, 43.936096]}}, {"type": "Feature", "id": "natural-earth-1159151195", "properties": {"name": "S\u00e3o Tom\u00e9", "country": "Sao Tome and Principe", "sovereign": "Sao Tome and Principe", "code": "STP", "iso_a2": "ST", "population": 88219, "wikidata_id": "Q3932", "DATASET": "WORLD", "source": "Natural Earth 5.1.2"}, "geometry": {"type": "Point", "coordinates": [6.72965, 0.337466]}}, {"type": "Feature", "id": "natural-earth-1159151581", "properties": {"name": "Riyadh", "country": "Saudi Arabia", "sovereign": "Saudi Arabia", "code": "SAU", "iso_a2": "SA", "population": 4465000, "wikidata_id": "Q3692", "DATASET": "WORLD", "source": "Natural Earth 5.1.2"}, "geometry": {"type": "Point", "coordinates": [46.720487, 24.634497]}}, {"type": "Feature", "id": "natural-earth-1159151513", "properties": {"name": "Dakar", "country": "Senegal", "sovereign": "Senegal", "code": "SEN", "iso_a2": "SN", "population": 2604000, "wikidata_id": "Q3718", "DATASET": "WORLD", "source": "Natural Earth 5.1.2"}, "geometry": {"type": "Point", "coordinates": [-17.475076, 14.717778]}}, {"type": "Feature", "id": "natural-earth-1159151079", "properties": {"name": "Belgrade", "country": "Serbia", "sovereign": "Republic of Serbia", "code": "SRB", "iso_a2": "RS", "population": 1099000, "wikidata_id": "Q3711", "DATASET": "WORLD", "source": "Natural Earth 5.1.2"}, "geometry": {"type": "Point", "coordinates": [20.466045, 44.820591]}}, {"type": "Feature", "id": "natural-earth-1159151191", "properties": {"name": "Victoria", "country": "Seychelles", "sovereign": "Seychelles", "code": "SYC", "iso_a2": "SC", "population": 33576, "wikidata_id": "Q3940", "DATASET": "WORLD", "source": "Natural Earth 5.1.2"}, "geometry": {"type": "Point", "coordinates": [55.44999, -4.616632]}}, {"type": "Feature", "id": "natural-earth-1159150625", "properties": {"name": "Freetown", "country": "Sierra Leone", "sovereign": "Sierra Leone", "code": "SLE", "iso_a2": "SL", "population": 827000, "wikidata_id": "Q3780", "DATASET": "WORLD", "source": "Natural Earth 5.1.2"}, "geometry": {"type": "Point", "coordinates": [-13.236162, 8.471957]}}, {"type": "Feature", "id": "natural-earth-1159151627", "properties": {"name": "Singapore", "country": "Singapore", "sovereign": "Singapore", "code": "SGP", "iso_a2": "SG", "population": 5183700, "wikidata_id": "Q334", "DATASET": "WORLD", "source": "Natural Earth 5.1.2"}, "geometry": {"type": "Point", "coordinates": [103.853875, 1.294979]}}, {"type": "Feature", "id": "natural-earth-1159149463", "properties": {"name": "Bratislava", "country": "Slovakia", "sovereign": "Slovakia", "code": "SVK", "iso_a2": "SK", "population": 423737, "wikidata_id": "Q1780", "DATASET": "WORLD", "source": "Natural Earth 5.1.2"}, "geometry": {"type": "Point", "coordinates": [17.116981, 48.150018]}}, {"type": "Feature", "id": "natural-earth-1159149461", "properties": {"name": "Ljubljana", "country": "Slovenia", "sovereign": "Slovenia", "code": "SVN", "iso_a2": "SI", "population": 314807, "wikidata_id": "Q437", "DATASET": "WORLD", "source": "Natural Earth 5.1.2"}, "geometry": {"type": "Point", "coordinates": [14.514969, 46.055288]}}, {"type": "Feature", "id": "natural-earth-1159150715", "properties": {"name": "Mogadishu", "country": "Somalia", "sovereign": "Somalia", "code": "SOM", "iso_a2": "SO", "population": 1100000, "wikidata_id": "Q2449", "DATASET": "WORLD", "source": "Natural Earth 5.1.2"}, "geometry": {"type": "Point", "coordinates": [45.364732, 2.068627]}}, {"type": "Feature", "id": "natural-earth-1159151189", "properties": {"name": "Hargeisa", "country": "Somaliland", "sovereign": "Somaliland", "code": "SOL", "iso_a2": "-99", "population": 477876, "wikidata_id": "Q168652", "DATASET": "WORLD", "source": "Natural Earth 5.1.2"}, "geometry": {"type": "Point", "coordinates": [44.06531, 9.560022]}}, {"type": "Feature", "id": "natural-earth-1159150659", "properties": {"name": "Bloemfontein", "country": "South Africa", "sovereign": "South Africa", "code": "ZAF", "iso_a2": "ZA", "capital_type": "Judicial capita", "population": 463064, "wikidata_id": "Q37701", "DATASET": "WORLD", "source": "Natural Earth 5.1.2"}, "geometry": {"type": "Point", "coordinates": [26.229913, -29.119994]}}, {"type": "Feature", "id": "natural-earth-1159151583", "properties": {"name": "Cape Town", "country": "South Africa", "sovereign": "South Africa", "code": "ZAF", "iso_a2": "ZA", "capital_type": "Legislative cap", "population": 3215000, "wikidata_id": "Q5465", "DATASET": "WORLD", "source": "Natural Earth 5.1.2"}, "geometry": {"type": "Point", "coordinates": [18.433042, -33.918065]}}, {"type": "Feature", "id": "natural-earth-1159150661", "properties": {"name": "Pretoria", "country": "South Africa", "sovereign": "South Africa", "code": "ZAF", "iso_a2": "ZA", "capital_type": "Administrative", "population": 1338000, "wikidata_id": "Q3926", "DATASET": "WORLD", "source": "Natural Earth 5.1.2"}, "geometry": {"type": "Point", "coordinates": [28.227483, -25.704975]}}, {"type": "Feature", "id": "natural-earth-1159151523", "properties": {"name": "Seoul", "country": "South Korea", "sovereign": "Korea, South", "code": "KOR", "iso_a2": "KR", "population": 9796000, "wikidata_id": "Q8684", "DATASET": "WORLD", "source": "Natural Earth 5.1.2"}, "geometry": {"type": "Point", "coordinates": [126.997785, 37.568295]}}, {"type": "Feature", "id": "natural-earth-1159151503", "properties": {"name": "Madrid", "country": "Spain", "sovereign": "Kingdom of Spain", "code": "ESP", "iso_a2": "ES", "population": 5567000, "wikidata_id": "Q2807", "DATASET": "WORLD", "source": "Natural Earth 5.1.2"}, "geometry": {"type": "Point", "coordinates": [-3.685297, 40.401972]}}, {"type": "Feature", "id": "natural-earth-1159150719", "properties": {"name": "Colombo", "country": "Sri Lanka", "sovereign": "Sri Lanka", "code": "LKA", "iso_a2": "LK", "capital_type": "De facto, admin", "population": 217000, "wikidata_id": "Q35381", "DATASET": "WORLD", "source": "Natural Earth 5.1.2"}, "geometry": {"type": "Point", "coordinates": [79.857751, 6.931966]}}, {"type": "Feature", "id": "natural-earth-1159151275", "properties": {"name": "Khartoum", "country": "Sudan", "sovereign": "Sudan", "code": "SDN", "iso_a2": "SD", "population": 4754000, "wikidata_id": "Q1963", "DATASET": "WORLD", "source": "Natural Earth 5.1.2"}, "geometry": {"type": "Point", "coordinates": [32.532233, 15.590024]}}, {"type": "Feature", "id": "natural-earth-1159150597", "properties": {"name": "Paramaribo", "country": "Suriname", "sovereign": "Suriname", "code": "SUR", "iso_a2": "SR", "population": 254169, "wikidata_id": "Q3001", "DATASET": "WORLD", "source": "Natural Earth 5.1.2"}, "geometry": {"type": "Point", "coordinates": [-55.167031, 5.83503]}}, {"type": "Feature", "id": "natural-earth-1159151507", "properties": {"name": "Stockholm", "country": "Sweden", "sovereign": "Sweden", "code": "SWE", "iso_a2": "SE", "population": 1264000, "wikidata_id": "Q1754", "DATASET": "WORLD", "source": "Natural Earth 5.1.2"}, "geometry": {"type": "Point", "coordinates": [18.0663, 59.324127]}}, {"type": "Feature", "id": "natural-earth-1159149737", "properties": {"name": "Bern", "country": "Switzerland", "sovereign": "Switzerland", "code": "CHE", "iso_a2": "CH", "population": 275329, "wikidata_id": "Q70", "DATASET": "WORLD", "source": "Natural Earth 5.1.2"}, "geometry": {"type": "Point", "coordinates": [7.466976, 46.916683]}}, {"type": "Feature", "id": "natural-earth-1159151269", "properties": {"name": "Damascus", "country": "Syria", "sovereign": "Syria", "code": "SYR", "iso_a2": "SY", "population": 2466000, "wikidata_id": "Q3766", "DATASET": "WORLD", "source": "Natural Earth 5.1.2"}, "geometry": {"type": "Point", "coordinates": [36.29805, 33.50198]}}, {"type": "Feature", "id": "natural-earth-1159151567", "properties": {"name": "Taipei", "country": "Taiwan", "sovereign": "Taiwan", "code": "TWN", "iso_a2": "TW", "population": 6900273, "wikidata_id": "Q1867", "DATASET": "WORLD", "source": "Natural Earth 5.1.2"}, "geometry": {"type": "Point", "coordinates": [121.568333, 25.035833]}}, {"type": "Feature", "id": "natural-earth-1159150609", "properties": {"name": "Dushanbe", "country": "Tajikistan", "sovereign": "Tajikistan", "code": "TJK", "iso_a2": "TJ", "population": 1086244, "wikidata_id": "Q9365", "DATASET": "WORLD", "source": "Natural Earth 5.1.2"}, "geometry": {"type": "Point", "coordinates": [68.773879, 38.560035]}}, {"type": "Feature", "id": "natural-earth-1159151207", "properties": {"name": "Nassau", "country": "The Bahamas", "sovereign": "Bahamas, The", "code": "BHS", "iso_a2": "BS", "population": 227940, "wikidata_id": "Q2467", "DATASET": "WORLD", "source": "Natural Earth 5.1.2"}, "geometry": {"type": "Point", "coordinates": [-77.350044, 25.08339]}}, {"type": "Feature", "id": "natural-earth-1159149997", "properties": {"name": "Banjul", "country": "The Gambia", "sovereign": "Gambia, The", "code": "GMB", "iso_a2": "GM", "population": 43094, "wikidata_id": "Q3726", "DATASET": "WORLD", "source": "Natural Earth 5.1.2"}, "geometry": {"type": "Point", "coordinates": [-16.591701, 13.453876]}}, {"type": "Feature", "id": "natural-earth-1159150535", "properties": {"name": "Lom\u00e9", "country": "Togo", "sovereign": "Togo", "code": "TGO", "iso_a2": "TG", "population": 1452000, "wikidata_id": "Q3792", "DATASET": "WORLD", "source": "Natural Earth 5.1.2"}, "geometry": {"type": "Point", "coordinates": [1.220811, 6.133883]}}, {"type": "Feature", "id": "natural-earth-1159151187", "properties": {"name": "Nuku'alofa", "country": "Tonga", "sovereign": "Tonga", "code": "TON", "iso_a2": "TO", "population": 42620, "wikidata_id": "Q38834", "DATASET": "WORLD", "source": "Natural Earth 5.1.2"}, "geometry": {"type": "Point", "coordinates": [-175.220564, -21.138512]}}, {"type": "Feature", "id": "natural-earth-1159149307", "properties": {"name": "Port of Spain", "country": "Trinidad and Tobago", "sovereign": "Trinidad and Tobago", "code": "TTO", "iso_a2": "TT", "population": 294934, "wikidata_id": "Q39178", "DATASET": "WORLD", "source": "Natural Earth 5.1.2"}, "geometry": {"type": "Point", "coordinates": [-61.517031, 10.651997]}}, {"type": "Feature", "id": "natural-earth-1159150537", "properties": {"name": "Tunis", "country": "Tunisia", "sovereign": "Tunisia", "code": "TUN", "iso_a2": "TN", "population": 2412500, "wikidata_id": "Q3572", "DATASET": "WORLD", "source": "Natural Earth 5.1.2"}, "geometry": {"type": "Point", "coordinates": [10.179678, 36.802778]}}, {"type": "Feature", "id": "natural-earth-1159151255", "properties": {"name": "Ankara", "country": "Turkey", "sovereign": "Turkey", "code": "TUR", "iso_a2": "TR", "population": 3716000, "wikidata_id": "Q3640", "DATASET": "WORLD", "source": "Natural Earth 5.1.2"}, "geometry": {"type": "Point", "coordinates": [32.862446, 39.929184]}}, {"type": "Feature", "id": "natural-earth-1159150567", "properties": {"name": "Ashgabat", "country": "Turkmenistan", "sovereign": "Turkmenistan", "code": "TKM", "iso_a2": "TM", "population": 727700, "wikidata_id": "Q23438", "DATASET": "WORLD", "source": "Natural Earth 5.1.2"}, "geometry": {"type": "Point", "coordinates": [58.383299, 37.949995]}}, {"type": "Feature", "id": "natural-earth-1159149071", "properties": {"name": "Funafuti", "country": "Tuvalu", "sovereign": "Tuvalu", "code": "TUV", "iso_a2": "TV", "population": 4749, "wikidata_id": "Q34126", "DATASET": "WORLD", "source": "Natural Earth 5.1.2"}, "geometry": {"type": "Point", "coordinates": [179.216647, -8.516652]}}, {"type": "Feature", "id": "natural-earth-1159150565", "properties": {"name": "Abu Dhabi", "country": "United Arab Emirates", "sovereign": "United Arab Emirates", "code": "ARE", "iso_a2": "AE", "population": 603492, "wikidata_id": "Q1519", "DATASET": "WORLD", "source": "Natural Earth 5.1.2"}, "geometry": {"type": "Point", "coordinates": [54.366593, 24.466684]}}, {"type": "Feature", "id": "natural-earth-1159151577", "properties": {"name": "London", "country": "United Kingdom", "sovereign": "United Kingdom", "code": "GBR", "iso_a2": "GB", "population": 8567000, "wikidata_id": "Q84", "DATASET": "WORLD", "source": "Natural Earth 5.1.2"}, "geometry": {"type": "Point", "coordinates": [-0.118668, 51.501941]}}, {"type": "Feature", "id": "natural-earth-1159151573", "properties": {"name": "Washington", "country": "United States of America", "sovereign": "United States", "code": "USA", "iso_a2": "US", "population": 4338000, "wikidata_id": "Q61", "DATASET": "WORLD", "source": "Natural Earth 5.1.2"}, "geometry": {"type": "Point", "coordinates": [-77.011364, 38.901495]}}, {"type": "Feature", "id": "natural-earth-1159150469", "properties": {"name": "Montevideo", "country": "Uruguay", "sovereign": "Uruguay", "code": "URY", "iso_a2": "UY", "population": 1513000, "wikidata_id": "Q1335", "DATASET": "WORLD", "source": "Natural Earth 5.1.2"}, "geometry": {"type": "Point", "coordinates": [-56.186823, -34.905376]}}, {"type": "Feature", "id": "natural-earth-1159151501", "properties": {"name": "Tashkent", "country": "Uzbekistan", "sovereign": "Uzbekistan", "code": "UZB", "iso_a2": "UZ", "population": 2184000, "wikidata_id": "Q269", "DATASET": "WORLD", "source": "Natural Earth 5.1.2"}, "geometry": {"type": "Point", "coordinates": [69.268823, 41.303828]}}, {"type": "Feature", "id": "natural-earth-1159150579", "properties": {"name": "Port Vila", "country": "Vanuatu", "sovereign": "Vanuatu", "code": "VUT", "iso_a2": "VU", "population": 44040, "wikidata_id": "Q37806", "DATASET": "WORLD", "source": "Natural Earth 5.1.2"}, "geometry": {"type": "Point", "coordinates": [168.316641, -17.73335]}}, {"type": "Feature", "id": "natural-earth-1159127243", "properties": {"name": "Vatican City", "country": "Vatican", "sovereign": "Vatican", "code": "VAT", "iso_a2": "VA", "population": 832, "wikidata_id": "Q237", "DATASET": "WORLD", "source": "Natural Earth 5.1.2"}, "geometry": {"type": "Point", "coordinates": [12.453387, 41.903282]}}, {"type": "Feature", "id": "natural-earth-1159151493", "properties": {"name": "Caracas", "country": "Venezuela", "sovereign": "Venezuela", "code": "VEN", "iso_a2": "VE", "population": 2985000, "wikidata_id": "Q1533", "DATASET": "WORLD", "source": "Natural Earth 5.1.2"}, "geometry": {"type": "Point", "coordinates": [-66.918983, 10.502944]}}, {"type": "Feature", "id": "natural-earth-1159151259", "properties": {"name": "Sanaa", "country": "Yemen", "sovereign": "Yemen", "code": "YEM", "iso_a2": "YE", "population": 2008000, "wikidata_id": "Q2471", "DATASET": "WORLD", "source": "Natural Earth 5.1.2"}, "geometry": {"type": "Point", "coordinates": [44.204648, 15.356679]}}, {"type": "Feature", "id": "natural-earth-1159150571", "properties": {"name": "Lusaka", "country": "Zambia", "sovereign": "Zambia", "code": "ZMB", "iso_a2": "ZM", "population": 1328000, "wikidata_id": "Q3881", "DATASET": "WORLD", "source": "Natural Earth 5.1.2"}, "geometry": {"type": "Point", "coordinates": [28.281382, -15.414698]}}, {"type": "Feature", "id": "natural-earth-1159150573", "properties": {"name": "Harare", "country": "Zimbabwe", "sovereign": "Zimbabwe", "code": "ZWE", "iso_a2": "ZW", "population": 1572000, "wikidata_id": "Q3921", "DATASET": "WORLD", "source": "Natural Earth 5.1.2"}, "geometry": {"type": "Point", "coordinates": [31.042764, -17.815844]}}]}