{"type": "FeatureCollection", "features": [{"type": "Feature", "properties": {}, "geometry": {"type": "Polygon", "coordinates": [[[7.4088191986083975, 43.729677421697225], [7.418689727783202, 43.7247774797616], [7.4245262145996085, 43.72800280308363], [7.432422637939454, 43.735445194099945], [7.43250846862793, 43.736747517441835], [7.430276870727538, 43.73736766145917], [7.433452606201172, 43.74400280042086], [7.44049072265625, 43.74673105541854], [7.438344955444336, 43.74958318905739], [7.4390316009521475, 43.75119520447579], [7.436885833740234, 43.75181519884505], [7.436542510986328, 43.75026520087931], [7.430791854858398, 43.748963171566345], [7.427358627319335, 43.74363075601444], [7.412252426147461, 43.734576962803345], [7.412939071655274, 43.73184815391934], [7.4088191986083975, 43.729677421697225]]]}}]}