{"type": "FeatureCollection", "features": [{"type": "Feature", "properties": {}, "geometry": {"type": "Polygon", "coordinates": [[[50.43617248535156, 26.223830974981915], [50.43754577636719, 26.21089483785853], [50.44921875, 26.19426054863105], [50.44578552246094, 26.183785888205648], [50.4437255859375, 26.168996529230178], [50.44578552246094, 26.13694648303958], [50.47599792480469, 26.090704958217046], [50.478057861328125, 26.058633434006655], [50.480804443359375, 26.04136051414859], [50.46981811523443, 26.019765785872234], [50.47050476074219, 26.00804126906681], [50.458831787109375, 25.996315581557397], [50.45196533203125, 25.980268007469803], [50.45745849609375, 25.951870779973], [50.46501159667969, 25.938904550052868], [50.49522399902344, 25.91729099501283], [50.546722412109375, 25.851190703999947], [50.56251525878906, 25.800509380883664], [50.574188232421875, 25.78999956287362], [50.57212829589844, 25.803600326491402], [50.582427978515625, 25.81719952930879], [50.60783386230469, 25.813490810636758], [50.6195068359375, 25.820290039487425], [50.62980651855469, 25.833887325974946], [50.62019348144531, 25.853662408516318], [50.61332702636719, 25.855516152996614], [50.614013671875, 25.865402299316866], [50.60920715332037, 25.876523225444394], [50.61195373535162, 25.918526162075153], [50.62500000000006, 26.000018556696844], [50.63255310058594, 26.00989258640275], [50.62843322753906, 26.01914873523295], [50.634613037109375, 26.04197744797015], [50.62431335449219, 26.048146607649734], [50.623626708984375, 26.063568086390703], [50.631866455078125, 26.07837079625736], [50.63392639160156, 26.09625490696853], [50.629119873046875, 26.105504236403494], [50.63873291015625, 26.10612083235552], [50.642852783203125, 26.12091815959972], [50.63667297363281, 26.133864283969096], [50.64971923828125, 26.138795763430597], [50.6524658203125, 26.127083159668267], [50.66070556640625, 26.128932596249175], [50.65795898437506, 26.141261425055767], [50.6524658203125, 26.149274465676672], [50.67787170410156, 26.157286956136396], [50.664825439453125, 26.16406632595637], [50.63255310058594, 26.154821633060664], [50.63392639160156, 26.170845301716813], [50.631866455078125, 26.21212691288088], [50.64765930175781, 26.21828709232979], [50.659332275390625, 26.187482934720865], [50.65315246582031, 26.18809909773477], [50.64903259277344, 26.18440207077121], [50.6524658203125, 26.179472519013903], [50.6689453125, 26.182553513299307], [50.68061828613281, 26.18809909773477], [50.69160461425781, 26.18686676844819], [50.69297790527344, 26.199189474678295], [50.68954467773443, 26.21705508252983], [50.697784423828125, 26.2164390727378], [50.70533752441412, 26.19241214758277], [50.71632385253906, 26.177623883345746], [50.72593688964844, 26.1800887243873], [50.71083068847656, 26.20904670086916], [50.708770751953125, 26.221367059753472], [50.70465087890625, 26.230606472740575], [50.68817138671881, 26.22814270104532], [50.66825866699219, 26.23430203240673], [50.66413879394531, 26.241076920043582], [50.66413879394531, 26.249698933197614], [50.673751831054744, 26.249083096330665], [50.675811767578125, 26.262014984984344], [50.68199157714844, 26.265709545849006], [50.68473815917969, 26.274945433654644], [50.675811767578125, 26.28171795096075], [50.68267822265625, 26.289105700811348], [50.673065185546875, 26.29772414758771], [50.662078857421875, 26.305110877819093], [50.65177917480469, 26.301417571540153], [50.65795898437506, 26.312497137310036], [50.6634521484375, 26.331576128197028], [50.62980651855469, 26.334037704512937], [50.610580444335994, 26.314959119182006], [50.61676025390625, 26.296492980122594], [50.614013671875, 26.290336946708713], [50.60646057128906, 26.2841805865207], [50.57899475097662, 26.298339726417737], [50.571441650390625, 26.29526179958433], [50.576934814453125, 26.28171795096075], [50.58723449707031, 26.275561133379153], [50.587921142578125, 26.267556782196586], [50.58174133300781, 26.260783438573387], [50.57281494140625, 26.260167660470163], [50.57212829589844, 26.250930597138844], [50.53916931152344, 26.253393885849288], [50.526123046875, 26.245388006584058], [50.517196655273494, 26.250930597138844], [50.50209045410156, 26.250930597138844], [50.50140380859381, 26.26386228011112], [50.4931640625, 26.260783438573387], [50.483551025390625, 26.268788256766292], [50.46638488769531, 26.25893609446839], [50.45814514160156, 26.250930597138844], [50.44097900390625, 26.244156283890756], [50.43617248535156, 26.223830974981915]]]}}, {"type": "Feature", "properties": {}, "geometry": {"type": "Polygon", "coordinates": [[[50.43437004089361, 26.200883744824946], [50.43574333190918, 26.19418353250638], [50.43694496154791, 26.19418353250638], [50.43823242187506, 26.195338769029355], [50.43814659118652, 26.201807881786745], [50.43565750122076, 26.20404118249506], [50.43437004089361, 26.200883744824946]]]}}, {"type": "Feature", "properties": {}, "geometry": {"type": "Polygon", "coordinates": [[[50.42355537414551, 26.213820994738743], [50.42527198791504, 26.213897997873598], [50.42595863342285, 26.21590006149452], [50.42355537414551, 26.213820994738743]]]}}, {"type": "Feature", "properties": {}, "geometry": {"type": "Polygon", "coordinates": [[[50.396432876586914, 26.196108920345306], [50.39960861206055, 26.19225811283801], [50.40458679199219, 26.191333900091887], [50.40596008300781, 26.18856121785663], [50.410165786743164, 26.191025827546977], [50.41231155395508, 26.189870548247065], [50.412397384643555, 26.194491596699585], [50.40904998779297, 26.19441458072768], [50.40158271789551, 26.19780323531297], [50.396432876586914, 26.196108920345306]]]}}, {"type": "Feature", "properties": {}, "geometry": {"type": "Polygon", "coordinates": [[[50.37188529968262, 26.18594251292921], [50.39694786071777, 26.18031980056232], [50.40424346923828, 26.173926524048117], [50.404071807861385, 26.172539984076685], [50.397891998291016, 26.17646847116353], [50.39514541625971, 26.172385923061892], [50.3957462310791, 26.16938169258234], [50.39402961730957, 26.16938169258234], [50.390167236328125, 26.164682612764587], [50.38372993469238, 26.163372999404377], [50.37823677062988, 26.15605430111051], [50.378150939941406, 26.14580735215576], [50.3818416595459, 26.142108984212513], [50.38252830505371, 26.137948180220462], [50.380897521972656, 26.13409545172132], [50.3858757019043, 26.131013177400973], [50.383901596069336, 26.12400070029862], [50.397634506225586, 26.12130348163454], [50.40201187133789, 26.12330713573203], [50.410165786743164, 26.12353832437836], [50.411109924316406, 26.121919994247254], [50.41145324707031, 26.123692449888438], [50.41574478149414, 26.123230072748242], [50.42226791381836, 26.1189915303659], [50.42441368103027, 26.119376858753917], [50.424842834472656, 26.12153467424552], [50.422096252441406, 26.126851978036793], [50.42475700378418, 26.135020118154202], [50.419349670410156, 26.136407104075044], [50.41831970214844, 26.14218603473982], [50.418405532836914, 26.157595117857827], [50.42226791381836, 26.164143361985488], [50.42003631591797, 26.172539984076685], [50.40724754333496, 26.173695435198102], [50.39780616760254, 26.18162922356646], [50.39076805114746, 26.18370886515584], [50.37351608276367, 26.187328893458208], [50.37188529968262, 26.18594251292921]]]}}, {"type": "Feature", "properties": {}, "geometry": {"type": "Polygon", "coordinates": [[[50.37214279174805, 26.17970359641074], [50.38896560668945, 26.174388700373864], [50.390167236328125, 26.175236018878593], [50.37214279174805, 26.18186029668695], [50.37214279174805, 26.17970359641074]]]}}, {"type": "Feature", "properties": {}, "geometry": {"type": "Polygon", "coordinates": [[[50.409135818481445, 26.19764920769815], [50.41205406188965, 26.197187123631412], [50.41196823120123, 26.198727396723438], [50.409135818481445, 26.19764920769815]]]}}, {"type": "Feature", "properties": {}, "geometry": {"type": "Polygon", "coordinates": [[[50.3254508972168, 26.182553513299307], [50.32742500305176, 26.180473851091154], [50.33557891845703, 26.18178327236436], [50.33540725708008, 26.183323749143128], [50.33231735229492, 26.184248025435306], [50.33308982849127, 26.185403360490522], [50.32965660095215, 26.186404641605208], [50.32630920410156, 26.185095272262572], [50.3254508972168, 26.182553513299307]]]}}, {"type": "Feature", "properties": {}, "geometry": {"type": "Polygon", "coordinates": [[[50.68289279937744, 25.808545671771615], [50.682313442230225, 25.80808205441977], [50.6804895401001, 25.80713549669335], [50.68063974380493, 25.806787779711012], [50.68113327026367, 25.806633238502435], [50.68242073059082, 25.80732867235373], [50.68317174911499, 25.80806273699072], [50.68345069885254, 25.808487719701837], [50.68289279937744, 25.808545671771615]]]}}, {"type": "Feature", "properties": {}, "geometry": {"type": "Polygon", "coordinates": [[[50.76001167297363, 25.751275212873917], [50.765848159790096, 25.74516782499286], [50.77314376831055, 25.74787366848897], [50.772199630737305, 25.755990829182867], [50.76902389526367, 25.756686560000876], [50.76910972595215, 25.758541822254536], [50.760440826416016, 25.753053254126662], [50.76001167297363, 25.751275212873917]]]}}, {"type": "Feature", "properties": {}, "geometry": {"type": "Polygon", "coordinates": [[[50.77348709106445, 25.75197097131662], [50.77752113342285, 25.74447202670455], [50.78001022338867, 25.74393084744098], [50.78112602233887, 25.745477067368604], [50.78953742980963, 25.747332504719942], [50.79176902770996, 25.749806376111376], [50.792198181152344, 25.753826307238672], [50.79159736633301, 25.756763863173482], [50.79022407531738, 25.75452205073732], [50.78756332397461, 25.757614194750968], [50.783443450927734, 25.758309916057996], [50.782413482666016, 25.755372398367243], [50.777950286865234, 25.75506318175175], [50.77348709106445, 25.75197097131662]]]}}, {"type": "Feature", "properties": {}, "geometry": {"type": "Polygon", "coordinates": [[[50.820350646972656, 25.737861739751136], [50.82494258880615, 25.739871924398145], [50.822324752807674, 25.740567749623285], [50.82271099090576, 25.739060123152857], [50.820350646972656, 25.737861739751136]]]}}, {"type": "Feature", "properties": {}, "geometry": {"type": "Polygon", "coordinates": [[[50.79957962036133, 25.67278299328709], [50.8036994934082, 25.668760323272966], [50.80678939819336, 25.661488229177426], [50.81005096435547, 25.665820593960056], [50.81880569458008, 25.66814143891498], [50.82326889038086, 25.67757907626431], [50.82206726074219, 25.68299377668047], [50.816402435302734, 25.6850048884496], [50.813655853271484, 25.68871762098205], [50.810909271240234, 25.687944144580502], [50.80850601196289, 25.68237496622936], [50.80284118652344, 25.679744985957104], [50.79957962036133, 25.67278299328709]]]}}, {"type": "Feature", "properties": {}, "geometry": {"type": "Polygon", "coordinates": [[[50.797176361083984, 25.698927038714793], [50.80009460449219, 25.697534896929497], [50.80249786376953, 25.700319164221906], [50.797176361083984, 25.70078320244014], [50.797176361083984, 25.698927038714793]]]}}, {"type": "Feature", "properties": {}, "geometry": {"type": "Polygon", "coordinates": [[[50.797176361083984, 25.696297423899715], [50.79803466796875, 25.695214624448745], [50.799922943115234, 25.696142738866712], [50.797176361083984, 25.696297423899715]]]}}, {"type": "Feature", "properties": {}, "geometry": {"type": "Polygon", "coordinates": [[[50.79631805419922, 25.69304899600838], [50.796661376953125, 25.691850149043916], [50.799922943115234, 25.693706423090923], [50.79631805419922, 25.69304899600838]]]}}, {"type": "Feature", "properties": {}, "geometry": {"type": "Polygon", "coordinates": [[[50.815415382385254, 25.662107148068756], [50.81429958343506, 25.661720324138102], [50.814170837402344, 25.661372181527703], [50.815415382385254, 25.661372181527703], [50.815415382385254, 25.662107148068756]]]}}, {"type": "Feature", "properties": {}, "geometry": {"type": "Polygon", "coordinates": [[[50.81309795379639, 25.654525170330572], [50.81352710723877, 25.6529390834231], [50.81421375274658, 25.654525170330572], [50.81309795379639, 25.654525170330572]]]}}, {"type": "Feature", "properties": {}, "geometry": {"type": "Polygon", "coordinates": [[[50.816402435302734, 25.65251354432366], [50.817604064941406, 25.652590915181907], [50.81700325012207, 25.654060951955035], [50.816402435302734, 25.65251354432366]]]}}, {"type": "Feature", "properties": {}, "geometry": {"type": "Polygon", "coordinates": [[[50.78258514404297, 25.676805527548066], [50.782842636108455, 25.67278299328709], [50.78498840332031, 25.671081111001566], [50.78421592712408, 25.673247138784188], [50.78661918640137, 25.675799906710502], [50.78258514404297, 25.676805527548066]]]}}, {"type": "Feature", "properties": {}, "geometry": {"type": "Polygon", "coordinates": [[[50.76988220214844, 25.66326761233227], [50.77451705932617, 25.656923603159374], [50.780439376831055, 25.663344976215], [50.77374458312994, 25.668218799635397], [50.77314376831055, 25.664582791512235], [50.76988220214844, 25.66326761233227]]]}}, {"type": "Feature", "properties": {}, "geometry": {"type": "Polygon", "coordinates": [[[50.77674865722656, 25.629686950914465], [50.78164100646978, 25.62837138709898], [50.78404426574707, 25.63154419280648], [50.781211853027344, 25.634097853244732], [50.77674865722656, 25.629686950914465]]]}}, {"type": "Feature", "properties": {}, "geometry": {"type": "Polygon", "coordinates": [[[50.78610420227051, 25.626978421381885], [50.785160064697266, 25.626668871238568], [50.78524589538574, 25.62527588566601], [50.78627586364746, 25.62527588566601], [50.78610420227051, 25.626978421381885]]]}}, {"type": "Feature", "properties": {}, "geometry": {"type": "Polygon", "coordinates": [[[50.799665451049805, 25.625508051056205], [50.79975128173828, 25.62473416466734], [50.80035209655762, 25.624501997773027], [50.80035209655762, 25.625353274179545], [50.799665451049805, 25.625508051056205]]]}}, {"type": "Feature", "properties": {}, "geometry": {"type": "Polygon", "coordinates": [[[50.79309940338135, 25.614305556657435], [50.792691707611084, 25.614015322637865], [50.7927131652832, 25.613647691867946], [50.792949199676514, 25.613512248667625], [50.79309940338135, 25.614305556657435]]]}}, {"type": "Feature", "properties": {}, "geometry": {"type": "Polygon", "coordinates": [[[50.79209089279175, 25.613976624715345], [50.791919231414795, 25.613976624715345], [50.79174757003784, 25.61372508791349], [50.792112350463924, 25.613744436917024], [50.79209089279175, 25.613976624715345]]]}}, {"type": "Feature", "properties": {}, "geometry": {"type": "Polygon", "coordinates": [[[50.79110383987427, 25.614266858828877], [50.790953636169434, 25.61418946313419], [50.791060924530086, 25.613976624715345], [50.79133987426758, 25.613841181887814], [50.79127550125122, 25.614131416330267], [50.79110383987427, 25.614266858828877]]]}}, {"type": "Feature", "properties": {}, "geometry": {"type": "Polygon", "coordinates": [[[50.785825252533016, 25.617362645514905], [50.78700542449951, 25.61577606485698], [50.78709125518799, 25.61761417466025], [50.785825252533016, 25.617362645514905]]]}}, {"type": "Feature", "properties": {}, "geometry": {"type": "Polygon", "coordinates": [[[50.78436613082886, 25.617440039154474], [50.78428030014038, 25.617188509642578], [50.784451961517334, 25.616975676565104], [50.784709453582764, 25.616840237136618], [50.78479528427124, 25.617053070455302], [50.78460216522217, 25.617169161196653], [50.78460216522217, 25.61734329709718], [50.78436613082886, 25.617440039154474]]]}}, {"type": "Feature", "properties": {}, "geometry": {"type": "Polygon", "coordinates": [[[50.77975273132324, 25.620110089022795], [50.77977418899536, 25.618852464271622], [50.78196287155157, 25.61875572335785], [50.781683921813965, 25.620864657519494], [50.77975273132324, 25.620110089022795]]]}}, {"type": "Feature", "properties": {}, "geometry": {"type": "Polygon", "coordinates": [[[50.779151916503906, 25.65761991333506], [50.781898498535156, 25.654834648244027], [50.78310012817383, 25.646633212289306], [50.78807830810547, 25.64152637306577], [50.78584671020508, 25.63935976920002], [50.786705017089844, 25.635181207840507], [50.790138244628906, 25.6333240225154], [50.78910827636719, 25.629764336569952], [50.790824890136776, 25.628061840565795], [50.79580307006836, 25.631931114565067], [50.80181121826172, 25.633169255767733], [50.812625885009766, 25.63131203914958], [50.81623077392578, 25.632240651069274], [50.817604064941406, 25.635955026533605], [50.81520080566406, 25.635800263196185], [50.8196640014649, 25.64059783336716], [50.81932067871094, 25.644621453226204], [50.81279754638672, 25.650037650367278], [50.7947731018067, 25.65096611662184], [50.79357147216797, 25.653441991310984], [50.79597473144531, 25.655763077167123], [50.7952880859375, 25.659940917896325], [50.78824996948242, 25.66226187728969], [50.78533172607422, 25.658393586540633], [50.779151916503906, 25.65761991333506]]]}}, {"type": "Feature", "properties": {}, "geometry": {"type": "Polygon", "coordinates": [[[50.7319450378418, 25.560561557389807], [50.732460021972656, 25.558393486127372], [50.738468170166016, 25.555451040945282], [50.738468170166016, 25.557928894323723], [50.73314666748047, 25.561955296767845], [50.7319450378418, 25.560561557389807]]]}}, {"type": "Feature", "properties": {}, "geometry": {"type": "Polygon", "coordinates": [[[50.73224544525152, 25.64883837076214], [50.73203086853027, 25.648606250736627], [50.73258876800537, 25.648025948697388], [50.73297500610357, 25.64845150380209], [50.73224544525152, 25.64883837076214]]]}}, {"type": "Feature", "properties": {}, "geometry": {"type": "Polygon", "coordinates": [[[50.73554992675787, 25.64864493743889], [50.73494911193848, 25.648528877294446], [50.734734535217285, 25.6482967566669], [50.73507785797119, 25.648025948697388], [50.73554992675787, 25.64864493743889]]]}}, {"type": "Feature", "properties": {}, "geometry": {"type": "Polygon", "coordinates": [[[50.73467552661896, 25.64733925430539], [50.73464870452881, 25.647116803162017], [50.73487401008606, 25.646850828424544], [50.73507249355316, 25.64671542287591], [50.735249519348145, 25.646850828424544], [50.73519051074982, 25.64709262366493], [50.73506712913519, 25.647174833935054], [50.73467552661896, 25.64733925430539]]]}}, {"type": "Feature", "properties": {}, "geometry": {"type": "Polygon", "coordinates": [[[50.73852181434631, 25.647068444162926], [50.73841452598572, 25.64667189963124], [50.738489627838135, 25.64661386861363], [50.73882222175598, 25.646700915129458], [50.73882222175598, 25.6469427106736], [50.73852181434631, 25.647068444162926]]]}}, {"type": "Feature", "properties": {}, "geometry": {"type": "Polygon", "coordinates": [[[50.736708641052246, 25.645646680832403], [50.73656916618347, 25.645462914267824], [50.73657989501953, 25.645250131576372], [50.73678374290466, 25.645163084002334], [50.73706269264221, 25.645317835201155], [50.73713779449463, 25.64549193005998], [50.736708641052246, 25.645646680832403]]]}}, {"type": "Feature", "properties": {}, "geometry": {"type": "Polygon", "coordinates": [[[50.73894023895264, 25.64449571715877], [50.73885440826422, 25.644302276796367], [50.73905825614929, 25.644147524280694], [50.73928356170654, 25.644031459762274], [50.73944449424744, 25.644224900563618], [50.73935866355896, 25.64436998095887], [50.73916554450989, 25.64449571715877], [50.73894023895264, 25.64449571715877]]]}}, {"type": "Feature", "properties": {}, "geometry": {"type": "Polygon", "coordinates": [[[50.736987590789795, 25.6420099846314], [50.737019777297974, 25.641652112261315], [50.73711633682251, 25.6415940788029], [50.73729872703552, 25.641652112261315], [50.737234354019165, 25.641816540240278], [50.7373309135437, 25.641961623563013], [50.736987590789795, 25.6420099846314]]]}}, {"type": "Feature", "properties": {}, "geometry": {"type": "Polygon", "coordinates": [[[50.726773738861084, 25.690883328185343], [50.72782516479492, 25.690457924521173], [50.72767496109009, 25.691637449128457], [50.726773738861084, 25.690883328185343]]]}}, {"type": "Feature", "properties": {}, "geometry": {"type": "Polygon", "coordinates": [[[50.736966133117676, 25.696355430735263], [50.73467016220093, 25.69515661705744], [50.73436975479126, 25.6946732210309], [50.73426246643072, 25.694209158999293], [50.73477745056152, 25.69384177527504], [50.73666572570801, 25.695175952857678], [50.7373309135437, 25.69548532523458], [50.73752403259277, 25.69577536110793], [50.737717151641846, 25.695872039575406], [50.73765277862549, 25.696316759514694], [50.736966133117676, 25.696355430735263]]]}}, {"type": "Feature", "properties": {}, "geometry": {"type": "Polygon", "coordinates": [[[50.73426246643072, 25.65444780072676], [50.73512077331543, 25.653441991310984], [50.73821067810064, 25.655376232660647], [50.74027061462402, 25.652049318120472], [50.73984146118164, 25.648567564021796], [50.743961334228516, 25.649186549953775], [50.747737884521484, 25.645704712320327], [50.74936866760254, 25.641371616950927], [50.749197006225586, 25.633556172260775], [50.74662208557129, 25.627055808792353], [50.74868202209478, 25.620400308239347], [50.74851036071777, 25.614131416330267], [50.74542045593262, 25.60646899074687], [50.73958396911621, 25.598960885279478], [50.74009895324707, 25.59052337954413], [50.74705123901367, 25.58363359865769], [50.757694244384766, 25.57891116016834], [50.76112747192383, 25.579453088803465], [50.76953887939453, 25.575891798572776], [50.775718688964844, 25.572794938340998], [50.77906608581543, 25.56915602521313], [50.77657699584961, 25.573801426702914], [50.755720138549805, 25.58463999588776], [50.75503349304199, 25.586730178475534], [50.7553768157959, 25.589362208315652], [50.758981704711914, 25.591529718825942], [50.76275825500488, 25.598341639042534], [50.76129913330078, 25.601824857415377], [50.76335906982422, 25.60437915307096], [50.7747745513916, 25.610106769185723], [50.77425956726074, 25.615137556940358], [50.77125549316406, 25.618388107171203], [50.768165588378906, 25.618542893071837], [50.761985778808594, 25.61467318540368], [50.7582950592041, 25.614982766628625], [50.7582950592041, 25.616375872216363], [50.76550483703613, 25.622489865787472], [50.76241493225098, 25.627365357932877], [50.76533317565918, 25.633169255767733], [50.76730728149414, 25.6333240225154], [50.767221450805664, 25.636883602345097], [50.77177047729492, 25.63742526823323], [50.77357292175293, 25.63487167895902], [50.77537536621094, 25.635413353975036], [50.776405334472656, 25.639050251151932], [50.775461196899414, 25.64129423881827], [50.772972106933594, 25.64175850686181], [50.77340126037598, 25.64678796158178], [50.770225524902344, 25.64957341453067], [50.77048301696777, 25.65228143144786], [50.76481819152832, 25.65274565674787], [50.763702392578125, 25.658625687523703], [50.76215744018555, 25.658703054417707], [50.758724212646484, 25.66388652198859], [50.758724212646484, 25.66829616030564], [50.76104164123535, 25.672009413442222], [50.76576232910162, 25.672937708653603], [50.76765060424805, 25.677733785405028], [50.77056884765625, 25.674098067501294], [50.781211853027344, 25.68214291148158], [50.78970909118652, 25.681214687970947], [50.78636169433594, 25.677269657380343], [50.79726219177246, 25.682452317711515], [50.79709053039551, 25.686706571891094], [50.78988075256348, 25.6891817044121], [50.788164138794, 25.695446653731427], [50.7857608795166, 25.696297423899715], [50.782413482666016, 25.6948279079729], [50.781898498535156, 25.69668413560307], [50.78473091125488, 25.70016448441389], [50.78378677368164, 25.70155659545103], [50.790824890136776, 25.70364473148278], [50.791683197021484, 25.70735688286962], [50.796918869018555, 25.712538233911438], [50.797176361083984, 25.72521999182845], [50.801639556884766, 25.728622184631988], [50.79983711242676, 25.730323244529043], [50.80103874206543, 25.733802609421527], [50.79777717590332, 25.732101599307963], [50.79751968383789, 25.72900879129109], [50.793657302856445, 25.728312898399597], [50.79408645629883, 25.726921100398066], [50.792112350463924, 25.727230390250718], [50.79279899597168, 25.72993664214407], [50.788936614990234, 25.728158254981707], [50.78438758850098, 25.72259095799301], [50.7857608795166, 25.721199093022076], [50.78533172607422, 25.718569970303363], [50.78164100646978, 25.71880195405727], [50.78052520751953, 25.721199093022076], [50.77228546142578, 25.721199093022076], [50.756492614746094, 25.701788612374507], [50.75117111206055, 25.697998945999913], [50.74567794799805, 25.68941374544904], [50.7388973236084, 25.69188882171502], [50.738983154296875, 25.6901872123074], [50.74413299560547, 25.68732535984301], [50.74456214904785, 25.683844635802895], [50.740013122558594, 25.67626404045914], [50.742158889770565, 25.66945656433548], [50.741214752197266, 25.665046968935993], [50.737009048461914, 25.655917814618444], [50.73426246643072, 25.65444780072676]]]}}]}