{"type": "FeatureCollection", "features": [{"id": "5", "type": "Feature", "properties": {"NAME_FULL": "Republic of Atropia", "NAME_SHORT": "Atropia", "CODE": null, "DEMONYM": "Atropians", "LANGUAGE": null, "STATUS": "NOTIONAL", "REGION": "Eurasia", "VERSION": "GIS version 1.5; May 2024"}, "geometry": {"type": "Polygon", "coordinates": [[[44.960697061819936, 41.059923808237194], [44.96395267777384, 41.07377309255422], [44.97945560669085, 41.08204132095018], [45.01888472524991, 41.07490997321671], [45.05717696134764, 41.07878570589565], [45.06782230745357, 41.11092844709016], [45.16673099793727, 41.107776184823045], [45.20104414946793, 41.126741435269025], [45.19975223827523, 41.1426577762354], [45.18678145310155, 41.156868794858966], [45.13443322801108, 41.187874654491736], [45.117328329538786, 41.19206044643246], [45.052009318375376, 41.1921121214772], [45.034852742160346, 41.197693176498916], [45.02932336398202, 41.210095519992294], [45.03940026840769, 41.23117950483028], [45.002399944401915, 41.29045237297868], [45.24961999646564, 41.44449981741265], [45.28171105991752, 41.452923075439585], [45.31442224099363, 41.45163116514612], [45.381239868025524, 41.425586242910775], [45.3967944746853, 41.42326080384301], [45.416948283536456, 41.42460439097986], [45.450021199818515, 41.43220082760614], [45.46480065922302, 41.43018544510222], [45.479270060265044, 41.41767974882135], [45.51182621350891, 41.394580383278054], [45.65559004704303, 41.35236073945652], [45.720702351732164, 41.34238718691911], [45.74406009969382, 41.335359191973126], [45.74530033404325, 41.32915802022644], [45.731037639475474, 41.32326690684228], [45.70809330266384, 41.31711741193897], [45.68587243626388, 41.2962401335753], [45.70974694816316, 41.26771474354061], [45.75108809374059, 41.240998026837495], [45.82074792467692, 41.20880361059813], [45.96916263814532, 41.16828928642139], [46.01742842588111, 41.163793437017524], [46.041612996142874, 41.16544708341621], [46.06135339384401, 41.1709247856503], [46.11313317905298, 41.196039530999556], [46.13540572139698, 41.199915263678534], [46.21059493051161, 41.200173645197594], [46.228578328127384, 41.19541941337523], [46.244391317205576, 41.183740540293655], [46.27343347207712, 41.15630035407801], [46.33234460412017, 41.11588938448749], [46.35311853149499, 41.10653595047368], [46.4126497802632, 41.09185984295742], [46.42903120922299, 41.08095611623175], [46.45698815937605, 41.052430725297754], [46.474919881047654, 41.0441108200583], [46.49677901224163, 41.04483429047013], [46.50556400547449, 41.05527292920237], [46.51114506049618, 41.07098256549299], [46.522410522427705, 41.08700225834753], [46.543546183209806, 41.09702748682905], [46.56313155128003, 41.09558054600537], [46.582148479468835, 41.0916531373824], [46.60178552348315, 41.09403025329356], [46.62111250823567, 41.11459747329474], [46.629484090318535, 41.146740214489384], [46.634755086078314, 41.181053365120796], [46.64447025529809, 41.2079767864995], [46.66948164875906, 41.2298875945369], [46.67160038225183, 41.236450501489486], [46.672685587869594, 41.253968811111775], [46.674649291731434, 41.26166860052549], [46.683434285863626, 41.26947174092805], [46.69170251425969, 41.268541564941266], [46.728972860568284, 41.285346098217865], [46.749992508147784, 41.292172634551385], [46.791223802130425, 41.275820989800415], [46.86549116398605, 41.2770932074855], [46.91213270700168, 41.26530266149019], [46.93417135297253, 41.24207303096136], [46.95451583064114, 41.226012151147735], [47.015220508439135, 41.23068071577223], [47.04245937182295, 41.25449062984117], [47.08598158972516, 41.25371002444661], [47.12539366351493, 41.242987227065164], [47.17699466438365, 41.25773962366761], [47.20633957717817, 41.285756748969796], [47.25084151192618, 41.31603220632132], [47.26841149929127, 41.30280304052789], [47.34447920844868, 41.26823150747812], [47.3755884199696, 41.25944651334591], [47.47914799038752, 41.251953430406445], [47.50095544473799, 41.24632069944075], [47.52917077641023, 41.216555074157384], [47.54730920545551, 41.20565134743173], [47.56777307176992, 41.205496318700156], [47.60317142711973, 41.22327301164018], [47.62249841277158, 41.22906077133755], [47.64254886883529, 41.22725209620726], [47.724559367320985, 41.195729472637026], [47.74373132334191, 41.19268056225818], [47.82873905446379, 41.198416646910715], [47.871113728815544, 41.20818349207451], [47.8946265064082, 41.21929392527443], [47.89886397339373, 41.22906077133752], [47.89379968230946, 41.24187652598089], [47.889252156961454, 41.2624437459821], [47.89214603681014, 41.28326934840167], [47.90144779487979, 41.29298451852071], [47.914780314359994, 41.30021921814242], [47.929456420977054, 41.31355173852189], [47.93793135584737, 41.33174184261193], [47.942685587669686, 41.34739980115992], [47.953227580088736, 41.35577138324276], [47.97916914953655, 41.35241241540065], [48.001648397455526, 41.362075908676296], [48.014597080720506, 41.390250987230026], [48.10958933943443, 41.41357999951369], [48.19027296162194, 41.43632689863668], [48.29050881665754, 41.450971014227115], [48.399940869627216, 41.450280990432645], [48.460615585370874, 41.46843525118895], [48.52375640482521, 41.53140345678141], [48.54360408080491, 41.59068835623205], [48.6149886279793, 41.678304943428905], [48.63829969892423, 41.73746227002143], [48.67499100229504, 41.78032132435391], [48.74366295700022, 41.708929755], [48.77784264400018, 41.68301015800015], [48.79184004000025, 41.66742584800003], [48.79761803500013, 41.643133856000034], [48.865896030000116, 41.585394598000114], [48.904063347000346, 41.52338288000014], [48.92432701900023, 41.51780833500015], [48.941172722000026, 41.504624742000026], [48.96216881600021, 41.476141669000214], [48.99447675900013, 41.44041575700016], [49.019216342000206, 41.43475983300007], [49.02759850400009, 41.431219794000185], [49.042491082000126, 41.414374091000205], [49.108897332000204, 41.3097598330001], [49.12338300900024, 41.293687242000026], [49.135915561000054, 41.27496979400005], [49.14193769600022, 41.25315989800001], [49.15430748800009, 41.166449286000166], [49.1606551440002, 41.14809804900012], [49.1716414720003, 41.140366929], [49.178477410000276, 41.12885163000017], [49.19548587347424, 41.057277736578264], [49.24317467507119, 40.99721914334878], [49.36312910222626, 40.89423248963775], [49.37305748811264, 40.88279857029782], [49.382009310980976, 40.86664459786989], [49.403168165278665, 40.852728582957674], [49.44874108243504, 40.8312848980796], [49.471039259054585, 40.83576080951377], [49.48991946690986, 40.82314687712663], [49.507823113545854, 40.80621979440797], [49.52784264372299, 40.79779694197528], [49.53882897227924, 40.788072007017526], [49.53435306084504, 40.766180731355675], [49.51693769571809, 40.728908596254705], [49.5109969406563, 40.709540105991145], [49.509532097028675, 40.69904205894389], [49.51075279990177, 40.68793366090983], [49.51490319092954, 40.68158600489019], [49.52833092523207, 40.66885000212591], [49.53891035193123, 40.65399811402173], [49.55665123836399, 40.64118073160545], [49.57618248793142, 40.62995026229476], [49.589610222233944, 40.62518952028012], [49.633067254050516, 40.62319570531759], [49.65259850451737, 40.61920807539235], [49.66846764366685, 40.61220937766064], [49.70411217493687, 40.588080145382385], [49.723806186506295, 40.58075592724423], [49.77393639384946, 40.57562897319858], [49.81674238395388, 40.56537506690582], [49.84034264399785, 40.56378815290098], [49.858653190692266, 40.56663646050426], [49.914235873386836, 40.58429596638574], [49.938161654736646, 40.5874697943955], [50.052012565727324, 40.584295966385696], [50.06039472743476, 40.577948309466905], [50.072520379212136, 40.55695221627175], [50.09034264439755, 40.540228583582255], [50.1093856133554, 40.52708567896089], [50.12964928518639, 40.518459377398344], [50.2200626963364, 40.503648179120155], [50.237559441115344, 40.49616119987955], [50.24854576877226, 40.48118724229743], [50.26075280020159, 40.458075261963785], [50.27588951888623, 40.436590887259705], [50.295664910107476, 40.4272321643329], [50.31739342466679, 40.42121002871984], [50.33594811301501, 40.405951239657966], [50.35059655019064, 40.38589101785624], [50.360524936076956, 40.365179755241535], [50.370778842369646, 40.28261953356462], [50.37769616044949, 40.274400132060414], [50.38599694070624, 40.25568268440837], [50.39112389385259, 40.235012111619646], [50.38786868619093, 40.22113678653345], [50.368662957029805, 40.249701239520576], [50.34791100368987, 40.274400132060414], [50.323090039873435, 40.2965762392021], [50.27369225389441, 40.327337958080335], [50.252614780147965, 40.336330471673925], [50.22999108222269, 40.34275950734536], [50.18531334753295, 40.347479559534065], [50.14771569112629, 40.35691966391137], [50.12769616004972, 40.358954169599244], [50.116465690739076, 40.35797760658127], [50.093597852059204, 40.35150788018455], [50.055186393737095, 40.35150788018455], [50.037608269306176, 40.34577057515194], [50.003754102070154, 40.32420481989652], [49.98373457099368, 40.32420481989652], [49.976573113058684, 40.32904694246247], [49.96371503991718, 40.34479401213398], [49.95582115971882, 40.35150788018455], [49.945323112671545, 40.354722398020265], [49.919606967287734, 40.35814036768382], [49.89340254039496, 40.36904531568873], [49.873545769521655, 40.36058177343007], [49.84034264399785, 40.337836005127464], [49.847178582425634, 40.31415436453233], [49.819021030396186, 40.2920596370426], [49.7783309247324, 40.27582428586216], [49.71192467548342, 40.264349677595526], [49.653656446287975, 40.23843008038389], [49.5771590500501, 40.21674225565053], [49.55925540521281, 40.20669179938701], [49.52084394599133, 40.174221096126644], [49.503591341966874, 40.16494375195265], [49.492523633758644, 40.1539981141218], [49.49040774841883, 40.13239166904025], [49.49659264423522, 40.09454987187906], [49.44263756627074, 40.078436591075814], [49.43262779983311, 40.062974351085415], [49.435069207377985, 40.04279205890639], [49.44874108243504, 40.02252838707541], [49.45769290530337, 40.01504140783476], [49.471934441521284, 40.00649648592412], [49.47974694116843, 39.99896881685738], [49.48389733219615, 39.98867422163804], [49.478282097540834, 39.98232656561854], [49.46827233200243, 39.97736237267532], [49.45069420667234, 39.96482981994024], [49.43539472688512, 39.95766836110597], [49.42823326895022, 39.94745514553855], [49.42367597696477, 39.93549225486369], [49.423106315803786, 39.9264997421694], [49.42823326895022, 39.90643952036762], [49.43970787901536, 39.8849958354894], [49.44312584688035, 39.87335846612034], [49.43848717524302, 39.86176178657716], [49.416514519029846, 39.84373607046326], [49.4145613938932, 39.83417389570874], [49.42237389443969, 39.81732819264203], [49.42139733232107, 39.810248114358984], [49.41716556074209, 39.80585358347605], [49.40088951883625, 39.79661692912799], [49.39478600447056, 39.78245677346136], [49.39519290542829, 39.776190497093765], [49.40088951883625, 39.76927317901397], [49.3963322268508, 39.75617096601725], [49.402028842057376, 39.74249909096026], [49.42481530018596, 39.71808502810156], [49.42359459731279, 39.70954010619092], [49.40984134170459, 39.7013613954121], [49.38396243611744, 39.6901309270007], [49.337250195739884, 39.646429755328946], [49.3180444674782, 39.62140534148333], [49.31902103049615, 39.60419342728484], [49.307383660227686, 39.58759186407327], [49.297129753934996, 39.565578518034165], [49.2892358728373, 39.54238515804858], [49.28492272250567, 39.522202867668206], [49.28581790497237, 39.495184637061406], [49.295746289959325, 39.47671133016372], [49.388845248509405, 39.410793361524384], [49.40088951883625, 39.39935944218453], [49.408946160137226, 39.38641998939098], [49.40805097677115, 39.38202545850807], [49.40357506623629, 39.37848541936661], [49.39730878986875, 39.345160223465626], [49.39869225384443, 39.33515045792738], [49.40707441465247, 39.323675847862106], [49.39478600447056, 39.32868073153059], [49.385590039948376, 39.33494700699874], [49.37305748811264, 39.35097890815009], [49.36687259229626, 39.35097890815009], [49.37061608236626, 39.336167709871944], [49.37907962282635, 39.319810289213514], [49.39136803480693, 39.305487372444304], [49.40707441465254, 39.29694245053374], [49.40707441465247, 39.28949616111896], [49.38453209727851, 39.293687241972684], [49.37037194071251, 39.30585358357609], [49.357676628673445, 39.320135809619956], [49.30640709720973, 39.346502997615275], [49.273122592034035, 39.33657461082962], [49.24732506609892, 39.31069570524268], [49.23707115980612, 39.278957424245746], [49.23780358206969, 39.16950104413793], [49.22966556111684, 39.13865794560775], [49.21558678510206, 39.106350002550535], [49.21078535236212, 39.09076569218292], [49.207855665106834, 39.05540599239263], [49.203298373121456, 39.034125067717746], [49.19385826874408, 39.016343492358274], [49.118825717033125, 38.97532786718735], [49.07927493638924, 38.96332428668659], [49.05152428531755, 38.98102448149463], [49.05469811332732, 38.99274323141499], [49.05583743654844, 39.00751373896789], [49.0651961603745, 39.01512278948517], [49.11011803491939, 39.02195872611429], [49.12549889435852, 39.028143621930646], [49.138682487906465, 39.04344310171776], [49.14682050885945, 39.063421942069034], [49.14771569132615, 39.08344147314547], [49.13640384236342, 39.10228099207409], [49.116384311286915, 39.11029694264982], [49.06861412913875, 39.11139557514568], [49.06861412913875, 39.120306708188046], [49.062754753728946, 39.161322333358974], [49.05892988400693, 39.1727969425249], [49.04118899847354, 39.18439362206802], [49.022227410066904, 39.18821849268927], [48.9795028005138, 39.18707916946807], [48.96762129039028, 39.18382396000771], [48.96176191498037, 39.17584870015733], [48.95785566470713, 39.16567617441598], [48.94955488445028, 39.151271877095475], [48.94906660204207, 39.13532135649543], [48.94695071670223, 39.127508855948925], [48.93482506582413, 39.12441640849043], [48.93295332123874, 39.07770416901224], [48.93637129000307, 39.05312734595027], [48.95264733190881, 39.03164297124614], [48.94857832143243, 39.00722890838741], [48.92172285192807, 38.93545156523759], [48.898692253944326, 38.893052476090894], [48.8679305350662, 38.863836981391586], [48.831797722287135, 38.871161200429086], [48.832530143651226, 38.83563873953619], [48.83472741044165, 38.819281317079124], [48.839203320976516, 38.80353424740761], [48.863129102326226, 38.75665924682679], [48.87427836825212, 38.43406279176443], [48.80971276952867, 38.44463124583532], [48.77772505706573, 38.4448121138879], [48.7553491619343, 38.43522613587746], [48.735608765132426, 38.419568176430275], [48.71028731330884, 38.407114156093456], [48.683208862299225, 38.3980191044981], [48.65912764482496, 38.39264475505141], [48.607864624452816, 38.395977885371124], [48.57592858883335, 38.42036916120784], [48.54864343224866, 38.45625844387206], [48.495933471952135, 38.510311991305386], [48.47908695499892, 38.52475555482504], [48.46265384919576, 38.54493520119855], [48.44663415544193, 38.5564073705038], [48.43371504711172, 38.56997243308137], [48.42673872900912, 38.596456603989104], [48.415266561502584, 38.618109030507355], [48.391753783909984, 38.618109030507355], [48.341059204318775, 38.59958302963315], [48.3103117271045, 38.600151470414055], [48.292224975801986, 38.613561503360664], [48.27651534041063, 38.63177744587239], [48.22804284709973, 38.66218902630251], [48.22618249512597, 38.67908721919986], [48.23031660932405, 38.69862091132601], [48.22297855601556, 38.721461894450876], [48.2103695069472, 38.72975596126854], [48.07797448723282, 38.7809414672749], [48.01296553533119, 38.82155914333974], [47.993121785741785, 38.85008453427383], [47.99074466983066, 38.891218974276214], [48.000046427900315, 38.902587788995255], [48.05244632983429, 38.92790924171813], [48.05534020968294, 38.93436879498384], [48.05513350410796, 38.94191355386743], [48.05854414879344, 38.94837310803252], [48.243184041710194, 38.97387542790864], [48.28437015765661, 38.99377085434148], [48.293671915726364, 39.00459706760059], [48.30142338018487, 39.01746449818806], [48.306280964794716, 39.0314688112367], [48.30679773053085, 39.04539560991945], [48.30147505702827, 39.0580304974095], [48.27129602149416, 39.1083116658507], [48.25625817877197, 39.119783834256566], [48.199104045015716, 39.13823232166431], [48.14215661593508, 39.18120127431932], [48.1177653400984, 39.20804718043302], [48.10432946783067, 39.234841411501975], [48.10618981980433, 39.26918040055499], [48.12458662946942, 39.29760243870159], [48.1535254324528, 39.31904815694686], [48.1872184654598, 39.33258738200209], [48.2498503014502, 39.34235422806516], [48.30245690895912, 39.36989776616894], [48.33894047082613, 39.378941142719555], [48.31671960442627, 39.41516632126876], [48.28860762644079, 39.445035299339594], [48.22008467616691, 39.49402455748733], [48.05203291868426, 39.650087383525914], [47.99074466983066, 39.69427073210859], [47.97141768417882, 39.70455434210921], [47.957258341499276, 39.707344869170356], [47.94568282030587, 39.693960674645396], [47.9352441824731, 39.68651926765009], [47.922945190867885, 39.68414215083963], [47.846877481710436, 39.6852790324015], [47.82310632349803, 39.68031809500408], [47.80377933784619, 39.66993113221597], [47.745281616053724, 39.62378407797281], [47.60699548385447, 39.56358103563636], [47.554078817083806, 39.52198150764047], [47.541159708753625, 39.515160217370145], [47.51873213677869, 39.51319651440759], [47.44876224747969, 39.49469635015641], [47.40690433796481, 39.47681630442893], [47.374244832832765, 39.45557729085928], [47.32453210427317, 39.40596791598657], [47.29135583520363, 39.37961293538867], [47.24970463036439, 39.36126780346633], [47.15007246946885, 39.33114044207771], [47.10222009288301, 39.308402812639635], [47.092504923663306, 39.29982452408254], [47.089094278977825, 39.28985097244448], [47.05292077637277, 39.24494415344995], [47.03607425941956, 39.20701365255797], [47.03090661644722, 39.199598083984405], [47.02046797681577, 39.189960429130494], [46.95375370347065, 39.1606598918405], [46.94160974149635, 39.15890289445303], [46.926623576516796, 39.16205515672012], [46.898718302307806, 39.17174448751808], [46.88300866691645, 39.17140858983454], [46.866162149963245, 39.16536244861811], [46.850969279408716, 39.155492248868214], [46.837378378409504, 39.14324493410644], [46.806010782671464, 39.10239471494414], [46.773764690488115, 39.085367329938364], [46.761620728513805, 39.070587871433105], [46.7448258884041, 39.04025380446952], [46.72839278170147, 39.02795481466296], [46.670411824745905, 39.00490712506379], [46.65217004381256, 38.99294403114213], [46.638837524332224, 38.979482320452725], [46.610673869503486, 38.934007060677295], [46.599201701097655, 38.91969268836695], [46.58535241678063, 38.907703756023544], [46.56984948696429, 38.897730204385404], [46.55372644042284, 38.88982371029597], [46.532074015703245, 38.883002420924996], [46.51403894034487, 38.88217559952426], [46.479312377664186, 38.939381409224644], [46.475074910678664, 38.95106028230617], [46.47409305874771, 38.96323008360146], [46.4757983801911, 38.97560658867311], [46.48148278800023, 38.99377085434148], [46.49460860190548, 39.0255260219084], [46.49750248175413, 39.05353464800563], [46.491921428531114, 39.08190500930866], [46.479312377664186, 39.11477122001578], [46.45512780740239, 39.129938253047925], [46.421848186444585, 39.14464019808673], [46.39626835130338, 39.164432272631295], [46.39528649937253, 39.1951797489463], [46.418334188072336, 39.211922913112], [46.45337080911553, 39.20840891653826], [46.51414229313231, 39.184431050952256], [46.526441283838146, 39.18582631493246], [46.572795043656335, 39.21150950106267], [46.5938273516509, 39.21212961958631], [46.60261234578313, 39.21548858742838], [46.59785811396082, 39.225074565438796], [46.5911401773773, 39.231069031610495], [46.54184086086709, 39.25905181928603], [46.51765629150466, 39.27884389293124], [46.50794112138561, 39.293571675492394], [46.502670126525175, 39.30948801735813], [46.495280395473856, 39.324009094344234], [46.47931237766409, 39.334241028400776], [46.40737878540266, 39.35914906817494], [46.374615927483084, 39.378837789032765], [46.36086999505423, 39.41025706071481], [46.37399580895938, 39.435991924587675], [46.405725138104636, 39.4511847942429], [46.47931237766409, 39.46188181629277], [46.491404662794984, 39.46642934254012], [46.49822595216601, 39.47376739494925], [46.49858768737189, 39.4831208298624], [46.4917147220568, 39.49366282138214], [46.49202478041922, 39.5101992799728], [46.50370365440019, 39.51846750926817], [46.518276408229625, 39.52544382737074], [46.52726810703746, 39.538156230125914], [46.52427087440137, 39.55464101187323], [46.5120235605389, 39.56756012020333], [46.495435425104795, 39.57593170228617], [46.47931237766409, 39.57867055340331], [46.41616377773609, 39.57401967436853], [46.39642338093432, 39.57665517269808], [46.381437215055506, 39.585026753881586], [46.35787276241804, 39.609676412136736], [46.34371341973853, 39.61861643500044], [46.30950362189465, 39.620528462918266], [46.24118737809507, 39.59350168965126], [46.20646081541429, 39.58792063552888], [46.18423994991376, 39.59324330723281], [46.169563842397466, 39.60409535801433], [46.14610274344687, 39.638460185489144], [46.13168501834891, 39.65215443927594], [46.11447676618982, 39.65964752221538], [46.07654626439864, 39.66812245708576], [46.04512699451523, 39.68755279642439], [46.006576375099606, 39.74791086839185], [45.97923954347025, 39.768478088393124], [45.91614261948629, 39.78315419501009], [45.861882364679445, 39.80454823821061], [45.81682051605399, 39.83917144810381], [45.76442061322068, 39.922060446632315], [45.74276818940046, 39.94050893134213], [45.71543135597232, 39.95089589502951], [45.611148315142636, 39.959164123425516], [45.57941898599738, 39.970171203838014], [45.576266723730285, 39.99389068610638], [45.63957035328919, 40.025413310575786], [45.803901407723785, 40.004484355368675], [45.87376794423527, 40.009755351128554], [45.88720381740227, 40.018436992473184], [45.89402510587396, 40.0290823376797], [45.9058073335416, 40.07507436139263], [45.909528035690336, 40.08267079711966], [45.9316972252468, 40.09755360931164], [45.95076582848019, 40.117190654225304], [45.96296146639863, 40.14168528284953], [45.98177168811291, 40.211913555466204], [45.97923954347014, 40.22359242854773], [45.95355635644077, 40.249585673040436], [45.93919030728685, 40.26028269509026], [45.924617553457324, 40.266173808474505], [45.90270674631931, 40.26514028059953], [45.881726115168114, 40.26043772382197], [45.8616756591044, 40.26126454702126], [45.818370808765806, 40.29779978483226], [45.58541345216913, 40.398723856920434], [45.526192260864164, 40.441046855328096], [45.485419556067704, 40.50528065997448], [45.46469730643558, 40.51571930050528], [45.45544722520933, 40.523625794594814], [45.450848022118564, 40.53437449258881], [45.448574259894144, 40.55649200440255], [45.44464685037187, 40.56636220325306], [45.427231893537055, 40.58295033868722], [45.40702640784243, 40.595094300661415], [45.387802774978134, 40.60951202396073], [45.37354008041042, 40.63271474229155], [45.37364343229859, 40.67529612221827], [45.3988098553905, 40.7089374801806], [45.43792891468765, 40.733380432860656], [45.55585453336001, 40.77658193041177], [45.58220951305862, 40.79937123759256], [45.60096805792954, 40.8405573535391], [45.59915938279928, 40.862674866252085], [45.5817961019086, 40.86965118435469], [45.55823164837187, 40.87094309644674], [45.537871134845005, 40.875904032944774], [45.52205814576681, 40.88815134770653], [45.479270060265044, 40.929905904433966], [45.45281172687966, 40.94639068618119], [45.428730509405504, 40.951196594847], [45.416431518699625, 40.96132517521667], [45.42521651193248, 40.9936746219862], [45.419118692973335, 41.017342428310386], [45.39152347802609, 41.01506866518675], [45.33535119620079, 40.99382965251646], [45.31256188991933, 40.996620179577604], [45.26874027474394, 41.01026275742035], [45.231264040985344, 41.00133606307943], [45.22085106744177, 40.99206109250483], [45.220474487007984, 40.97905019131327], [45.20993249548833, 40.96799143495677], [45.18678145310155, 40.97083363886134], [45.17716963666939, 40.99382965251641], [45.18378422046547, 40.99791208897176], [45.19184574418579, 40.99780873618423], [45.20578550800161, 41.00281442174641], [45.20864407704126, 41.01138962950333], [45.20517826366592, 41.024887187193876], [45.18967533384957, 41.037547913105676], [45.16921146753517, 41.04715973043723], [45.136551962403196, 41.07289459341079], [45.12001550291313, 41.07961252909494], [45.11712162306448, 41.06142242500492], [45.11102380410523, 41.04953684544903], [45.09169681845346, 41.05103546131752], [45.07004439283452, 41.06209421947264], [45.02999515844976, 41.0462812303945], [45.01573246298278, 41.023233541694594], [44.97945560669095, 41.03263865255179], [44.96694991041003, 41.04483429047013], [44.960697061819936, 41.059923808237194]]]}}]}