{"type": "FeatureCollection", "features": [{"id": "3", "type": "Feature", "properties": {"NAME_FULL": "Republic of Ziwa", "NAME_SHORT": "Ziwa", "CODE": null, "DEMONYM": "Ziwaans", "LANGUAGE": "English", "STATUS": "NOTIONAL", "REGION": "Africa"}, "geometry": {"type": "MultiPolygon", "coordinates": [[[[32.40758104224729, -2.342141581514623], [32.433779449561946, -2.2656069084603825], [32.43819491146898, -2.2770871094185186], [32.44643710702864, -2.2838574843425885], [32.454973666715425, -2.2832687560883524], [32.46174404163949, -2.2717885551301276], [32.467925688309236, -2.2717885551301276], [32.46498204703788, -2.3141769894371667], [32.47469606323331, -2.324479733886742], [32.50207192705653, -2.320947364361148], [32.498833921658054, -2.3124108046743697], [32.495890280386696, -2.2859180332325035], [32.51296339976034, -2.2879785821224186], [32.52385487246424, -2.2823856637069095], [32.53268579627822, -2.2838574843425885], [32.53680689405805, -2.3071122503859787], [32.531213975642544, -2.326540282776657], [32.520028138811526, -2.343319038023184], [32.51208030737899, -2.35892033676115], [32.51620140515882, -2.374815999626234], [32.51943941055729, -2.369517445337932], [32.523266144210005, -2.367456896448017], [32.51943941055729, -2.383058195185983], [32.50678175309059, -2.396598945034034], [32.49206354673407, -2.404252412339458], [32.481760802284406, -2.402191863449543], [32.47234115021619, -2.4119058796448822], [32.46262713402085, -2.4183818904417453], [32.45203002544415, -2.4204424393316604], [32.441138552740256, -2.4163213415518303], [32.43436817781618, -2.3995425863053033], [32.43201326479915, -2.379231461533271], [32.426420346383644, -2.362158342159626], [32.409935955264324, -2.35479923898132], [32.40758104224729, -2.342141581514623]]], [[[31.947195547413283, -2.2859180332325035], [31.951022281065995, -2.2770871094185186], [31.993116351245828, -2.2550097998836893], [32.00960074236524, -2.242940870671317], [32.02579076935744, -2.2335212186030073], [32.04404134523965, -2.2314606697130923], [32.044630073493884, -2.2426465065441104], [32.05022299190939, -2.2520661586123314], [32.056993366833375, -2.2450014195612322], [32.04845680714659, -2.2608970824263164], [32.04404134523965, -2.2791476583084336], [32.05022299190939, -2.2791476583084336], [32.05993700810473, -2.2653125443332645], [32.06759047541016, -2.2670787290960615], [32.071417209062865, -2.2779702017999615], [32.069945388427186, -2.2929827722836915], [32.05022299190939, -2.341258489133269], [32.03756533444278, -2.350972505328608], [32.020786579196255, -2.357742880252589], [32.00371345982261, -2.361275249778183], [31.98870088933888, -2.361275249778183], [31.98987834584744, -2.362452706286744], [31.986640340448965, -2.364513255176659], [31.97780941663498, -2.367456896448017], [31.974277047109386, -2.365690711685131], [31.975454503617947, -2.357742880252589], [31.971333405838116, -2.350089412947165], [31.969861585202437, -2.343613402150302], [31.966034851549725, -2.340964125006151], [31.95455465059159, -2.347440135803014], [31.960736297261334, -2.3347824783364057], [31.97486577536371, -2.3224191849968268], [31.985168519813286, -2.3088784351487757], [31.981341786160574, -2.2929827722836915], [31.97221649821947, -2.2897447668852156], [31.951022281065995, -2.2923940440293666], [31.947195547413283, -2.2859180332325035]]], [[[32.82498937451993, -1.9291487111489314], [32.841473765639336, -1.9309148959117284], [32.84647795580061, -1.9347416295644404], [32.851482145961796, -1.9432781892512185], [32.8679665370812, -1.9350359936915584], [32.879741102166456, -1.9270881622590164], [32.91153242789672, -1.8964742930373202], [32.92036335171061, -1.8950024724016412], [32.94302938949976, -1.9044221244698623], [32.94773921553383, -1.9094263146310464], [32.944795574262564, -1.9256163416233374], [32.935964650448575, -1.9368021784543554], [32.93154918854163, -1.9479880152853735], [32.94096884060985, -1.9632949498962216], [32.9924825628579, -1.9912595419736778], [33.02339079620672, -1.9806624333969847], [33.02721752985943, -1.9733033302186787], [33.03575408954621, -1.9733033302186787], [33.04693992637723, -1.9774244279985087], [33.097276192116716, -1.9653554987861366], [33.10522402354935, -1.9668273194217267], [33.10993384958341, -1.9812511616512207], [33.11758731688884, -1.9959693680078328], [33.12023659403299, -2.011276302618681], [33.100514197515196, -2.043361992475967], [33.10934512132918, -2.0513098239085092], [33.147023729601976, -2.059552019468258], [33.147023729601976, -2.066911122646564], [33.134660436262486, -2.0739758616976633], [33.14378572420359, -2.0878109756729213], [33.17351650104384, -2.1148924753690235], [33.178520691205115, -2.1172473883860565], [33.18617415851054, -2.1166586601317317], [33.186762886764775, -2.1319655947426686], [33.180875604222145, -2.148744349989107], [33.1764601423152, -2.1469781652263986], [33.16762921850121, -2.1475668934806347], [33.16350812072138, -2.154042904277498], [33.17351650104384, -2.169349838888346], [33.141725175313674, -2.166700561744195], [33.12053095816011, -2.152276719514701], [33.10228038227799, -2.1343205077597016], [33.07873125210748, -2.1216628502930046], [33.07461015432765, -2.1328486871240226], [33.06666232289502, -2.1393246979208858], [33.05577085019121, -2.1405021544294467], [33.04311319272451, -2.1352036001410557], [32.99601493238341, -2.0989968125038505], [32.97864744888265, -2.0936982582155483], [32.92860554727027, -2.0922264375798694], [32.90446768884553, -2.0854560626557994], [32.88268474343773, -2.0698547639178333], [32.87149890660671, -2.0663223943922393], [32.86207925453858, -2.0704434921720694], [32.85324833072459, -2.0719153128077483], [32.84471177103772, -2.059552019468258], [32.84500613516493, -2.050721095654273], [32.850304689453324, -2.04159580771317], [32.88739456947188, -2.003034107058932], [32.89710858566722, -1.9894933572108808], [32.899169134557134, -1.9774244279985087], [32.89181003137883, -1.9744807867271508], [32.851482145961796, -1.9700653248202027], [32.84647795580061, -1.9594682162434207], [32.831171021189675, -1.9432781892512185], [32.82498937451993, -1.9291487111489314]]], [[[32.995426204129174, -1.8193508917287549], [33.00926131810434, -1.8193508917287549], [33.005728948578835, -1.8052214136264677], [33.015737328901295, -1.8005115875924016], [33.050766660029936, -1.7996284952109587], [33.07225524131053, -1.7958017615582467], [33.08344107814155, -1.7955073974311286], [33.09168327370121, -1.7996284952109587], [33.0969818279896, -1.8078706907707076], [33.09757055624392, -1.8143467015675707], [33.09344945846401, -1.8167016145846038], [33.084912898777226, -1.8131692450590098], [33.07873125210748, -1.8131692450590098], [33.08138052925163, -1.8211170764915519], [33.09168327370121, -1.8367183752296068], [33.09080018131986, -1.849081668569097], [33.08815090417561, -1.853791494603163], [33.08373544226867, -1.856146407620285], [33.070489056547736, -1.869687157468336], [33.03722591018189, -1.8950024724016412], [33.03398790478341, -1.8911757387489292], [33.02339079620672, -1.8882320974775713], [33.00484585619739, -1.869687157468336], [32.99689802476485, -1.858795684764436], [33.00366839968892, -1.849081668569097], [33.00249094318036, -1.838190195865197], [32.995426204129174, -1.8193508917287549]]], [[[31.821499928417214, -2.817394190573763], [31.83828082037455, -2.7998777992043866], [31.8447568311715, -2.7863370493563355], [31.84210755402735, -2.7733850277625205], [31.82738934767074, -2.73099659345557], [31.830627353069126, -2.728052952184301], [31.824151342272263, -2.707447463285062], [31.826506255289296, -2.697144718835398], [31.832099173704805, -2.691257436292771], [31.847994836569978, -2.679777235334635], [31.858003216892435, -2.678011050571838], [31.86830596134201, -2.687430702640059], [31.874487608011755, -2.702443273123789], [31.872132694994722, -2.717455843607519], [31.888028357859806, -2.712451653446335], [31.906278933742012, -2.710685468683449], [31.9024522000893, -2.699793995979638], [31.899214194690824, -2.667708306122263], [31.899508558817942, -2.6559337410370087], [31.898036738182352, -2.6485746378587027], [31.893326912148197, -2.6409211705532787], [31.899508558817942, -2.6350338880106516], [31.904512748979215, -2.6347395238835336], [31.90657329786913, -2.6412155346803967], [31.906278933742012, -2.6559337410370087], [31.931888612802435, -2.6485746378587027], [31.938658987726505, -2.661821023579636], [31.937187167090826, -2.690079979784299], [31.95985320487998, -2.695672898199808], [31.96544612329549, -2.709802376302095], [31.96515175916837, -2.7298191369470093], [31.96838976456676, -2.7521908106090454], [31.980753057906337, -2.7657315604570964], [31.999003633788455, -2.7683808376013364], [32.01548802490787, -2.7601386420415874], [32.02284712808617, -2.741593702032352], [32.01902039443346, -2.732174049964131], [31.994882536008625, -2.710685468683449], [31.994882536008625, -2.676539229936248], [31.983696699177607, -2.667119577868027], [31.977220688380743, -2.6594661105626027], [31.971922134092353, -2.6373888010276847], [31.96544612329549, -2.6270860565781096], [31.957792655990065, -2.6185494968913314], [31.942485721379217, -2.6129565784757336], [31.935715346455147, -2.6079523883145495], [31.932182976929553, -2.6011820133904795], [31.93424352581947, -2.5944116384664984], [31.94101390074354, -2.5891130841781074], [31.948373003921844, -2.5882299917966645], [31.96838976456676, -2.5870525352881923], [31.973982682982268, -2.5876412635424284], [31.97780941663498, -2.5908792689409044], [31.982813606796253, -2.5908792689409044], [31.991938894737356, -2.5838145298897164], [31.99429380775439, -2.5793990679827683], [31.995176900135743, -2.5688019594059863], [31.98840652521176, -2.561442856227769], [31.992233258864474, -2.537010633675818], [31.991938894737356, -2.528768438116158], [31.98575724806752, -2.507868585089801], [31.99399944362727, -2.4907954657161557], [32.00724582934821, -2.4869687320634437], [32.0160767531621, -2.505219307945561], [32.02284712808617, -2.505219307945561], [32.02373022046753, -2.4866743679363257], [32.02961750301015, -2.4704843409440347], [32.03550478555278, -2.4831419984107317], [32.05846518746914, -2.509046041598273], [32.069945388427186, -2.524941704463357], [32.07494957858846, -2.515522052395225], [32.069945388427186, -2.505219307945561], [32.07789321985973, -2.502864394928528], [32.08672414367371, -2.503158759055646], [32.0955550674877, -2.506396764454122], [32.1043859913016, -2.511989682869631], [32.10173671415745, -2.521114970810645], [32.108212724954306, -2.530828987006073], [32.119398561785324, -2.536421905421582], [32.13205621925202, -2.53259517176887], [32.13853223004889, -2.552023204159548], [32.13823786592177, -2.560265399719208], [32.156782805931094, -2.550845747650987], [32.160903903710924, -2.535833177167257], [32.1623757243466, -2.520820606683527], [32.17356156117753, -2.511989682869631], [32.16679118625355, -2.4963883841316648], [32.129995670362106, -2.4698956126897986], [32.10791836082719, -2.4598872323673415], [32.1043859913016, -2.4542943139518325], [32.10232544241168, -2.4419310206122535], [32.09790998050473, -2.4357493739425085], [32.08878469256363, -2.4319226402897964], [32.077304491605496, -2.4295677272727634], [32.06788483953727, -2.4245635371114904], [32.06376374175744, -2.4127889720262363], [32.066413018901684, -2.385707472330134], [32.070534116681515, -2.375110363753352], [32.07759885573261, -2.367456896448017], [32.08201431763965, -2.369517445337932], [32.11910419765821, -2.370989265973522], [32.12293093131092, -2.381880738677422], [32.13293931163338, -2.3886511136014033], [32.14618569735431, -2.391006026618525], [32.159432083075245, -2.3883567494742852], [32.177388294830244, -2.370400537719286], [32.20299797389075, -2.321536092615384], [32.22154291390008, -2.320947364361148], [32.22507528342558, -2.2891560386309795], [32.22389782691711, -2.2726716475115705], [32.213889446594564, -2.2623689030619953], [32.214183810721686, -2.2561872563921614], [32.21889363675584, -2.2508887021038593], [32.227724560569825, -2.2520661586123314], [32.23096256596821, -2.2564816205193683], [32.23714421263804, -2.2735547398930134], [32.24185403867211, -2.2791476583084336], [32.258632793918636, -2.2838574843425885], [32.27040735900389, -2.2806194789441125], [32.280710103453465, -2.2747321964014855], [32.29307339679305, -2.2717885551301276], [32.30985215203948, -2.2717885551301276], [32.328691456175925, -2.315648810072757], [32.33811110824415, -2.323302277378181], [32.36107151016042, -2.32889519579369], [32.35665604825347, -2.333605021827845], [32.34429275491398, -2.341258489133269], [32.34517584729534, -2.337726119607675], [32.33899420062559, -2.3347824783364057], [32.330163276811604, -2.33301629357352], [32.32398163014186, -2.333899385954963], [32.32015489648915, -2.353916146599877], [32.33811110824415, -2.378937097406064], [32.36107151016042, -2.4036636840851333], [32.35812786888915, -2.4163213415518303], [32.37137425461008, -2.4322170044169145], [32.39521774890771, -2.4366324663239514], [32.441138552740256, -2.4357493739425085], [32.433779449561946, -2.4566492269688656], [32.455562394969746, -2.4563548628417475], [32.475284791487546, -2.4628308736386106], [32.483232622920085, -2.4554717704603046], [32.49206354673407, -2.4557661345874227], [32.509431030234836, -2.4704843409440347], [32.517673225794496, -2.4598872323673415], [32.53798435056662, -2.4466408466464085], [32.543577268982034, -2.4357493739425085], [32.55064200803322, -2.4357493739425085], [32.55358564930458, -2.4504675802991205], [32.55299692105026, -2.4666576072913227], [32.54858145914331, -2.482258906029289], [32.54033926358365, -2.494916563495986], [32.522971780082884, -2.509634769852598], [32.51620140515882, -2.518171329539376], [32.50207192705653, -2.546135921616921], [32.524737964845684, -2.552906296540902], [32.549464551524665, -2.538482454311497], [32.62482176807043, -2.4672463355456475], [32.63041468648594, -2.4534112215703896], [32.63247523537586, -2.4325113685440325], [32.63512451252001, -2.4222086240944574], [32.65072581125797, -2.38894547772861], [32.65955673507196, -2.380408918041743], [32.665738381741704, -2.4016031351952183], [32.666327109996026, -2.4180875263146273], [32.66956511539441, -2.4339831891797115], [32.68398895762391, -2.4537055856975076], [32.69488043032772, -2.4734279822153926], [32.690170604293655, -2.489618009207595], [32.67986785984399, -2.504336215564207], [32.67339184904713, -2.518171329539376], [32.68722696302238, -2.511106590488188], [32.728437940820776, -2.484613819046322], [32.73461958749052, -2.491384193970392], [32.732264674473484, -2.498743297148698], [32.734913951617635, -2.519348786047937], [32.73461958749052, -2.53259517176887], [32.74668851670289, -2.522881155573442], [32.762289815440944, -2.499626389530052], [32.776419293543235, -2.491384193970392], [32.78789949450137, -2.495210927623104], [32.80526697800213, -2.4852025473006467], [32.81409790181603, -2.488146188571916], [32.828521744045524, -2.509340405725391], [32.83764703198663, -2.511989682869631], [32.83764703198663, -2.518171329539376], [32.830876657062554, -2.530240258751748], [32.82057391261298, -2.539365546692851], [32.81233171705332, -2.549962655269633], [32.810565532290525, -2.5664470463889533], [32.821457004994336, -2.563797769244802], [32.82911047229976, -2.567330138770396], [32.83411466246103, -2.5755723343300563], [32.83764703198663, -2.5870525352881923], [32.816158450706034, -2.5897018124323434], [32.81586408657891, -2.6038312905347194], [32.821457004994336, -2.6232593229253975], [32.817335907214506, -2.6423929911889577], [32.811742988799, -2.6391549857904817], [32.796730418315356, -2.6350338880106516], [32.80202897260366, -2.652695735638533], [32.810565532290525, -2.6688857626308238], [32.81763027134171, -2.664470300723787], [32.82557810277425, -2.665647757232348], [32.84471177103772, -2.676539229936248], [32.827049923409845, -2.692434892801332], [32.822928825630015, -2.705386914395147], [32.83411466246103, -2.714217838209043], [32.86207925453858, -2.717455843607519], [32.87297072724239, -2.728936044565655], [32.86590598819129, -2.7545457236260784], [32.84471177103772, -2.7931074242803167], [32.844417406910694, -2.8057650817470137], [32.8479497764362, -2.8166565544509137], [32.847361048181966, -2.8243100217563377], [32.78171784783162, -2.836673315095828], [32.74904342972001, -2.854629526850916], [32.72549429954942, -2.862577358283458], [32.72049010938823, -2.869642097334646], [32.728437940820776, -2.882594118928372], [32.74551106019442, -2.877295564639981], [32.764939092585095, -2.886126488453966], [32.796730418315356, -2.909969982751681], [32.796730418315356, -2.9167403576756623], [32.76964891861916, -2.9182121783113413], [32.762289815440944, -2.9282205586337984], [32.762584179568066, -2.9417613084818495], [32.75905181004247, -2.9538302376942216], [32.748749065592804, -2.9691371723050697], [32.74551106019442, -2.9850328351702426], [32.747865973211454, -3.0000454056539727], [32.75551944051688, -3.012114334866345], [32.76287854369518, -3.012114334866345], [32.770826375127726, -2.999456677399648], [32.80379515736645, -2.9706089929407486], [32.80938807578196, -2.9608949767454096], [32.82498937451993, -2.9229220043454074], [32.82204573324866, -2.909969982751681], [32.825283738647045, -2.888481401470999], [32.83234847769823, -2.86640409193617], [32.84117940151222, -2.85139152145244], [32.8606074339029, -2.8390282281129497], [32.87768055327654, -2.8319634890617618], [32.890926938997474, -2.8219551087393047], [32.899169134557134, -2.7998777992043866], [32.90682260186256, -2.7998777992043866], [32.90800005837103, -2.8246043858834557], [32.91771407456646, -2.84050004874854], [32.93390410155866, -2.851685885579558], [32.99159947047646, -2.878178657021424], [33.011321866994344, -2.883771575436933], [33.02339079620672, -2.882594118928372], [33.028100622240785, -2.876118108131509], [33.02927807874934, -2.868759004953203], [33.027806258113664, -2.861105537647779], [33.02339079620672, -2.854629526850916], [33.010144410485786, -2.845504238909813], [33.00043039429045, -2.846092967164049], [32.99189383460358, -2.849625336689643], [32.982474182535356, -2.848447880181082], [32.968639068560186, -2.8410887770028648], [32.968639068560186, -2.8204832881036257], [32.96010250887341, -2.8187171033408287], [32.92713372663468, -2.8204832881036257], [32.93567028632146, -2.8022327122214197], [32.948033579661036, -2.7936961525346415], [32.95480395458502, -2.7863370493563355], [32.94773921553383, -2.7725019353811664], [32.92036335171061, -2.7589611855331153], [32.9165366180579, -2.7533682671176063], [32.90682260186256, -2.73099659345557], [32.87944673803934, -2.704503822013704], [32.88091855867502, -2.690963072165653], [32.88827766185324, -2.687136338512941], [32.899169134557134, -2.690079979784299], [32.90947187900671, -2.679188507080399], [32.899169134557134, -2.66270411596099], [32.87620873264086, -2.645630996587345], [32.869732721844, -2.6344451597564156], [32.865022895809844, -2.6173720403827705], [32.86561162406408, -2.6014763775176863], [32.87620873264086, -2.5944116384664984], [32.877091825022305, -2.5867581711610743], [32.90064095519281, -2.554083753049463], [32.90682260186256, -2.549668291142426], [32.90152404757417, -2.53259517176887], [32.87797491740366, -2.507574220962683], [32.87267636311527, -2.494916563495986], [32.87473691200518, -2.4772547158681046], [32.881507286929256, -2.4672463355456475], [32.89239875963307, -2.4651857866556437], [32.90682260186256, -2.4704843409440347], [32.90299586820985, -2.4383986510866595], [32.92654499838036, -2.4092566025006423], [32.96275178601756, -2.3883567494742852], [32.99925293778188, -2.380408918041743], [33.08049743687028, -2.38894547772861], [33.11935350165164, -2.400131314559628], [33.119059137524516, -2.4163213415518303], [33.12700696895706, -2.4289789990184385], [33.138487169915194, -2.4525281291890355], [33.147023729601976, -2.4628308736386106], [33.16998413151825, -2.4690125203083557], [33.17410522929808, -2.4737223463425106], [33.17322213691672, -2.488146188571916], [33.18558543025621, -2.495210927623104], [33.20766273979113, -2.512872775250985], [33.2214978537663, -2.518171329539376], [33.23386114710588, -2.517876965412258], [33.28625796173529, -2.511106590488188], [33.31069018428724, -2.505219307945561], [33.32305347762673, -2.514344595886664], [33.329823852550795, -2.516699508903697], [33.33423931445775, -2.502275666674292], [33.33836041223758, -2.497565840640137], [33.34454205890732, -2.495505291750222], [33.351901162085625, -2.4984489330215798], [33.353372982721304, -2.504336215564207], [33.34748570017868, -2.522292427319206], [33.34483642303444, -2.524941704463357], [33.35719971637402, -2.531417715260309], [33.3730953792391, -2.53259517176887], [33.39281777575699, -2.528768438116158], [33.394289596392575, -2.544075372727006], [33.399882514808084, -2.552023204159548], [33.410479623384866, -2.554378117176581], [33.427552742758515, -2.552906296540902], [33.42078236783444, -2.539071182565733], [33.421959824343006, -2.532300807641663], [33.427552742758515, -2.524941704463357], [33.439916036098005, -2.531123351133191], [33.4508075088019, -2.527002253353361], [33.45875534023445, -2.516110780649461], [33.46169898150571, -2.5016869384200557], [33.45640042721741, -2.493739106987425], [33.42078236783444, -2.4772547158681046], [33.40753598211351, -2.4672463355456475], [33.41695563418173, -2.4672463355456475], [33.44256531324224, -2.4522337650619175], [33.46552571515843, -2.4442859336293754], [33.47582845960809, -2.4357493739425085], [33.49349030723597, -2.4484070314092055], [33.51527325264368, -2.4487013955363235], [33.52999145900029, -2.4401648358494565], [33.527047817728935, -2.4260353577471694], [33.514978888516566, -2.4183818904417453], [33.51144651899097, -2.4142607926619153], [33.50997469835538, -2.4054298688479303], [33.513801432008094, -2.3974820374153882], [33.52233799169487, -2.387179292965813], [33.53234637201733, -2.378642733278946], [33.540588567577075, -2.374815999626234], [33.55736732282352, -2.372166722482083], [33.59740084411343, -2.356565423744117], [33.612413414597164, -2.347440135803014], [33.63390199587776, -2.3188868154712328], [33.64862020223437, -2.3082897068945396], [33.667753870497926, -2.3132938970557237], [33.701900109245216, -2.2868011256138576], [33.71544085909327, -2.2791476583084336], [33.759889842290136, -2.2697280062402125], [33.77019258673971, -2.2606027182991983], [33.78049533118937, -2.2588365335364013], [33.83848506423429, -2.220569197009281], [33.836424515344376, -2.210560816686735], [33.82464995025912, -2.197314430965891], [33.82553304264047, -2.18789477889767], [33.83112596105598, -2.171999116032497], [33.8314203251831, -2.1625794639643647], [33.81581902644513, -2.1231346709286836], [33.786382613732, -2.0948757147240205], [33.749292733713354, -2.0857504267830063], [33.71220285369479, -2.1045897309193595], [33.66657641398937, -2.1375585131580888], [33.6421441914375, -2.1466838010991918], [33.62889780571657, -2.158164002057328], [33.60564303967318, -2.182890588736397], [33.5661982466375, -2.163168192218601], [33.50938597010106, -2.1531598118961437], [33.44933568816622, -2.1510992630062287], [33.400176878935206, -2.155809089040295], [33.37250665098487, -2.16611183348987], [33.35808280875537, -2.167583654125549], [33.351901162085625, -2.1590470944387707], [33.34748570017868, -2.1460950728449557], [33.33659422747478, -2.1357923283953806], [33.31069018428724, -2.1216628502930046], [33.28243122808257, -2.1110657417163115], [33.2594708261663, -2.1110657417163115], [33.2394540655213, -2.1216628502930046], [33.2214978537663, -2.1419739750651257], [33.213550022333756, -2.1301994099798716], [33.20766273979113, -2.1148924753690235], [33.208840196299604, -2.1042953667922415], [33.217671120113586, -2.0904602528170724], [33.2214978537663, -2.0798631442402904], [33.21708239185935, -2.0533703727984243], [33.21472747884232, -2.0533703727984243], [33.21884857662215, -2.042773264221731], [33.220909125512065, -2.04159580771317], [33.223264038529095, -2.044539448984528], [33.22826822869037, -2.045716905493089], [33.25623282076783, -2.047188726128679], [33.25623282076783, -2.045716905493089], [33.28095940744689, -2.05248728041707], [33.285963597608166, -2.056314014069782], [33.29273397253215, -2.045422541365882], [33.29243960840503, -2.031587427390713], [33.28478614109961, -2.018929769924016], [33.269773570615875, -2.011570666745799], [33.28154813570113, -2.000384829914781], [33.29685507031198, -2.011276302618681], [33.31039582016003, -2.030998699136477], [33.317754923338335, -2.045716905493089], [33.32452529826241, -2.045716905493089], [33.32423093413529, -2.016574856906983], [33.34042096112749, -2.018929769924016], [33.37957139003596, -2.0533703727984243], [33.38251503130732, -2.046011269620207], [33.386047400832915, -2.042773264221731], [33.400176878935206, -2.038946530569019], [33.372212286857746, -1.9980299168977478], [33.399882514808084, -1.9721258737101177], [33.43137947641122, -1.9812511616512207], [33.49643394850724, -2.025405780720968], [33.54264911646699, -2.025700144848086], [33.550596947899535, -2.028938150246562], [33.557072958696395, -2.014808672144186], [33.569141887908856, -2.0015622864233418], [33.573262985688686, -1.9871384441938478], [33.55795605107784, -1.9700653248202027], [33.54706457837394, -1.9753638791085937], [33.536761833924274, -1.9700653248202027], [33.54176602408555, -1.9682991400574057], [33.54412093710258, -1.9632949498962216], [33.50438177993987, -1.9535809337007937], [33.46169898150571, -1.9497542000480816], [33.4884861170747, -1.9323867165474073], [33.490252301837494, -1.9267937981318095], [33.482304470404955, -1.9156079613008803], [33.46081588912436, -1.9014784831985043], [33.45522297070885, -1.8935306517659622], [33.46169898150571, -1.8814617225535901], [33.44904132403911, -1.8796955377907931], [33.43785548720809, -1.8802842660450292], [33.430202019902666, -1.8849940920791841], [33.427552742758515, -1.8950024724016412], [33.39252341162978, -1.8970630212915562], [33.35278425446707, -1.9247332492418945], [33.31422255381274, -1.9444556457597795], [33.28301995633681, -1.9223783362248614], [33.31069018428724, -1.9055995809784232], [33.311278912541475, -1.8835222714435051], [33.32128729286393, -1.865860423815624], [33.33129567318639, -1.8373071034838429], [33.338066048110456, -1.8261212666528248], [33.36514754780656, -1.8043383212450248], [33.38840231384995, -1.7987454028296046], [33.44786386753054, -1.7996284952109587], [33.440504764352326, -1.8255325383985888], [33.4508075088019, -1.8373071034838429], [33.470824269446815, -1.840250744755112], [33.492607214854615, -1.839662016500876], [33.50526487232123, -1.8355409187210459], [33.527047817728935, -1.8131692450590098], [33.540882931704196, -1.8125805168047737], [33.5500082196453, -1.8096368755334158], [33.557072958696395, -1.8034552288636707], [33.56472642600182, -1.7925637561597707], [33.56884752378165, -1.7799060986931625], [33.56737570314597, -1.7654822564636667], [33.578267175849874, -1.7584175174125676], [33.5806220888669, -1.7610667945567187], [33.612413414597164, -1.7687202618621427], [33.61771196888555, -1.7754906367862144], [33.629486533970805, -1.7784342780574836], [33.64126109905606, -1.7751962726590964], [33.646559653344454, -1.7619498869380728], [33.60564303967318, -1.7304529253350225], [33.59887266474911, -1.7381063926404465], [33.589747376808006, -1.7230938221567165], [33.578267175849874, -1.7101418005629903], [33.55677859456928, -1.6963066865877323], [33.550596947899535, -1.6901250399179872], [33.543237844721226, -1.675406833561464], [33.549125127263856, -1.672168828162988], [33.58533191490106, -1.6759955618157], [33.68777063114284, -1.675406833561464], [33.695424098448264, -1.6736406487985782], [33.701900109245216, -1.6698139151458662], [33.7086704841692, -1.6600998989505271], [33.71131976131344, -1.648325333865273], [33.709259212423525, -1.636845132907137], [33.701900109245216, -1.6280142090932408], [33.69277482130411, -1.633018399254425], [33.684238261617246, -1.6339014916358678], [33.67629043018471, -1.6321353068730708], [33.667753870497926, -1.6280142090932408], [33.679234071456065, -1.6194776494063738], [33.68541571812581, -1.6177114646435768], [33.68777063114284, -1.6153565516265438], [33.68835935939717, -1.6041707147955258], [33.68688753876149, -1.5976947039986626], [33.67452424542191, -1.5803272204978995], [33.66274968033665, -1.5847426824048476], [33.653918756522756, -1.5841539541506116], [33.64832583810725, -1.5779723074807777], [33.646559653344454, -1.5661977423955236], [33.636845637149115, -1.5709075684296785], [33.62742598508089, -1.5726737531924755], [33.61918378952123, -1.5712019325567965], [33.612413414597164, -1.5661977423955236], [33.62654289269945, -1.5556006338188304], [33.657156761921144, -1.5550119055645943], [33.67128624002352, -1.5491246230218785], [33.68129462034598, -1.5349951449195913], [33.686004446380046, -1.5190994820545072], [33.68247207685454, -1.5087967376048432], [33.667753870497926, -1.5114460147490831], [33.6618665879553, -1.5008489061723012], [33.6527413000142, -1.492017982358405], [33.647442745725805, -1.482303966163066], [33.653918756522756, -1.4705294010778118], [33.66745950637081, -1.464347754407978], [33.68100025621886, -1.466408303297893], [33.701900109245216, -1.476711047747557], [33.71661831560174, -1.489074341087047], [33.725743603542846, -1.491134889976962], [33.73457452735683, -1.489074341087047], [33.74782091307776, -1.479360324891708], [33.755768744510306, -1.476711047747557], [33.77166440737539, -1.478182868383147], [33.78432206484209, -1.482009602035859], [33.79315298865598, -1.481715237908741], [33.79756845056302, -1.4705294010778118], [33.810226108029624, -1.482303966163066], [33.816702118826576, -1.49819962902815], [33.82464995025912, -1.5123291071304372], [33.841723069632764, -1.518216389673153], [33.87940167790556, -1.518216389673153], [33.91354791665285, -1.5320515036483222], [33.918257742687004, -1.5299909547584072], [33.92326193284819, -1.5252811287242523], [33.92767739475523, -1.518216389673153], [33.93297594904353, -1.5188051179273891], [33.94004068809472, -1.5243980363428982], [33.94475051412887, -1.5255754928513703], [33.95353578673791, -1.5225917129775262], [33.967612823467526, -1.5237164463581792], [33.98291574780902, -1.5330520887566905], [34.01022913565389, -1.5326997823238635], [34.01333870142374, -1.5339965862162224], [34.01715118016729, -1.538966845340937], [34.02313351495608, -1.5407551612983], [34.02930038679531, -1.539678786870578], [34.03223556723881, -1.537337603504561], [34.03509721763119, -1.5315096431733437], [34.04156050560712, -1.5280616472570934], [34.051023543728405, -1.5326467859191766], [34.05431709457539, -1.5319862464432603], [34.07486211891052, -1.5381753508443268], [34.095739733575414, -1.5367271648547103], [34.12306896169231, -1.5310541750222377], [34.13482003595735, -1.5310407538784858], [34.14073866123762, -1.515295008128568], [34.14126167612733, -1.5077376196624286], [34.149809270888206, -1.5068518823171821], [34.15415331148327, -1.5030609243531927], [34.15484325499066, -1.5001650657037828], [34.162417340002456, -1.4943763658827862], [34.17220339699246, -1.495249303035127], [34.17665900509093, -1.4925401396066], [34.18222380610186, -1.4932686019981638], [34.186970968066895, -1.4881769766269741], [34.196678223269224, -1.4864054927786512], [34.198324446173, -1.4846458513114484], [34.20544589275548, -1.4873160052724081], [34.20768800001711, -1.4872455552343382], [34.21035536136686, -1.4845314760432586], [34.211772496275124, -1.4862450036714918], [34.22219310655717, -1.4857513023871043], [34.2288734959067, -1.4777438724300467], [34.23538390400839, -1.4783159891103885], [34.24204102436167, -1.4742159114776925], [34.24937709557386, -1.4758865340839904], [34.254566990955226, -1.469489043321957], [34.25790250327961, -1.4718423300072985], [34.263137149716016, -1.4702458777226184], [34.27197635448326, -1.4741872097299584], [34.27847618297638, -1.471649046448185], [34.27963238665487, -1.4749964217173321], [34.28213507460872, -1.4766630567020194], [34.283686254831565, -1.4758116832107575], [34.28637828232191, -1.4784688846449328], [34.29176801293679, -1.475764703792624], [34.29071213313773, -1.4680367343543814], [34.293850267521194, -1.4680901856095367], [34.29574763214252, -1.4664366537436173], [34.295897851967545, -1.4698465752144045], [34.3004741448894, -1.4702031708056822], [34.30295837637961, -1.4677164476553521], [34.30595349041497, -1.4696558044959822], [34.307657084673345, -1.46780923190488], [34.31159427614557, -1.4683547015690728], [34.31476443718112, -1.466743905531363], [34.31656393505823, -1.47150864000891], [34.3215278797513, -1.4697435715819367], [34.32156461510348, -1.4713674041135754], [34.32456150287183, -1.4714800283667877], [34.326745445381064, -1.4736539473232817], [34.32799191273094, -1.4796052975090106], [34.32344262586443, -1.4876288026609323], [34.33001714057778, -1.4941969018004357], [34.328715675726784, -1.4958884461611959], [34.33000678598664, -1.4986698202318998], [34.329098409443944, -1.5013403472670532], [34.33201717013113, -1.4996499889881036], [34.33362249842916, -1.5027483771701249], [34.33634079161934, -1.5007091286822742], [34.337790530199726, -1.5035444922569567], [34.33587262573329, -1.5078248472922589], [34.33746521789783, -1.508867716355276], [34.34029801202048, -1.5083479942793225], [34.33969733888188, -1.5068641886768468], [34.34296169625189, -1.5047945744059525], [34.342820079695365, -1.5068727392538932], [34.34575926763604, -1.5083035297028573], [34.346624357562135, -1.511018413756691], [34.344165505431874, -1.5134015927203741], [34.34696899839854, -1.517851651956235], [34.346986940778564, -1.5158360554160737], [34.3508216660899, -1.5142882040983778], [34.350531240770195, -1.5107811805832299], [34.35273455404567, -1.512273035982357], [34.35393809904249, -1.5100602275728718], [34.35377420238109, -1.5078447180748782], [34.35175546819008, -1.5070078206347297], [34.353947571958805, -1.505348331100496], [34.349957066674015, -1.5022949690355318], [34.350705712509296, -1.500789320592098], [34.352760528061054, -1.5035423913845918], [34.35373564689233, -1.501174734888842], [34.355352238725175, -1.5021082644498733], [34.35864802961507, -1.5002090831357933], [34.35978571349737, -1.5031858387196877], [34.36107911881977, -1.5015684785602872], [34.36366836578931, -1.5026783179307373], [34.363860298172895, -1.5049606101987116], [34.36615448420018, -1.5045908344371455], [34.36541738533699, -1.5083938668910761], [34.362914302174204, -1.509181615722131], [34.36451885853061, -1.5123467084172653], [34.36715846059873, -1.5135412960101107], [34.36936750045075, -1.511615949616239], [34.36911174286311, -1.5092351509813788], [34.371363357809244, -1.5111042467308415], [34.372903493449066, -1.5105809970352695], [34.37192720230265, -1.5073008817781712], [34.37380521999281, -1.508351101178949], [34.37472996819598, -1.5067456455549504], [34.37609685118766, -1.5078739211574081], [34.38073045337902, -1.5061245294843744], [34.38027424248649, -1.498617766413755], [34.384897886138084, -1.5062156138804], [34.38683566693844, -1.503697043981898], [34.38932581506525, -1.50762845870873], [34.39333157705687, -1.505406792639306], [34.397635590850946, -1.5059521750293996], [34.39792522800903, -1.5073453054128088], [34.400113645193386, -1.5064460766146297], [34.40053500805337, -1.502812341542679], [34.404295228765854, -1.5031982534930748], [34.40397816689487, -1.501084675602769], [34.406999278841084, -1.500485415164519], [34.40513085332456, -1.4991106878750031], [34.407866998820424, -1.4966164869525826], [34.40789635020885, -1.4936616850264244], [34.41034486813451, -1.4932299307476065], [34.41301641759794, -1.49685555065777], [34.415453042106854, -1.496103021737703], [34.41492515896246, -1.498698667873331], [34.41755851593556, -1.4972929516500848], [34.419982924021404, -1.5001089855526821], [34.42465572314984, -1.4988513235938399], [34.42635344410566, -1.4998483904311115], [34.42986867543053, -1.495543664798003], [34.430850925803924, -1.4988174538958603], [34.43289069415077, -1.5000281475919124], [34.43853779620288, -1.49842021811941], [34.442937200608455, -1.4993967467030949], [34.44559372571493, -1.4963062760613859], [34.44936096407965, -1.495457958071043], [34.454984118806394, -1.4994886983037397], [34.456818324459, -1.4968965874135414], [34.46046888713071, -1.4960610027566972], [34.462217968370375, -1.4931707322251668], [34.46486170182582, -1.4948367663034183], [34.4662811550494, -1.4919704975813168], [34.46896074282649, -1.4948695732425392], [34.47350525151879, -1.4935316221734922], [34.473416559858634, -1.5012404856341348], [34.48016051553751, -1.49881325430745], [34.48107733968283, -1.5026781275234917], [34.48358746655461, -1.5014583066557101], [34.48337294859983, -1.499079098777088], [34.48662668746306, -1.495887245225667], [34.48984080650473, -1.497098824047736], [34.49474399990518, -1.495163918744911], [34.496215688778705, -1.49878498848852], [34.492814397879464, -1.4993503817538816], [34.49639774811689, -1.5020945302724336], [34.500598299924874, -1.502255246635496], [34.501703408687774, -1.5000801658698641], [34.5090960254737, -1.498243184219426], [34.50989806680767, -1.5028470281494215], [34.513188088926945, -1.4995850694079031], [34.51632083054968, -1.5015825000986176], [34.521155543317946, -1.500592088753237], [34.52370721408303, -1.5035989071487492], [34.53061723968656, -1.5054503641452648], [34.53329553687158, -1.5084208476686882], [34.53639036617179, -1.507237074759658], [34.54135457949957, -1.5081265020278494], [34.54589601988812, -1.5051203884036894], [34.54908146464231, -1.5069717825684208], [34.55123291733387, -1.5121894486764802], [34.556094546454126, -1.505686214619704], [34.559800255148694, -1.513954260859272], [34.56424155474665, -1.518073080020475], [34.56486063412357, -1.521740717000906], [34.56207490094468, -1.524060884481802], [34.5572406685375, -1.5229246981246263], [34.55909170277512, -1.5273547149080784], [34.55444054919799, -1.5327130252814385], [34.5536348507114, -1.5392014388410296], [34.55441172399621, -1.5566717005591961], [34.54729552038121, -1.5599244440733777], [34.54572419974245, -1.562515759807635], [34.54725613139803, -1.5669862963799446], [34.54634147913112, -1.5686429496618786], [34.5379095191337, -1.5714700888497006], [34.53665136908076, -1.5757460005774142], [34.5408897810291, -1.5875344840125187], [34.546794765301144, -1.5921780064204398], [34.54986562819223, -1.5926284154101893], [34.5554066055394, -1.5871284098759801], [34.56272913060766, -1.5868471766767627], [34.55633910766399, -1.5820219859826494], [34.556562151582966, -1.579544636071482], [34.56009924489241, -1.5798965896014465], [34.56667104730205, -1.57255657009636], [34.57497402106143, -1.5733748422184206], [34.57040013643589, -1.5806192059550455], [34.57083405304947, -1.582603161865002], [34.57661743832326, -1.5910758530903273], [34.58360959673784, -1.5926360277148426], [34.57869295722063, -1.6010105117172806], [34.58822530661206, -1.6079592387183688], [34.59447623742094, -1.601674746640878], [34.59963103840647, -1.6007008434587782], [34.60135109438696, -1.598544221505847], [34.60490646249124, -1.5978669585253051], [34.60840951504665, -1.5998474098738207], [34.61229011375498, -1.5980514962555574], [34.62638987290206, -1.5986023147107602], [34.63300850448335, -1.5946990500973683], [34.63440852930849, -1.5891481478349938], [34.641866507183934, -1.5916389184388962], [34.642182378596694, -1.5845341976517417], [34.64575793652901, -1.5792195711320716], [34.643766176908926, -1.5734061499730316], [34.64482201612534, -1.5710882035002243], [34.650963009401366, -1.5724461068602906], [34.65697151330201, -1.566944233893384], [34.660003010203695, -1.5607074525870495], [34.66277229549775, -1.5594863780552508], [34.67633040107093, -1.563133944504667], [34.683547317901116, -1.557558666408763], [34.68798509077527, -1.5577975023649309], [34.69524345050755, -1.563832777405814], [34.69729166457772, -1.5684696974310057], [34.705103278519374, -1.5693189970798365], [34.70723698721888, -1.568031885755559], [34.71572856839896, -1.5714176517449978], [34.72377525836468, -1.5676416458636915], [34.73169439791662, -1.5665465356818657], [34.73463571789158, -1.5609587375535732], [34.73992922020273, -1.5606601711376271], [34.74258624331164, -1.5624703155911561], [34.743815358201154, -1.5681329904948065], [34.74868594830252, -1.5703222416012501], [34.75210346511358, -1.5744377768307487], [34.75767068797691, -1.57501569313445], [34.75934108783481, -1.578113567017823], [34.767077159759914, -1.5778023382126953], [34.77211441686717, -1.5800858420445856], [34.776684638953455, -1.5780787311528748], [34.78530565636114, -1.5793397648865763], [34.78827177435893, -1.57683250582674], [34.79263143782224, -1.5761745026377376], [34.79103223161567, -1.569451673382492], [34.794610196803795, -1.5668428453758914], [34.797525088354504, -1.5686018828937591], [34.797640460420894, -1.5736016934608337], [34.80015105656716, -1.5739432770704092], [34.80870308431819, -1.5698983682040684], [34.81056103279175, -1.573417413706089], [34.81889829896759, -1.5777994582638826], [34.82403987485246, -1.570958494089723], [34.83301353408202, -1.5740657465158385], [34.8376066104959, -1.5739560278898317], [34.84626556775635, -1.5623818216905043], [34.849073215576716, -1.5609675635778402], [34.849042609629784, -1.555645459865616], [34.85404794925718, -1.551860308708573], [34.85965351086762, -1.5582945271396014], [34.868112935354844, -1.5547081927034228], [34.89409057336684, -1.5662378571581463], [34.89743462635576, -1.5637329384346792], [34.900929935422916, -1.565458710908672], [34.90458808832511, -1.5640674085991328], [34.908736329830965, -1.5668986329678596], [34.912938247034305, -1.5650670174187624], [34.91912918651679, -1.5656690260050325], [34.92388722505365, -1.5706299256943872], [34.9271783041596, -1.5697627718761247], [34.930621673250435, -1.5715437217825183], [34.93641003223403, -1.5813375799501799], [34.94014429948394, -1.5817749123601104], [34.95063568545938, -1.577973454823443], [34.95846962027543, -1.5707025278421476], [34.96495193547454, -1.5719511923672584], [34.97215983193556, -1.576059880216583], [34.98730358192788, -1.5650164019473927], [34.995170859300025, -1.5623834984017186], [34.99900551866216, -1.5647942823921994], [35.00553612513447, -1.5632926864328915], [35.009844890712756, -1.5585010293010164], [35.01343383755416, -1.5590805616184404], [35.016258949819886, -1.5537697301940305], [35.02021147377193, -1.552968591202351], [35.020005102250906, -1.5555867129439775], [35.02307361639386, -1.5585076875333819], [35.02770800035063, -1.5596057767238918], [35.02596733122943, -1.5568038175107084], [35.029436815904454, -1.5556627346408263], [35.032590109375946, -1.5575297593163988], [35.03312882041972, -1.5602806059453727], [35.0411456592207, -1.5609144802926949], [35.04269876175297, -1.5639978742023146], [35.04540930734699, -1.5647926712941889], [35.045003677096716, -1.5684042156983473], [35.04880216520406, -1.5675726603825417], [35.0521957628164, -1.5703139903268308], [36.02705667644753, -1.7834926239013615], [36.02738579635681, -1.788746040307787], [36.02293547097944, -1.789387902267725], [36.02258669258732, -1.7918839491395833], [36.017992225249, -1.7947286479675473], [36.01606914487122, -1.797148392610337], [36.015986757701064, -1.8014824844043265], [36.02250670949606, -1.800690473013189], [36.02791758349203, -1.8041435458189259], [36.029807494765905, -1.815018450086603], [36.02782513337797, -1.817088115472254], [36.0285691835987, -1.8235476932358718], [36.03570288917056, -1.8189407452215978], [36.038257332370456, -1.8188994344640275], [36.03954713855622, -1.8229154535569503], [36.043265595875525, -1.8245105218730462], [36.04305538283406, -1.826654181396714], [36.0405585369847, -1.8285570114677352], [36.04876841465173, -1.836024304293149], [36.047170946756964, -1.84280431239503], [36.049872530544576, -1.8519579510865025], [36.04809983744169, -1.8595052898900288], [36.05132025568612, -1.865392782468911], [36.04469801995177, -1.8740878491442015], [36.041188548465904, -1.872287973515041], [36.03667248529928, -1.873423675774566], [36.036789900880535, -1.8866880382342632], [36.0349035211411, -1.8897338586707502], [36.03346334553273, -1.8897192162045773], [36.03286187105291, -1.8866916616112395], [36.03095501290668, -1.8856728154011737], [36.025827398597706, -1.8890808362128642], [36.03106506785397, -1.8959077073420705], [36.03183934954349, -1.9013010043536394], [36.03985797825403, -1.9052256506415954], [36.04327331999092, -1.9044124895888803], [36.042332506360715, -1.9091207080878636], [36.03304137286588, -1.912949784015039], [36.03693945043052, -1.9129061907834366], [36.03666378147495, -1.9232864425808405], [36.03990764088057, -1.9254634549269678], [36.042417238182985, -1.936066126042535], [36.03869335384165, -1.945927570365269], [36.041126845790046, -1.9574912045880577], [36.03841859930555, -1.965483069032592], [36.03946628950379, -1.9716145160983078], [36.036452799275594, -1.9791583243244926], [36.035569503963146, -1.9992625037071665], [36.03362515851832, -1.998205620650717], [36.031744240952975, -1.9992884427853408], [36.034486555922214, -2.003102146135438], [36.0311268721981, -2.008562530112501], [36.02853039570296, -2.007206058401456], [36.02750211501561, -2.0192946826083524], [36.0243239560143, -2.0172498334257494], [36.02128723459189, -2.02530786108448], [36.0225491615978, -2.035323581136561], [36.026679098409005, -2.0372561446986293], [36.040659035855256, -2.086500211999498], [36.04874484218855, -2.179462245807118], [36.04273252304698, -2.322643681915215], [36.02218437393124, -2.3931278647058907], [35.99405058332455, -2.4813967836067707], [35.947806662920556, -2.5546878954259444], [35.92839436154219, -2.5955662429288484], [35.90457235739582, -2.638678478264156], [35.84935947741049, -2.778762876311225], [35.791032103395544, -2.886795002576159], [35.73685105208622, -3.0247118647885873], [35.722376915756826, -3.0578329261989], [35.70398138594869, -3.082307747707569], [35.67010739191812, -3.1067969858128652], [35.566645589309516, -3.2140392732199263], [35.53099868928716, -3.229111737679391], [35.488728028773416, -3.2339186902329065], [35.427861616518726, -3.2475142880744823], [35.405577997487654, -3.2596998863477555], [35.38265467252418, -3.2814115760409823], [35.361958695331374, -3.319104651718474], [35.31894284662994, -3.37621209014638], [35.285714445334555, -3.420122894732236], [35.20001471830537, -3.522972456164508], [35.13317538002135, -3.581412980642762], [35.03623029811181, -3.6523291422898563], [34.89077096168956, -3.737030674310704], [34.88671135092379, -3.742722601088344], [34.80791624980047, -3.7850498945751543], [34.796773335135896, -3.7923859866779264], [34.79529348699791, -3.7910288882444743], [34.7929069129144, -3.794262571774487], [34.78832928388532, -3.796587330193235], [34.7758246374486, -3.7993018123031685], [34.75970601460806, -3.8093554005234953], [34.75017253020881, -3.8078163265732545], [34.74454980910472, -3.8032922992985885], [34.735398449858764, -3.81104538652024], [34.7305521003408, -3.8120397353641255], [34.72631817982964, -3.8152830308364027], [34.72523285592076, -3.814393581967712], [34.72318475244479, -3.8173717742424618], [34.718960814934896, -3.8169312374308095], [34.71238275724816, -3.820199170625971], [34.71036928215963, -3.8260023933937237], [34.71161484980386, -3.8333072010277025], [34.7094565797681, -3.834902315552613], [34.709987355489524, -3.8388495019870295], [34.717229952759084, -3.84112807288699], [34.71399742923459, -3.847375808369291], [34.70898924385396, -3.845574934384244], [34.703216285556245, -3.8519745684599815], [34.698916675518106, -3.8495526675725866], [34.696999213886414, -3.8505495491486297], [34.69738067691682, -3.8565137062460675], [34.678786998054456, -3.8683124534748092], [34.67917309417317, -3.871123069583726], [34.67495006613977, -3.8723168270802244], [34.664569595147306, -3.8698360832461365], [34.659728036745115, -3.86383148368723], [34.654384336647766, -3.86098214514754], [34.64772133003216, -3.860168433652289], [34.645526998093345, -3.8653210873237587], [34.64312144956239, -3.8657983162664333], [34.64402570432768, -3.8710463759343394], [34.63936098979864, -3.882087550889901], [34.64009158423372, -3.885422405124528], [34.63262202736584, -3.8944635451552134], [34.631901225032465, -3.897311231571843], [34.63341962298038, -3.9020210376077724], [34.630557196314456, -3.9044504484486264], [34.62774716505575, -3.904318627767589], [34.62722261208669, -3.9080203982139405], [34.623030531988526, -3.9132148957060853], [34.62048456584111, -3.9113138348028986], [34.6205991144756, -3.9128438808844646], [34.616185754799666, -3.9117299714305442], [34.60554173182882, -3.9187980010708667], [34.6024410163615, -3.9252262609938082], [34.59911497457711, -3.923765384079525], [34.58611164453239, -3.926028823709382], [34.58071878491112, -3.9225242679116423], [34.5760307556196, -3.915892520735076], [34.57346872403982, -3.9161558797147666], [34.571698766745584, -3.91275352185807], [34.5602895302375, -3.913290105024325], [34.55800016472726, -3.9151930205189256], [34.55331967689404, -3.913343943227021], [34.549974749370634, -3.914170283147689], [34.54550405831079, -3.9188808608823233], [34.541246352894824, -3.9192792399667997], [34.539488393653, -3.9170429257610717], [34.53487659544852, -3.920911654661241], [34.527517564508436, -3.920598043363599], [34.52101032479878, -3.9222370425976205], [34.51901758528485, -3.9261921138702416], [34.52039263069385, -3.9313604471788555], [34.513252796833534, -3.9361779620928683], [34.50778464171159, -3.9320794785981494], [34.50113315017226, -3.932056877840173], [34.49611953182946, -3.9352081608171385], [34.49210059301012, -3.9333208132798614], [34.48780657467544, -3.9342258636740457], [34.48292743626969, -3.933002118030293], [34.47850878394068, -3.9363429099099623], [34.47432050635869, -3.9357068233214054], [34.46889773887279, -3.9426886465998567], [34.4659097390987, -3.9419455843189066], [34.45816015773123, -3.943929123318979], [34.45522081185378, -3.9487293981422145], [34.450386462902046, -3.945730839980355], [34.44728568769194, -3.9485145435271374], [34.44405818833705, -3.947835373361608], [34.44304005019606, -3.951264111356023], [34.43455633964075, -3.952984060074316], [34.42873756560819, -3.9624010525697972], [34.425633878724426, -3.9645498234953447], [34.42471556868175, -3.9678541276929824], [34.40611582151743, -3.976362402762801], [34.40237454952496, -3.9826738976886045], [34.39688323186677, -3.987292116222152], [34.393521623367384, -3.9943034655069543], [34.38650430981412, -3.998238428405143], [34.38650136138826, -4.008201319956184], [34.389871359562115, -4.017954041186078], [34.39185885735637, -4.03532506990083], [34.390626823616095, -4.041769270391393], [34.36713574716813, -4.048740889555402], [34.36023784330776, -4.0534882154041], [34.35216682628593, -4.056286286117361], [34.330563151453674, -4.0761881013330115], [34.31999339986192, -4.08331481303299], [34.29978475931979, -4.086216460686343], [34.27745211560219, -4.0864767073539365], [34.23589450418803, -4.082751560396014], [34.22516485932655, -4.078988461891919], [34.217904789155014, -4.078514187987503], [34.20657967514185, -4.0804628703722035], [34.201991997163105, -4.075618925179958], [34.19362103719195, -4.075028670052427], [34.183059085745, -4.0765828282558925], [34.175925534789904, -4.079906706031933], [34.16684952530745, -4.077043041310846], [34.15228255882941, -4.06669731790239], [34.139498128188535, -4.060593527283851], [34.13319707729433, -4.054714247655999], [34.124717464256015, -4.055668380052468], [34.12138318172194, -4.0538554581760256], [34.11388133929166, -4.043140493636033], [34.10866122730934, -4.04175516578138], [34.10369702641774, -4.035961369063168], [34.09868482855743, -4.033570789419594], [34.091692906256384, -4.026734460195458], [34.0853106524266, -4.026394016716184], [34.07333841358043, -4.033516101260881], [34.06597455250236, -4.03311731391871], [34.054051104195445, -4.038568391305786], [34.041472623753776, -4.040700630713756], [34.02609231261656, -4.034908191069375], [34.02422157275425, -4.032341834068598], [34.01555571515403, -4.027883840563495], [34.00587642962468, -4.027707117077961], [34.00245182672777, -4.025235842982022], [33.98716918768888, -4.023116000606164], [33.968207315142614, -4.009083205773445], [33.95160608396922, -3.999388129312864], [33.94908462440328, -3.9943475439707665], [33.94849877884703, -3.984851934984812], [33.94601613604654, -3.980725252793116], [33.94732156166978, -3.9791272612907047], [33.94390238038146, -3.9787624990702763], [33.94412211542318, -3.9770455124815474], [33.94206179555895, -3.9790377775272834], [33.94121112990317, -3.97638510744458], [33.93876420769325, -3.978488776088307], [33.93716449099831, -3.976764486097162], [33.93765764281583, -3.9744367183373708], [33.93503010341422, -3.9730069293750336], [33.93705028598478, -3.9708796333842944], [33.93445581263848, -3.9704381243927944], [33.93651229312216, -3.968357204987738], [33.93270024682736, -3.967679153289394], [33.93007080802538, -3.964857319163917], [33.93031667385512, -3.962905244413095], [33.92698259386454, -3.9633864159336785], [33.9270254190594, -3.960720541613094], [33.92561258724137, -3.9609969891376995], [33.92405722371442, -3.965061748780885], [33.92023584424973, -3.9613293512489545], [33.91751898847862, -3.9647213756736743], [33.91547528047428, -3.9642723270071567], [33.91575785347235, -3.9617624044378186], [33.913700492071904, -3.963974210656085], [33.91276105742432, -3.96216859437879], [33.910117654186685, -3.964401423969255], [33.91081181406879, -3.9615924567077965], [33.90842673147834, -3.9609478670335374], [33.906909760017896, -3.9624844867538034], [33.905504601739985, -3.959504346304632], [33.903795168303674, -3.9641285150255445], [33.89771868995198, -3.964057743693905], [33.89689168446087, -3.9612096784074513], [33.89371326337002, -3.9622469831338325], [33.894886710107215, -3.960957787064112], [33.8937347843606, -3.958427059057046], [33.89120353402345, -3.9573158940207964], [33.88666389489262, -3.958301734934766], [33.88381303226843, -3.9540472370180435], [33.88107529365546, -3.9547064476240568], [33.87806292338596, -3.9593991167898412], [33.8730248280605, -3.9563816402377494], [33.86715187318946, -3.95522548253493], [33.86659283877603, -3.952885420347352], [33.86160213770247, -3.953002282143858], [33.86109276717307, -3.9512231997445024], [33.85828549051713, -3.9529566425034357], [33.85222473563819, -3.9521439516920776], [33.84692093864175, -3.9556486216259845], [33.84498716208785, -3.954331392653332], [33.84573354499772, -3.957418403649582], [33.84107206388168, -3.9614486484503164], [33.838874791010916, -3.960420471967696], [33.839043046836544, -3.9581043896532275], [33.83034302714326, -3.9564131559627125], [33.83136606649285, -3.9537769651242893], [33.829475793360515, -3.951027867574508], [33.828651483901425, -3.95386494914578], [33.822739299907674, -3.955282727302434], [33.82140087224262, -3.9536779993382343], [33.818606770667, -3.954521238429587], [33.81789184401428, -3.949855369890054], [33.81045514160493, -3.9536496190732517], [33.8113344937213, -3.9504430238749944], [33.8026827813053, -3.9503555558358716], [33.79926549904156, -3.9556782322311523], [33.7922615505681, -3.947405968250406], [33.788218757542595, -3.947104519151212], [33.78492399997307, -3.9449350376303816], [33.786732967797846, -3.9408367795023214], [33.78298626467658, -3.9383895324173412], [33.778896690227185, -3.9423645705730426], [33.77742452539244, -3.939066965246907], [33.775422882830604, -3.940237920545764], [33.77262941390456, -3.938816491371311], [33.772049090888075, -3.9360940979298764], [33.76704734501025, -3.9379925493607804], [33.76618195897763, -3.936670563206901], [33.764594072519046, -3.9373932377182452], [33.764742272054804, -3.93393406164253], [33.76147256139311, -3.933643880986404], [33.761529440307044, -3.9314049411846685], [33.75869100892547, -3.9324040052697296], [33.7559388201278, -3.929949118881604], [33.736532633759715, -3.942528469265083], [33.725064757379386, -3.945722100136395], [33.71535727197302, -3.9422726676054953], [33.679718963887424, -3.939806136306112], [33.675453847198796, -3.9360873111946137], [33.66738680671509, -3.9350750660825273], [33.66117179256972, -3.929860097446136], [33.65658863640154, -3.929736260286232], [33.65376397235665, -3.9256442291172977], [33.64804490985441, -3.9218699090511233], [33.65078534789526, -3.921009563425626], [33.6544364932955, -3.9162734787232534], [33.65571776215265, -3.9110422359373676], [33.65883112963833, -3.9098229331803847], [33.6592266389511, -3.905371174224337], [33.6626413803165, -3.902640189273976], [33.661841261291244, -3.8995822824199333], [33.65759348146558, -3.900208330926924], [33.65434931525365, -3.8949718499404984], [33.65020578303294, -3.8947357211738254], [33.64707112721331, -3.8902819211469986], [33.63950879163556, -3.889800239894159], [33.63743879768944, -3.886232987944238], [33.63347678214411, -3.8847453938740006], [33.61876887708767, -3.882063131189062], [33.6196665611098, -3.886005904038159], [33.61841681326095, -3.88714135819046], [33.61572697030511, -3.8838838281911148], [33.61261400666678, -3.885049127536755], [33.61187265532824, -3.8828558336037045], [33.60909256021075, -3.8842932561217847], [33.60703106596664, -3.8800666755826274], [33.603597808671466, -3.882520054337535], [33.60094818001463, -3.879144647161903], [33.59697350738458, -3.8815505944368223], [33.592034133070754, -3.879987011648689], [33.587400295250546, -3.882337154478188], [33.58541102011011, -3.881059244662355], [33.584866128935886, -3.883176715858161], [33.57885694794263, -3.885425019471045], [33.57826925311392, -3.887686775467225], [33.574152847945456, -3.8883731287056467], [33.57179117886179, -3.8866431479014363], [33.56904649270707, -3.8878726865629876], [33.561102644549486, -3.885371888203659], [33.56142472246618, -3.887372980440551], [33.55702655780278, -3.889714927444965], [33.5570415631608, -3.8921957727616974], [33.549342258301095, -3.8950297871582773], [33.55087203802177, -3.8982321517887275], [33.5430810080613, -3.898474307710176], [33.54189881197388, -3.8955054162208125], [33.53933624675723, -3.8948695719410065], [33.53713515050619, -3.898128309205573], [33.53602927644009, -3.895396561409248], [33.52677551125246, -3.899156133596149], [33.518776415820824, -3.908034002389149], [33.50440934012671, -3.907276771228796], [33.49554705039416, -3.9104735225893084], [33.46226752999658, -3.9032484931881495], [33.45886386818294, -3.9073540353756986], [33.454047842256706, -3.9094538299837556], [33.45243654526514, -3.913276422187506], [33.446330154393344, -3.9115268509673395], [33.4434462511176, -3.914172235591673], [33.436541469634314, -3.909903111956714], [33.436961369680695, -3.9066107968327213], [33.42938969206451, -3.904610245554929], [33.42641970570562, -3.900476941147657], [33.41932580487868, -3.8990987884897077], [33.41787093020915, -3.8941221093963474], [33.41572574803032, -3.893761911018556], [33.41626594357568, -3.8921780685758467], [33.413681724464446, -3.8894551754716122], [33.40658154449719, -3.8921171272470634], [33.402869404931764, -3.887413669694295], [33.40107515999265, -3.8892840363836445], [33.39696269135076, -3.8898131356032817], [33.39404252951575, -3.8946060549014394], [33.39064182472545, -3.892514291905824], [33.389784111593286, -3.8953422664647075], [33.3876939521189, -3.8959576929026074], [33.38621487026821, -3.8939911016075524], [33.38363619387668, -3.895031437673735], [33.38176374542937, -3.8926368461017713], [33.375453682629626, -3.8949990968009995], [33.37144126103616, -3.8930600017521133], [33.369052500222914, -3.8967147226516285], [33.36696659740178, -3.8957505189001207], [33.36032793434899, -3.8995566093654066], [33.35856882750453, -3.899094464425401], [33.35710921141218, -3.895904736349687], [33.354864825944304, -3.89552422304571], [33.34956292445704, -3.897934556425975], [33.350747515831365, -3.8998403965126105], [33.34402551187257, -3.9031246350349935], [33.345510358141624, -3.90138940757514], [33.33088597893124, -3.901894303816844], [33.31748451755417, -3.9108125600634036], [33.308725160505766, -3.9075658780749922], [33.30643096048523, -3.9083037691840072], [33.30531385145044, -3.91084667594197], [33.3021578221624, -3.9101840792811426], [33.29621044971703, -3.912858151997378], [33.293895844662565, -3.916116647121326], [33.289630334367544, -3.914975128589182], [33.288550155297976, -3.916459765643543], [33.286163221624506, -3.915427043139852], [33.282027492670096, -3.917426150880088], [33.277375934274474, -3.9142507432375684], [33.27574459809589, -3.9175176243082976], [33.268731022742955, -3.9185176413520484], [33.26895347736328, -3.922244558139232], [33.25391037549324, -3.9295351660602496], [33.253356480550174, -3.931743347581973], [33.245787489041064, -3.9362897966061627], [33.23913242733188, -3.9360089678088794], [33.23472543226754, -3.933650244954512], [33.23082776002738, -3.9338707668207906], [33.22967488572549, -3.9367167518393753], [33.22515106696518, -3.935915320039962], [33.223346237226366, -3.940008554543306], [33.22431985248492, -3.9430487179580975], [33.22322536198331, -3.9457742320056166], [33.22027941847559, -3.946949053944371], [33.21909003703568, -3.950415070531088], [33.22061498997321, -3.95226806240907], [33.217503893785334, -3.9591042112804953], [33.214285047119326, -3.957743407388792], [33.20409047668492, -3.9583607946768407], [33.20190005354445, -3.953165663279057], [33.19770173820072, -3.9528253730429785], [33.19587850988289, -3.9510889637101254], [33.18618770949505, -3.9600600523973295], [33.18152178398624, -3.959990140791847], [33.17088824370363, -3.965020316879153], [33.16275895068507, -3.963589838933279], [33.15734644072209, -3.964586917914348], [33.15389975932491, -3.961566025335328], [33.148826045083275, -3.9639056032679587], [33.14287623621138, -3.9639244788444383], [33.13255685403505, -3.959855865843531], [33.120656414312954, -3.964403464168198], [33.11087392128727, -3.9666993324039], [33.107744075666375, -3.9656753140150602], [33.10271078281489, -3.967644196499842], [33.0902782515695, -3.9665119398347937], [33.086773949963806, -3.968398495731984], [33.07060864033674, -3.9657065627574983], [33.06391461359529, -3.95871313479641], [33.057961585254965, -3.9567381687642733], [33.05447218437224, -3.9527549958054298], [33.05269864517274, -3.953429672466102], [33.041672489801684, -3.9473945733379256], [33.04224677575079, -3.9448733721406892], [33.0286566417569, -3.9395665695737936], [33.02301507243684, -3.918247949092768], [33.01866860760115, -3.915547836403954], [33.01346034367399, -3.908713583279644], [33.00940947201579, -3.9084417518235437], [32.98079194934492, -3.9095011018912995], [32.95183669271236, -3.9152714811416356], [32.93418536872875, -3.916586859634874], [32.92476351575449, -3.9216216468602294], [32.922083863494585, -3.9280524789781612], [32.907250401700516, -3.927106554879911], [32.87546145197969, -3.920436991757148], [32.85019222789832, -3.9182663110409965], [32.844139674880076, -3.923006178096111], [32.84393825984485, -3.927858035348608], [32.84027034150317, -3.930310256608882], [32.835836760683186, -3.937640389024244], [32.82430198386806, -3.9427157387765366], [32.81317920708463, -3.9525091592667483], [32.792861086886404, -3.955056107535837], [32.78049344670909, -3.9530152419889664], [32.75373112577072, -3.9534872500303297], [32.74287825812082, -3.9483928998734097], [32.7154010776595, -3.946777777117605], [32.685045338723036, -3.9256502269357174], [32.63027177136469, -3.8981375035200383], [32.5852781305148, -3.9033242013948755], [32.523153990054794, -3.8907254917635914], [32.49829714402211, -3.8725015867691948], [32.46634229087598, -3.868828378326894], [32.40290233337638, -3.837099301976865], [32.36717670099179, -3.8160559281657402], [32.3431477611397, -3.806416723713957], [32.336394711761336, -3.8014617991655175], [32.329123047605364, -3.7992955811555706], [32.32212243164359, -3.794828552157048], [32.30917593475056, -3.7913293618763166], [32.29937205765659, -3.781828285017985], [32.292761075977616, -3.7804594109089873], [32.29188291676107, -3.777258748465284], [32.28368806319893, -3.7773219982643713], [32.27944531367771, -3.771135701810069], [32.27643828110907, -3.7697227834269764], [32.27608642549243, -3.767192530805863], [32.26975934903723, -3.765479214041667], [32.26400068846261, -3.7608298910723814], [32.258514640864185, -3.761472044018488], [32.257169681975746, -3.7575237791259486], [32.25119418833052, -3.752226968361816], [32.246522111007636, -3.7521821863631732], [32.24248236699286, -3.7441594579677773], [32.236234730060616, -3.739861483565088], [32.228156059523634, -3.738539140010877], [32.225701310660526, -3.7356323216666265], [32.185918869502224, -3.733017632994917], [32.16743733124386, -3.7248125438389845], [32.16609310453312, -3.705856958634568], [32.17262762739939, -3.681445662227434], [32.175327797263805, -3.6485581126265654], [32.158377813329516, -3.63267268371108], [32.140727924588404, -3.6261822965355517], [32.111043616426834, -3.63063878332599], [32.090246533056906, -3.613777821364428], [32.06116090413876, -3.5838408455315385], [32.04711347672308, -3.5547069529304753], [32.04565446411412, -3.545857327619606], [32.047032714118735, -3.5436375133922393], [32.04640878149708, -3.5386038845020007], [32.03230851193873, -3.5168928881047723], [32.03067902266135, -3.5090272126421684], [32.01728258787703, -3.482959948793818], [32.009713735839725, -3.4742613166695246], [32.005632436942484, -3.4647410933842604], [32.00213172859084, -3.4421876335384294], [31.996125847812536, -3.4337111215583693], [31.996932405107177, -3.421663651068352], [31.995155966362095, -3.4118270121073824], [31.986218662657436, -3.3961120323393157], [31.984904091588103, -3.372623673600872], [31.961471426700346, -3.3470203937386866], [31.937930292943147, -3.300704618780914], [31.92630057544808, -3.2617084336071134], [31.91099764972219, -3.2251239948087207], [31.903111509483757, -3.181965107477458], [31.88692084193426, -3.125122815318049], [31.871399645366434, -3.0538100200814267], [31.86943340541167, -3.0400242357537355], [31.872475577591526, -3.019428819395076], [31.872816154571034, -2.9721706276908844], [31.86881437492391, -2.928110183107835], [31.86108267237558, -2.8928513583750703], [31.847398186327077, -2.856072220490935], [31.821499928417214, -2.817394190573763]]]]}}]}