{"type": "FeatureCollection", "features": [{"type": "Feature", "properties": {}, "geometry": {"type": "Polygon", "coordinates": [[[-175.3644561767578, -21.08770342499579], [-175.34934997558594, -21.159440158570835], [-175.28274536132815, -21.20425797769464], [-175.24497985839844, -21.21193966782641], [-175.2092742919922, -21.224101526391557], [-175.19004821777344, -21.256741557036623], [-175.1653289794922, -21.27017946818463], [-175.13099670410156, -21.283616152548714], [-175.10009765625, -21.267619960623986], [-175.09048461914062, -21.213219910659046], [-175.0678253173828, -21.185052004472823], [-175.03143310546878, -21.16904512040847], [-175.01976013183594, -21.147272978868727], [-175.05271911621094, -21.119092515431323], [-175.08636474609375, -21.110765444427525], [-175.12001037597656, -21.116530389515233], [-175.133056640625, -21.128700093455098], [-175.14129638671878, -21.115889851122223], [-175.14541625976562, -21.097953653592086], [-175.10147094726562, -21.098594269392088], [-175.08499145507812, -21.092187987040525], [-175.0884246826172, -21.079374593525323], [-175.1275634765625, -21.07168602715976], [-175.16738891601562, -21.081296672985992], [-175.16464233398438, -21.10115670495529], [-175.1708221435547, -21.1248571369368], [-175.20858764648438, -21.118451988100826], [-175.22369384765625, -21.106281443410655], [-175.25390625, -21.10692202327834], [-175.28274536132815, -21.11524930996377], [-175.32737731933594, -21.111406004942275], [-175.32806396484378, -21.088344085004383], [-175.31776428222656, -21.06912308335471], [-175.31982421875, -21.053103684072678], [-175.3314971923828, -21.05182205762915], [-175.3644561767578, -21.08770342499579]]]}}, {"type": "Feature", "properties": {}, "geometry": {"type": "Polygon", "coordinates": [[[-175.0664520263672, -21.093469265616505], [-175.05615234375, -21.10115670495529], [-175.02525329589844, -21.101797306936533], [-175.01014709472656, -21.086422096691315], [-174.99916076660156, -21.064637825420046], [-174.99778747558594, -21.046695441515006], [-175.00946044921875, -21.047336278183298], [-175.01220703125, -21.06335629831196], [-175.0238800048828, -21.079374593525323], [-175.03761291503906, -21.083218727590662], [-175.06027221679688, -21.082578045484325], [-175.0664520263672, -21.093469265616505]]]}}, {"type": "Feature", "properties": {}, "geometry": {"type": "Polygon", "coordinates": [[[-175.26763916015625, -21.04285036358773], [-175.26695251464847, -21.060152432245324], [-175.25802612304688, -21.06335629831196], [-175.24429321289062, -21.05246287223027], [-175.24703979492188, -21.03836431386586], [-175.26763916015625, -21.04285036358773]]]}}, {"type": "Feature", "properties": {}, "geometry": {"type": "Polygon", "coordinates": [[[-174.9964141845703, -21.112687117676742], [-174.9895477294922, -21.125497636606266], [-174.979248046875, -21.129981056827386], [-174.96688842773438, -21.122295110595505], [-174.97100830078125, -21.11204656269204], [-174.98199462890625, -21.105000275382054], [-174.9964141845703, -21.112687117676742]]]}}, {"type": "Feature", "properties": {}, "geometry": {"type": "Polygon", "coordinates": [[[-174.98199462890625, -21.366128833627354], [-174.979248046875, -21.401933838235177], [-174.9565887451172, -21.43133853375149], [-174.90989685058594, -21.468405577312], [-174.8968505859375, -21.45945922264566], [-174.8961639404297, -21.372523226942395], [-174.90783691406253, -21.277857723794195], [-174.91470336914062, -21.270819338120397], [-174.9346160888672, -21.27913739410871], [-174.9456024169922, -21.307287323905406], [-174.97100830078125, -21.33607144632998], [-174.98199462890625, -21.366128833627354]]]}}, {"type": "Feature", "properties": {}, "geometry": {"type": "Polygon", "coordinates": [[[-174.9598503112793, -21.469683583139197], [-174.95830535888672, -21.473677279085337], [-174.95058059692386, -21.474635749818916], [-174.94937896728516, -21.47032258184854], [-174.9517822265625, -21.466648300994365], [-174.95624542236328, -21.46568977770608], [-174.9598503112793, -21.469683583139197]]]}}, {"type": "Feature", "properties": {}, "geometry": {"type": "Polygon", "coordinates": [[[-175.41114807128906, -20.554688008915075], [-175.40531158447266, -20.557902634770464], [-175.39878845214844, -20.553723607969957], [-175.38127899169922, -20.55404507562795], [-175.37544250488284, -20.546008181312033], [-175.3699493408203, -20.544400751738692], [-175.3682327270508, -20.53797086444766], [-175.37578582763672, -20.530254642850462], [-175.39123535156253, -20.529933125170764], [-175.3974151611328, -20.53732786084848], [-175.40668487548828, -20.535077326962796], [-175.40977478027344, -20.543436285882205], [-175.41114807128906, -20.554688008915075]]]}}, {"type": "Feature", "properties": {}, "geometry": {"type": "Polygon", "coordinates": [[[-174.8151397705078, -20.272825305537744], [-174.81136322021484, -20.291181357943515], [-174.8027801513672, -20.29472350380814], [-174.79694366455078, -20.283774791327893], [-174.8031234741211, -20.274757623912826], [-174.79522705078125, -20.272181194063386], [-174.7818374633789, -20.27411352046255], [-174.7763442993164, -20.269604721421185], [-174.77771759033203, -20.261552968651113], [-174.7708511352539, -20.243515526841435], [-174.77291107177734, -20.234818154685584], [-174.77977752685547, -20.236106684978783], [-174.78870391845703, -20.240294334653225], [-174.80758666992188, -20.24158281954221], [-174.81273651123047, -20.24577032163637], [-174.8130798339844, -20.257687978940027], [-174.7976303100586, -20.26541786212027], [-174.80552673339844, -20.2715370799145], [-174.8151397705078, -20.272825305537744]]]}}, {"type": "Feature", "properties": {}, "geometry": {"type": "Polygon", "coordinates": [[[-174.7361755371094, -20.32112603851342], [-174.73377227783203, -20.32434555172894], [-174.7272491455078, -20.32466749936532], [-174.72038269042972, -20.328852757658808], [-174.71282958984375, -20.336579090779434], [-174.70218658447266, -20.337866775427504], [-174.6994400024414, -20.33464754369572], [-174.7093963623047, -20.323379704799503], [-174.73514556884766, -20.31887233939871], [-174.7361755371094, -20.32112603851342]]]}}, {"type": "Feature", "properties": {}, "geometry": {"type": "Polygon", "coordinates": [[[-174.539794921875, -20.300519567815638], [-174.53842163085938, -20.305993429118622], [-174.5284652709961, -20.31082314604614], [-174.5229721069336, -20.322413851839762], [-174.52022552490234, -20.336901012947052], [-174.5281219482422, -20.351064924501273], [-174.52537536621094, -20.355893233927304], [-174.52091217041016, -20.355249468058453], [-174.51438903808594, -20.343661223591116], [-174.5174789428711, -20.32981857041209], [-174.51370239257812, -20.318550379702607], [-174.51782226562503, -20.31114512181744], [-174.52571868896487, -20.307603351501566], [-174.53567504882812, -20.297621562919787], [-174.539794921875, -20.300519567815638]]]}}, {"type": "Feature", "properties": {}, "geometry": {"type": "Polygon", "coordinates": [[[-174.54151153564456, -20.3993412221689], [-174.53842163085938, -20.403524456300357], [-174.53086853027344, -20.401593746970384], [-174.52194213867188, -20.39547967446292], [-174.52434539794922, -20.386469020191292], [-174.54151153564456, -20.3993412221689]]]}}, {"type": "Feature", "properties": {}, "geometry": {"type": "Polygon", "coordinates": [[[-174.4302749633789, -19.862310448664577], [-174.429931640625, -19.872320005178437], [-174.41757202148438, -19.887494578827376], [-174.41791534423828, -19.90492740071686], [-174.4292449951172, -19.918807718858737], [-174.4141387939453, -19.929781991610128], [-174.400749206543, -19.922358302239925], [-174.385986328125, -19.905250212645722], [-174.3852996826172, -19.890723023996898], [-174.40589904785156, -19.881037491072973], [-174.4134521484375, -19.866830971786623], [-174.39868927001953, -19.861018846962747], [-174.38941955566406, -19.844550003526994], [-174.3743133544922, -19.833569825283348], [-174.35543060302734, -19.837445268998692], [-174.33860778808594, -19.837122318967378], [-174.32762145996094, -19.825818654220484], [-174.33551788330078, -19.817098134865038], [-174.33345794677734, -19.799009607097332], [-174.3248748779297, -19.768319010061518], [-174.29534912109375, -19.767995919702145], [-174.27955627441406, -19.761533975023298], [-174.2709732055664, -19.737622503577864], [-174.27268981933594, -19.724372713998463], [-174.2596435546875, -19.69657690403639], [-174.26307678222656, -19.678151438928264], [-174.2750930786133, -19.66780638920338], [-174.2929458618164, -19.638384006123022], [-174.30084228515625, -19.64291087775342], [-174.30255889892578, -19.65843061118896], [-174.29569244384766, -19.66618991486647], [-174.29672241210938, -19.67653506893062], [-174.27715301513672, -19.70271825450107], [-174.3080520629883, -19.731159328876245], [-174.32796478271484, -19.739884552930125], [-174.34410095214844, -19.760564660736073], [-174.35440063476562, -19.770903709363424], [-174.34993743896484, -19.78285739839342], [-174.36126708984378, -19.80708509686036], [-174.37774658203128, -19.818067105084207], [-174.3907928466797, -19.82904835478351], [-174.42890167236328, -19.85036273166311], [-174.4302749633789, -19.862310448664577]]]}}, {"type": "Feature", "properties": {}, "geometry": {"type": "Polygon", "coordinates": [[[-175.1114273071289, -19.760564660736073], [-175.09014129638672, -19.784472692991024], [-175.0664520263672, -19.794164116539765], [-175.0338363647461, -19.785441861886838], [-175.02182006835938, -19.761533975023298], [-175.04379272460938, -19.71047541288553], [-175.01529693603516, -19.69463748124269], [-175.00053405761722, -19.67718161888646], [-174.99778747558594, -19.661340394067064], [-175.00328063964844, -19.64808428901574], [-175.01495361328125, -19.63806065326527], [-175.02765655517578, -19.644850926518], [-175.03520965576172, -19.671362575367088], [-175.03658294677734, -19.69463748124269], [-175.0510025024414, -19.701748583255245], [-175.08567810058594, -19.698516303329367], [-175.09666442871094, -19.708859369244195], [-175.11108398437503, -19.73891510713153], [-175.1114273071289, -19.760564660736073]]]}}, {"type": "Feature", "properties": {}, "geometry": {"type": "Polygon", "coordinates": [[[-174.7650146484375, -20.45628780091167], [-174.7620964050293, -20.46449023090353], [-174.75797653198242, -20.464168575236233], [-174.7552299499512, -20.459826157777176], [-174.75797653198242, -20.45548361752857], [-174.7650146484375, -20.45628780091167]]]}}, {"type": "Feature", "properties": {}, "geometry": {"type": "Polygon", "coordinates": [[[-174.76261138916016, -20.47783834672444], [-174.76123809814453, -20.488130076903975], [-174.75763320922852, -20.48732606035256], [-174.759521484375, -20.482501872522242], [-174.75797653198242, -20.476069386061823], [-174.76140975952148, -20.47397876989479], [-174.76261138916016, -20.47783834672444]]]}}, {"type": "Feature", "properties": {}, "geometry": {"type": "Polygon", "coordinates": [[[-174.73960876464844, -20.501958501633883], [-174.73892211914062, -20.50629972646503], [-174.7342872619629, -20.50758599167979], [-174.7298240661621, -20.505335020466422], [-174.73892211914062, -20.498260324206647], [-174.73960876464844, -20.501958501633883]]]}}, {"type": "Feature", "properties": {}, "geometry": {"type": "Polygon", "coordinates": [[[-174.63781356811523, -20.28079596366532], [-174.63506698608398, -20.28240614788743], [-174.63017463684082, -20.282084112380797], [-174.6228790283203, -20.28071545401526], [-174.6221923828125, -20.27830014507498], [-174.62416648864746, -20.275723774072937], [-174.63051795959473, -20.27580428631461], [-174.63695526123047, -20.277736567575648], [-174.63781356811523, -20.28079596366532]]]}}, {"type": "Feature", "properties": {}, "geometry": {"type": "Polygon", "coordinates": [[[-174.69712257385254, -20.29399898055976], [-174.69703674316406, -20.295689529535597], [-174.69463348388672, -20.29697755446895], [-174.69300270080566, -20.295689529535597], [-174.69463348388672, -20.29391847776746], [-174.69712257385254, -20.29399898055976]]]}}, {"type": "Feature", "properties": {}, "geometry": {"type": "Polygon", "coordinates": [[[-174.69055652618408, -20.251769526963763], [-174.6912431716919, -20.252333198776068], [-174.69098567962646, -20.25333975049472], [-174.6895694732666, -20.253903416607244], [-174.68871116638184, -20.253259226597343], [-174.68909740447998, -20.252172149895625], [-174.69055652618408, -20.251769526963763]]]}}, {"type": "Feature", "properties": {}, "geometry": {"type": "Polygon", "coordinates": [[[-174.63504552841187, -20.294139860345616], [-174.6329641342163, -20.295669404061048], [-174.6329641342163, -20.294260614345827], [-174.63504552841187, -20.294139860345616]]]}}, {"type": "Feature", "properties": {}, "geometry": {"type": "Polygon", "coordinates": [[[-174.64685797691348, -20.267722661627253], [-174.6470081806183, -20.267923952535078], [-174.64687943458557, -20.268749242526876], [-174.64657902717593, -20.269091434650665], [-174.64557051658633, -20.2688096294271], [-174.64553833007812, -20.26824601744441], [-174.64589238166812, -20.267772984378702], [-174.64685797691348, -20.267722661627253]]]}}, {"type": "Feature", "properties": {}, "geometry": {"type": "Polygon", "coordinates": [[[-174.75231170654297, -19.955923511484073], [-174.7514533996582, -19.961732150258115], [-174.74544525146484, -19.963991007578624], [-174.7394371032715, -19.980931406138367], [-174.7354888916016, -19.9786727915118], [-174.7323989868164, -19.972703439903505], [-174.72124099731445, -19.967379232903504], [-174.72021102905273, -19.96221619383565], [-174.71317291259768, -19.960925407661627], [-174.7071647644043, -19.955762157354435], [-174.7016716003418, -19.947855602909925], [-174.7023582458496, -19.942530557362094], [-174.7068214416504, -19.936237090198723], [-174.71145629882812, -19.93639846428418], [-174.72261428833008, -19.949146495994693], [-174.72158432006836, -19.958343803629127], [-174.72896575927737, -19.96028001061396], [-174.7294807434082, -19.967701917233217], [-174.737548828125, -19.969799349281363], [-174.74063873291016, -19.96382966169993], [-174.73737716674805, -19.95818245197447], [-174.74252700805664, -19.955923511484073], [-174.75231170654297, -19.955923511484073]]]}}, {"type": "Feature", "properties": {}, "geometry": {"type": "Polygon", "coordinates": [[[-174.77737426757812, -20.014968032843694], [-174.76879119873047, -20.023516360560794], [-174.7588348388672, -20.02287121996465], [-174.75677490234375, -20.017709999900976], [-174.75677490234375, -20.012387314301105], [-174.76295471191406, -20.00851615710607], [-174.76861953735352, -20.007387051649296], [-174.77737426757812, -20.014968032843694]]]}}, {"type": "Feature", "properties": {}, "geometry": {"type": "Polygon", "coordinates": [[[-174.6903419494629, -20.03657988794968], [-174.6858787536621, -20.04367566983446], [-174.67866897583008, -20.04432072501915], [-174.67317581176758, -20.04141795582345], [-174.67540740966797, -20.03367697570742], [-174.67952728271484, -20.03141911799625], [-174.68862533569336, -20.03093528712322], [-174.6903419494629, -20.03657988794968]]]}}, {"type": "Feature", "properties": {}, "geometry": {"type": "Polygon", "coordinates": [[[-174.61240768432617, -20.06689598673302], [-174.60742950439453, -20.06963704737351], [-174.60159301757812, -20.0693145721376], [-174.60142135620117, -20.066573505861165], [-174.61223602294922, -20.064316121194416], [-174.61240768432617, -20.06689598673302]]]}}, {"type": "Feature", "properties": {}, "geometry": {"type": "Polygon", "coordinates": [[[-174.80355262756348, -19.94850105077184], [-174.8032093048096, -19.951405533491144], [-174.79960441589355, -19.95277707619695], [-174.79771614074707, -19.951324854137283], [-174.79488372802734, -19.94244987347266], [-174.7994327545166, -19.940997556413517], [-174.80355262756348, -19.94850105077184]]]}}, {"type": "Feature", "properties": {}, "geometry": {"type": "Polygon", "coordinates": [[[-174.7189235687256, -20.01940354390757], [-174.71823692321777, -20.02287121996465], [-174.715576171875, -20.023355075659936], [-174.71574783325198, -20.0191616101661], [-174.7189235687256, -20.01940354390757]]]}}, {"type": "Feature", "properties": {}, "geometry": {"type": "Polygon", "coordinates": [[[-174.70948219299316, -20.043998197758004], [-174.7031307220459, -20.04432072501915], [-174.70227241516113, -20.04206302028118], [-174.7038173675537, -20.041095422601092], [-174.70948219299316, -20.043998197758004]]]}}, {"type": "Feature", "properties": {}, "geometry": {"type": "Polygon", "coordinates": [[[-174.73634719848633, -20.050932387884085], [-174.73454475402832, -20.05262557383453], [-174.73214149475098, -20.050609874203865], [-174.73377227783203, -20.04931981285739], [-174.73634719848633, -20.050932387884085]]]}}, {"type": "Feature", "properties": {}, "geometry": {"type": "Polygon", "coordinates": [[[-174.7878885269165, -19.996176207981303], [-174.78625774383545, -19.996680309821578], [-174.7854852676392, -19.994684057075155], [-174.78709459304812, -19.99440175666444], [-174.7878885269165, -19.996176207981303]]]}}, {"type": "Feature", "properties": {}, "geometry": {"type": "Polygon", "coordinates": [[[-174.5016860961914, -19.970041358876248], [-174.49945449829102, -19.97125140127887], [-174.47653770446777, -19.966895205170907], [-174.4585132598877, -19.956810956247875], [-174.45456504821777, -19.952373682520726], [-174.45619583129883, -19.95035669867424], [-174.47851181030273, -19.96294225641695], [-174.48537826538086, -19.96326494982478], [-174.4932746887207, -19.966895205170907], [-174.49979782104492, -19.966733862263233], [-174.5016860961914, -19.970041358876248]]]}}, {"type": "Feature", "properties": {}, "geometry": {"type": "Polygon", "coordinates": [[[-174.56262588500977, -19.823396335722947], [-174.56193923950195, -19.829209838088513], [-174.55644607543945, -19.832277989699875], [-174.54545974731448, -19.833408346409925], [-174.54065322875977, -19.826787571281773], [-174.54391479492188, -19.82097398030796], [-174.5514678955078, -19.8175826207128], [-174.56262588500977, -19.823396335722947]]]}}, {"type": "Feature", "properties": {}, "geometry": {"type": "Polygon", "coordinates": [[[-174.73008155822754, -19.811122688033553], [-174.72827911376956, -19.813545193540747], [-174.71952438354492, -19.816855891387544], [-174.71377372741702, -19.815886913786876], [-174.7130012512207, -19.81273769580506], [-174.71952438354492, -19.806762085139223], [-174.72415924072266, -19.80514701669595], [-174.7280216217041, -19.80708509686036], [-174.73008155822754, -19.811122688033553]]]}}, {"type": "Feature", "properties": {}, "geometry": {"type": "Polygon", "coordinates": [[[-174.62800741195682, -19.767814181087246], [-174.62427377700806, -19.771973924148742], [-174.62054014205933, -19.77049985286007], [-174.6182656288147, -19.766319877954682], [-174.62438106536868, -19.764825560817002], [-174.62800741195682, -19.767814181087246]]]}}, {"type": "Feature", "properties": {}, "geometry": {"type": "Polygon", "coordinates": [[[-174.53797101974487, -19.778975576587897], [-174.53590035438538, -19.780767586704197], [-174.53627049922946, -19.778496021166337], [-174.53797101974487, -19.778975576587897]]]}}, {"type": "Feature", "properties": {}, "geometry": {"type": "Polygon", "coordinates": [[[-174.458920955658, -20.02082489712162], [-174.4571828842163, -20.022921621669056], [-174.45694684982303, -20.020099101340943], [-174.458920955658, -20.02082489712162]]]}}, {"type": "Feature", "properties": {}, "geometry": {"type": "Polygon", "coordinates": [[[-174.47801828384402, -19.87042308130506], [-174.47656989097598, -19.872491534409598], [-174.47418808937073, -19.871401816138007], [-174.4757330417633, -19.869767224685305], [-174.47801828384402, -19.87042308130506]]]}}, {"type": "Feature", "properties": {}, "geometry": {"type": "Polygon", "coordinates": [[[-174.5217275619507, -19.844872938451985], [-174.51936721801758, -19.8466894351648], [-174.51679229736328, -19.845841739285476], [-174.5180368423462, -19.844388535818183], [-174.5217275619507, -19.844872938451985]]]}}, {"type": "Feature", "properties": {}, "geometry": {"type": "Polygon", "coordinates": [[[-174.755916595459, -19.911141414656438], [-174.75332021713257, -19.9117063129113], [-174.75432872772217, -19.910112487651414], [-174.755916595459, -19.911141414656438]]]}}, {"type": "Feature", "properties": {}, "geometry": {"type": "Polygon", "coordinates": [[[-174.56517934799194, -19.75499098926687], [-174.56381678581238, -19.757020555228543], [-174.5624327659607, -19.756192576213138], [-174.56517934799194, -19.75499098926687]]]}}, {"type": "Feature", "properties": {}, "geometry": {"type": "Polygon", "coordinates": [[[-174.49378967285156, -19.637413945596247], [-174.4936180114746, -19.64218335342165], [-174.49052810668945, -19.643961740411555], [-174.48572158813477, -19.643638398787953], [-174.4764518737793, -19.6353929673433], [-174.4772243499756, -19.632159349237742], [-174.48246002197266, -19.62908735173762], [-174.49009895324707, -19.632321031689234], [-174.49378967285156, -19.637413945596247]]]}}, {"type": "Feature", "properties": {}, "geometry": {"type": "Polygon", "coordinates": [[[-174.4601011276245, -19.601800586417692], [-174.45289134979248, -19.606611478309432], [-174.45083141326904, -19.60551994402842], [-174.449200630188, -19.603134713711867], [-174.44997310638428, -19.595210643881686], [-174.4521188735962, -19.592582677426453], [-174.45636749267578, -19.592582677426453], [-174.4576120376587, -19.599374872085647], [-174.4601011276245, -19.601800586417692]]]}}, {"type": "Feature", "properties": {}, "geometry": {"type": "Polygon", "coordinates": [[[-174.3951487541199, -19.670705899202513], [-174.39352869987488, -19.672776945660058], [-174.39327120780945, -19.670655385539963], [-174.3951487541199, -19.670705899202513]]]}}, {"type": "Feature", "properties": {}, "geometry": {"type": "Polygon", "coordinates": [[[-174.67317581176758, -18.8005306025463], [-174.66665267944336, -18.814342756878563], [-174.6577262878418, -18.823766869962903], [-174.64588165283203, -18.828803679258087], [-174.6306037902832, -18.82571662050116], [-174.6192741394043, -18.810930447757396], [-174.61669921875, -18.800368099864663], [-174.6244239807129, -18.791430210776156], [-174.646053314209, -18.77989150698029], [-174.65085983276367, -18.78249184724648], [-174.6585845947266, -18.781841765942392], [-174.66579437255862, -18.784279557898476], [-174.67317581176758, -18.8005306025463]]]}}, {"type": "Feature", "properties": {}, "geometry": {"type": "Polygon", "coordinates": [[[-174.3296813964844, -18.023139488973126], [-174.3281364440918, -18.03293351062904], [-174.31783676147464, -18.035218703938067], [-174.31045532226562, -18.032607052019717], [-174.30479049682617, -18.026730693511865], [-174.30307388305664, -18.01807903099921], [-174.30702209472656, -18.0161201050088], [-174.3073654174805, -18.01334492256859], [-174.31131362915042, -18.00975344511438], [-174.31955337524414, -18.0112226947383], [-174.32659149169922, -18.014487650043858], [-174.3296813964844, -18.023139488973126]]]}}, {"type": "Feature", "properties": {}, "geometry": {"type": "Polygon", "coordinates": [[[-174.1860008239746, -18.165914885238852], [-174.1805076599121, -18.166730410221938], [-174.17364120483398, -18.163468287437222], [-174.17278289794922, -18.15808565162932], [-174.17810440063477, -18.157596312876674], [-174.18565750122073, -18.16134787495054], [-174.1860008239746, -18.165914885238852]]]}}, {"type": "Feature", "properties": {}, "geometry": {"type": "Polygon", "coordinates": [[[-174.15390014648438, -18.70869162255995], [-174.1497802734375, -18.725600248588986], [-174.1161346435547, -18.715195140335705], [-174.11544799804688, -18.733403659469364], [-174.12849426269534, -18.743807646653504], [-174.13536071777344, -18.7633133946134], [-174.12574768066406, -18.774365650676245], [-174.12025451660156, -18.764613697633195], [-174.1051483154297, -18.754861180652938], [-174.08798217773438, -18.757461906974076], [-174.0653228759766, -18.757461906974076], [-174.05982971191406, -18.749009399878904], [-174.07630920410156, -18.741206709942034], [-174.0818023681641, -18.73470419291324], [-174.0625762939453, -18.741206709942034], [-174.04884338378906, -18.742507183305513], [-174.0495300292969, -18.76006259320605], [-174.0618896484375, -18.776315973590393], [-174.05364990234375, -18.79256778664964], [-174.05914306640625, -18.80751806940863], [-174.08592224121094, -18.810767955120017], [-174.09072875976562, -18.819867301034154], [-174.0790557861328, -18.82571662050116], [-174.0515899658203, -18.822467023705013], [-174.03511047363284, -18.80751806940863], [-174.03373718261722, -18.79386786395132], [-174.04335021972656, -18.77761617632802], [-174.04266357421875, -18.769164679247343], [-174.0282440185547, -18.771765185019415], [-174.02137756347656, -18.779566461625265], [-174.01451110839844, -18.801018109649704], [-174.00421142578128, -18.815317689624983], [-173.9911651611328, -18.814667735088722], [-173.99185180664062, -18.802318121688117], [-173.99734497070312, -18.789967601932084], [-174.00833129882812, -18.781516724349693], [-174.00489807128906, -18.766564133364785], [-173.9911651611328, -18.76006259320605], [-173.99253845214844, -18.741206709942034], [-174.00421142578128, -18.73795548271951], [-174.01451110839844, -18.728851713580486], [-174.00970458984375, -18.714544799810305], [-173.9952850341797, -18.730802562548213], [-173.98635864257812, -18.726250546591462], [-173.9788055419922, -18.71259376323031], [-173.97811889648438, -18.69568383707862], [-173.9726257324219, -18.688529129026662], [-173.96575927734375, -18.711943412702635], [-173.95408630371094, -18.719097130969654], [-173.9513397216797, -18.705439769916936], [-173.93760681152344, -18.691130876018722], [-173.93760681152344, -18.70739088900225], [-173.91769409179688, -18.714544799810305], [-173.90876770019534, -18.6612083737279], [-173.8916015625, -18.64234147417286], [-173.89846801757812, -18.614362558454967], [-173.91082763671875, -18.606553667249454], [-173.91563415527344, -18.57596539447271], [-173.93142700195312, -18.565551112691665], [-173.9554595947266, -18.564900198966114], [-173.97125244140628, -18.557739984085252], [-173.9911651611328, -18.56750383896607], [-174.00970458984375, -18.57206011333382], [-174.00970458984375, -18.594188856740427], [-174.03442382812503, -18.61175963454128], [-174.0570831298828, -18.61175963454128], [-174.07562255859375, -18.621520393840978], [-174.07424926757812, -18.648196943266544], [-174.0776824951172, -18.6592567227563], [-174.10240173339844, -18.661858919062677], [-174.12368774414062, -18.667713714806688], [-174.14634704589844, -18.682675052185548], [-174.15390014648438, -18.70869162255995]]]}}, {"type": "Feature", "properties": {}, "geometry": {"type": "Polygon", "coordinates": [[[-174.11334514617923, -18.794152254522878], [-174.1091823577881, -18.796102348358122], [-174.10759449005127, -18.795086677304294], [-174.10866737365723, -18.791145815606953], [-174.11068439483645, -18.79061765187557], [-174.112229347229, -18.790780163969355], [-174.11334514617923, -18.794152254522878]]]}}, {"type": "Feature", "properties": {}, "geometry": {"type": "Polygon", "coordinates": [[[-174.01288032531738, -18.846512551704713], [-174.0089750289917, -18.851264385410236], [-174.01069164276123, -18.845009807064358], [-174.0126657485962, -18.844156891959887], [-174.01288032531738, -18.846512551704713]]]}}, {"type": "Feature", "properties": {}, "geometry": {"type": "Polygon", "coordinates": [[[-173.99704456329346, -18.85804668418654], [-173.99610042572021, -18.86015848171769], [-173.9945125579834, -18.859183809237827], [-173.9945125579834, -18.855691186345194], [-173.99610042572021, -18.855122612945745], [-173.99704456329346, -18.85804668418654]]]}}, {"type": "Feature", "properties": {}, "geometry": {"type": "Polygon", "coordinates": [[[-173.9762306213379, -18.825147945597376], [-173.9754581451416, -18.82644777112137], [-173.9721965789795, -18.82303570767972], [-173.9762306213379, -18.825147945597376]]]}}, {"type": "Feature", "properties": {}, "geometry": {"type": "Polygon", "coordinates": [[[-173.9565646648407, -18.759767986232436], [-173.9548373222351, -18.762470224016095], [-173.95383954048157, -18.76010322861031], [-173.9565646648407, -18.759767986232436]]]}}, {"type": "Feature", "properties": {}, "geometry": {"type": "Polygon", "coordinates": [[[-176.21932983398438, -22.333245617054494], [-176.21615409851074, -22.338326642940384], [-176.2137508392334, -22.33888236891468], [-176.2090301513672, -22.34967889110011], [-176.20139122009277, -22.34840875542414], [-176.1964988708496, -22.339596870484193], [-176.19812965393066, -22.336183107721006], [-176.2021636962891, -22.334912849079725], [-176.2038803100586, -22.33205472483419], [-176.21932983398438, -22.333245617054494]]]}}, {"type": "Feature", "properties": {}, "geometry": {"type": "Polygon", "coordinates": [[[-173.81074905395508, -15.951096129242433], [-173.80525588989258, -15.965290084132517], [-173.79941940307617, -15.975027215652501], [-173.78877639770508, -15.982783574679067], [-173.78122329711917, -15.983938751360062], [-173.748779296875, -15.951756335484294], [-173.74465942382812, -15.941027714683324], [-173.75186920166016, -15.926336826256039], [-173.7571907043457, -15.927162185573815], [-173.75856399536133, -15.93227933760862], [-173.76422882080078, -15.938881921650617], [-173.77195358276367, -15.942183132193618], [-173.77830505371094, -15.941357834651106], [-173.77864837646484, -15.936901169249616], [-173.77607345581055, -15.93112386306733], [-173.78122329711917, -15.931288931266186], [-173.78345489501953, -15.93624091410389], [-173.78156661987305, -15.941687954075599], [-173.79375457763675, -15.945814401036968], [-173.80611419677734, -15.94630956896669], [-173.80937576293945, -15.947464956047485], [-173.81074905395508, -15.951096129242433]]]}}, {"type": "Feature", "properties": {}, "geometry": {"type": "Polygon", "coordinates": [[[-173.75658988952637, -15.841554386435186], [-173.75633239746094, -15.851214946113021], [-173.75264167785645, -15.860792480347833], [-173.74938011169434, -15.864094972909017], [-173.73710632324222, -15.860709917340808], [-173.73496055603027, -15.855260684148472], [-173.7366771697998, -15.850389275322572], [-173.74465942382812, -15.841967240322024], [-173.75264167785645, -15.836930365235503], [-173.75658988952637, -15.841554386435186]]]}}, {"type": "Feature", "properties": {}, "geometry": {"type": "Polygon", "coordinates": [[[-175.6885528564453, -15.59691472774027], [-175.6765365600586, -15.626343189615344], [-175.65250396728516, -15.647172018003385], [-175.62435150146484, -15.644857808414065], [-175.59894561767578, -15.626673822489094], [-175.59242248535156, -15.592946522232644], [-175.61508178710938, -15.563182537350972], [-175.64048767089847, -15.5621903303057], [-175.67859649658206, -15.579718616700536], [-175.6885528564453, -15.59691472774027]]]}}]}