{"type": "FeatureCollection", "features": [{"id": "0", "type": "Feature", "properties": {"NAME_FULL": "Democratic Republic of Gorgas", "NAME_SHORT": "Gorgas", "CODE": null, "DEMONYM": "Gorgans", "LANGUAGE": null, "STATUS": "NOTIONAL", "REGION": "Eurasia", "VERSION": "GIS version 1.5; May 2024"}, "geometry": {"type": "Polygon", "coordinates": [[[40.479833617827204, 43.508740743390554], [40.519624470692754, 43.505175069074134], [40.55083703590049, 43.51124705141029], [40.615535929439545, 43.53584503192265], [40.65191613851897, 43.53897145666736], [40.6810616452787, 43.52806772904245], [40.68996557565077, 43.52312931696439], [40.740179483796126, 43.49527903360048], [40.842705525439634, 43.469389140096716], [40.87495161942166, 43.455643209466544], [41.01179081349525, 43.375415548588634], [41.04248661296681, 43.369834494466325], [41.14666630010966, 43.379859721149174], [41.18077274606537, 43.37469207817686], [41.21312219283494, 43.3627806601993], [41.24392134599327, 43.34420298248166], [41.278751261461544, 43.333195902968484], [41.35027144347233, 43.343350322659305], [41.38065718548069, 43.33477203410207], [41.389752237975365, 43.32487599682977], [41.4038082278674, 43.30151825066675], [41.41310998503775, 43.2912863175095], [41.42757938607981, 43.283198954468176], [41.479772583338054, 43.2712358614458], [41.50612756393588, 43.25978953146171], [41.55056929493697, 43.22627736560794], [41.577544393159194, 43.215296123617186], [41.614131306914274, 43.213022360493554], [41.687408488111224, 43.22020538327178], [41.723788696291265, 43.21723398905732], [41.788901000980395, 43.203565573692224], [41.8203202717631, 43.201240132825845], [41.88998010269956, 43.20702789342252], [41.919332315933616, 43.205942689603425], [41.94827111801765, 43.20007741284229], [41.97969038880039, 43.18865692127987], [42.01131636515812, 43.181861471229894], [42.04335575446448, 43.180569560037156], [42.075291789184696, 43.185272115016076], [42.15433396104346, 43.217497744025664], [42.15983443231318, 43.21974029617771], [42.18536258971171, 43.225476379930974], [42.354551228756186, 43.236018372349974], [42.362560099868716, 43.23519446385341], [42.4228674734551, 43.228990377404], [42.47971154794954, 43.200904236041666], [42.50606652944675, 43.18155141196811], [42.534901977843965, 43.16506663022081], [42.595880167435794, 43.14002939923734], [42.61520715308763, 43.13698049065711], [42.62936649576717, 43.14126963448606], [42.656238240302514, 43.15979563446091], [42.673601522092575, 43.1658934534201], [42.704917440087755, 43.166436056678656], [42.75152958142502, 43.17695221067597], [42.79132043429059, 43.176177063420724], [42.82976770001931, 43.16876149484712], [42.85767297332905, 43.15545481468792], [42.88578495311306, 43.135843608195955], [42.91482710798464, 43.121942647934816], [43.00009322152495, 43.098662415238266], [43.00019657431245, 43.08535573328044], [42.99254846174212, 43.06881927648844], [42.98975793468094, 43.052670390626076], [42.99885298627629, 43.04220591347214], [43.04825565647332, 43.016961975115], [43.15558760588329, 42.94239288452399], [43.175228461224506, 42.93447107228216], [43.19434492997454, 42.92676076349842], [43.38617831287883, 42.88688235623575], [43.47959883751635, 42.867462056928396], [43.517425984721406, 42.86045990040406], [43.58625899245852, 42.8356293740963], [43.603002157523534, 42.82480316263582], [43.64434330220163, 42.78857798318734], [43.662843466452784, 42.779844665898565], [43.75596439633978, 42.76312734015458], [43.78252564903944, 42.753212983692215], [43.8006128338152, 42.74646169035472], [43.81177494295925, 42.7172645076509], [43.78872725425938, 42.69307993648991], [43.75379398600365, 42.67465728840313], [43.72568200711893, 42.654400127663756], [43.72258142079592, 42.62486704547778], [43.751106811729926, 42.59874460887662], [43.796168660355356, 42.589830424434545], [43.84500288887223, 42.587039897373366], [43.88536218341802, 42.57921091854905], [43.90816053597993, 42.56628298966822], [43.920812216510576, 42.55910878654126], [43.93972578921377, 42.55220998190511], [43.95843265814066, 42.554406230663005], [43.97321211844451, 42.56399220867349], [43.99801680543119, 42.58936533644112], [44.011504354542296, 42.600320740010176], [44.05506758639995, 42.61530690498967], [44.150824016415186, 42.61866587463041], [44.185803459462086, 42.62650810136773], [44.197384480909044, 42.62910451246322], [44.211350730152034, 42.63963427140449], [44.230147338828615, 42.65380584846114], [44.248647501281155, 42.68199534261097], [44.27200524924284, 42.7023816945595], [44.360682007468675, 42.703751119218744], [44.40140303542173, 42.713517965281824], [44.47922774286606, 42.74429128001857], [44.50811486810665, 42.75028574619023], [44.55829268376032, 42.75310211347178], [44.60097741737388, 42.74912302710603], [44.63875882326108, 42.74014876615264], [44.6424219157388, 42.7392786675764], [44.67942224244253, 42.72367238407329], [44.69502852414708, 42.71421559727197], [44.724484090168666, 42.691038717362915], [44.73636966972449, 42.67755116825178], [44.7610710039237, 42.6192343154113], [44.773473348316365, 42.609648337400856], [44.78231001749328, 42.616650493025816], [44.79848474087805, 42.671737569233436], [44.82742354296211, 42.71796213784242], [44.83367639245154, 42.73408518528307], [44.859359579481, 42.75950998989409], [44.90297448728276, 42.753076274150715], [45.01211511272226, 42.695302023669484], [45.02978845197545, 42.68876495423924], [45.04808190885297, 42.68589691191294], [45.06699548335486, 42.688454894977404], [45.07601819078684, 42.69141191712624], [45.103892456371725, 42.70054718010824], [45.122961060504515, 42.70227834087273], [45.15536218231882, 42.6932608045425], [45.184197632514724, 42.67483815645574], [45.28269291184837, 42.586393941327316], [45.29364831541737, 42.57290639311559], [45.301571319260965, 42.559842096435624], [45.31256188991927, 42.54171966543022], [45.32269047028893, 42.530118307613826], [45.35597009304536, 42.51996388792305], [45.398551472972116, 42.52438222296124], [45.47927006026504, 42.54233978305451], [45.53683760607069, 42.541357931123564], [45.62065677878729, 42.53037668913287], [45.698688191806596, 42.507587381952106], [45.73961592623397, 42.47146555619043], [45.73950628538673, 42.47064678552073], [45.736411987123475, 42.44753936834715], [45.62138024919911, 42.22447804812339], [45.631405476781325, 42.2011719770051], [45.661584513214684, 42.186702575963096], [45.70178877812958, 42.172749938858544], [45.81160119623823, 42.11549245231482], [45.88136437996213, 42.10203074252475], [45.895161987435756, 42.09187632283407], [45.923480671895454, 42.03963145053098], [45.93412601710196, 42.02849517890935], [45.947561889369695, 42.022914123887674], [45.96637211108402, 42.022061463166004], [45.97350345881758, 42.02415435823701], [45.98673262640954, 42.03190582359487], [45.995155884436514, 42.03345611630673], [46.001615437702256, 42.03097564850739], [46.01835860186794, 42.020046082460745], [46.026730183950846, 42.01679046740609], [46.04481693525333, 42.017720642493686], [46.058459513096025, 42.02033030240154], [46.06827803510323, 42.015317688160735], [46.07499597168676, 41.99348439538854], [46.09918054194843, 41.98506113736158], [46.12987634321865, 41.98449269747998], [46.18858076968673, 41.99353607223193], [46.18889082804925, 41.993639425019424], [46.18920088731107, 41.99376861622862], [46.197675822181466, 41.995499776093794], [46.20615075705177, 41.9960940552964], [46.214574015078725, 41.99549977609377], [46.22434086114179, 41.99348439538853], [46.25048913616468, 41.97772308405308], [46.294155720809826, 41.93862986317761], [46.32262943490049, 41.9290180476448], [46.38205733267973, 41.9252456668541], [46.40655196130393, 41.91503957121924], [46.43089156119661, 41.89044159070683], [46.452337280341176, 41.88617828440028], [46.47931237766409, 41.88700510759964], [46.52551110875065, 41.88230255262069], [46.54354618320978, 41.874292704844486], [46.549127238231456, 41.85537913034256], [46.54432133046499, 41.814761454277715], [46.549850707743936, 41.79775990949223], [46.567575724739875, 41.786675314713975], [46.58659265112994, 41.78677866750152], [46.60395593291993, 41.79517608710672], [46.63651208526449, 41.81651845346389], [46.65707930526571, 41.821996155697995], [46.69749027485626, 41.82822316496708], [46.70955494630369, 41.83506555692986], [46.71557702615883, 41.83848093744529], [46.73242354311203, 41.85140004487615], [46.740795125194836, 41.8512450161446], [46.74503259307965, 41.84013458294464], [46.75402429188759, 41.80088633243827], [46.759398641334215, 41.787295431438956], [46.76911381145324, 41.77571991024564], [46.83479455602392, 41.730244650470254], [46.85189945449624, 41.722338155481474], [46.86450850446392, 41.71967681962954], [46.8905534257999, 41.71709299724399], [46.9022322997808, 41.712752177470975], [46.90688317881563, 41.70693857845258], [46.912257527362954, 41.68861928315335], [46.915978230411, 41.68094533306067], [46.92951745636551, 41.66722523995284], [46.979230184025774, 41.63549591170693], [47.00393151822499, 41.60542022716176], [47.01261316046897, 41.57549957314679], [47.02703088376825, 41.556947733850826], [47.028262363217436, 41.5570746596678], [47.06914717750023, 41.56128855542251], [47.08826745577847, 41.56697296143302], [47.10749108954214, 41.569918518125114], [47.125577839945336, 41.56630116786462], [47.1413908281242, 41.552400208502796], [47.1487288814327, 41.53508860355625], [47.15224287890574, 41.51813873291619], [47.159322550695165, 41.503514303142545], [47.176995889948344, 41.49348907556041], [47.17924955052633, 41.491732375848464], [47.18707279437396, 41.48563425741506], [47.191827026196286, 41.47669423545059], [47.19513431809429, 41.4669790653316], [47.20050866754094, 41.45685048496188], [47.231462850330296, 41.42754994857125], [47.23905928515786, 41.415716044060176], [47.2427799882059, 41.391273092279334], [47.24091963713155, 41.338924866289524], [47.25084151192619, 41.3160322063213], [47.233523487592805, 41.30523536693597], [47.20633957717818, 41.285756748969774], [47.17699466438363, 41.257739623667575], [47.125393663514885, 41.24298722706515], [47.08598158972519, 41.253710024446626], [47.04245937182294, 41.254490629841115], [47.01522050843909, 41.23068071577221], [46.95451583064116, 41.22601215114773], [46.9341713529725, 41.24207303096135], [46.91213270700165, 41.26530266149018], [46.865491163986036, 41.27709320748553], [46.82155438647447, 41.276773780941454], [46.79122380213036, 41.27582098980036], [46.749992508147805, 41.29217263455139], [46.728972860568255, 41.285346098217865], [46.69480310148192, 41.26978179929069], [46.69170251425961, 41.26854156494125], [46.68343428586362, 41.26947174092806], [46.6746492917314, 41.26166860052549], [46.67268558786958, 41.253968811111775], [46.671600382251825, 41.236450501489465], [46.66948164875908, 41.229887594536855], [46.66359053537493, 41.22353139315924], [46.65036136868218, 41.21417795824612], [46.644470255298046, 41.20797678649949], [46.6347550860783, 41.18105336512072], [46.629484090318506, 41.14674021448932], [46.62111250823564, 41.11459747329472], [46.61553865048832, 41.10866593448526], [46.60178552348313, 41.09403025329355], [46.58214847946877, 41.09165313738239], [46.56313155128005, 41.09558054600536], [46.543546183209756, 41.097027486829006], [46.52241052242766, 41.08700225834753], [46.511145060496155, 41.070982565492976], [46.505564005474454, 41.05527292920234], [46.496779012241554, 41.044834290470085], [46.474919881047654, 41.0441108200583], [46.45698815937604, 41.052430725297725], [46.42903120922291, 41.080956116231754], [46.41264978026312, 41.09185984295739], [46.353118531495, 41.106535950473706], [46.33234460412019, 41.11588938448751], [46.273433472077066, 41.15630035407804], [46.244391317205505, 41.18374054029367], [46.22857832812731, 41.19541941337521], [46.210594930511625, 41.20017364519755], [46.13540572139693, 41.19991526367851], [46.113133179052966, 41.196039530999535], [46.08760799121582, 41.18365905092444], [46.06135339384401, 41.17092478565031], [46.04161299614283, 41.16544708341617], [46.017428425881114, 41.16379343701751], [45.96916263814524, 41.16828928642139], [45.82074792467694, 41.2088036105981], [45.77033685186426, 41.23210190348003], [45.75108809374053, 41.240998026837474], [45.709746948163115, 41.26771474354062], [45.68587243626387, 41.29624013357528], [45.70809330266378, 41.31711741193896], [45.73103763947548, 41.32326690684228], [45.74530033404318, 41.32915802022643], [45.744060099693804, 41.33535919197313], [45.720702351732164, 41.34238718691912], [45.65559004704301, 41.35236073945652], [45.51182621350893, 41.39458038327802], [45.479270060265044, 41.417679748821335], [45.46480065922306, 41.43018544510221], [45.45002119981849, 41.4322008276061], [45.416948283536456, 41.424604390979844], [45.39679447468525, 41.42326080384298], [45.38123986802548, 41.42558624291076], [45.33309559668443, 41.4443524563008], [45.31442224099362, 41.45163116514613], [45.28171105991749, 41.452923075439585], [45.24961999646565, 41.444499817412634], [45.09783349981615, 41.34991880940551], [45.00239994440189, 41.290452372978656], [44.98999759910989, 41.28445790770628], [44.967363322459335, 41.26900665293467], [44.95516768454101, 41.262702128400484], [44.91723718274977, 41.26177195241365], [44.82070560727795, 41.27334747450631], [44.80127526883854, 41.25851633735908], [44.80954349813393, 41.24440867242227], [44.847060587875845, 41.230766094579565], [44.85382048592665, 41.22351397059322], [44.85770593308234, 41.21934560211782], [44.847784057388324, 41.20890696248633], [44.82153243047725, 41.20621978821267], [44.67492639123994, 41.2084935513363], [44.63312015766912, 41.22105092446059], [44.612862996030415, 41.22311798110993], [44.5913656009417, 41.21577992870071], [44.57844649351086, 41.20280914442645], [44.566250854693195, 41.18694447940421], [44.55152307123274, 41.17702260460951], [44.531007528074944, 41.181466777169994], [44.52552982584074, 41.18906321199767], [44.52191247647958, 41.19929514605411], [44.516641479820414, 41.20683990493763], [44.505892781826404, 41.20658152341854], [44.49938155081789, 41.202809144426475], [44.47922774286606, 41.18580759694304], [44.45493981981679, 41.18048492433975], [44.432460570998515, 41.18167348364431], [44.41060144070391, 41.1877196248608], [44.35727136278316, 41.21216257844022], [44.3449206952339, 41.213247782259316], [44.333086792521456, 41.21035390241065], [44.32492191601361, 41.20482452423238], [44.31773889143663, 41.19857167654164], [44.308488810210406, 41.1938174447193], [44.28497603441644, 41.19087188712785], [44.2664758710646, 41.196194560630445], [44.218106731440464, 41.22156768839808], [44.1909766044867, 41.23004262326846], [44.18033125838082, 41.22993927048096], [44.168445678824966, 41.22358306910331], [44.16586185733884, 41.21614166300731], [44.165190063770424, 41.20766672813701], [44.16007409674218, 41.19789988207389], [44.144364461350804, 41.18606597936146], [44.12472741733644, 41.17805613248455], [44.10364343249837, 41.17516225263581], [44.061268758146646, 41.184153951443704], [44.041321654870444, 41.18255198188839], [44.00111739085488, 41.16885772720232], [43.978186390089846, 41.164617062227634], [43.97775529017446, 41.16453733822755], [43.95584883665446, 41.16048614511947], [43.863244669805624, 41.158987528351716], [43.820353231516386, 41.145499980139945], [43.773741089279845, 41.114494121406544], [43.75415572120956, 41.108241271917166], [43.72971276942874, 41.10669097920533], [43.56662194844416, 41.12405426099533], [43.524143921304955, 41.12281402664597], [43.47014204891639, 41.10617421526783], [43.46032352690925, 41.10452056886915], [43.45045332805865, 41.10467559939935], [43.44042810047644, 41.106587626417834], [43.451796916094786, 41.13258087270907], [43.43758589747121, 41.15619700129054], [43.41055912240559, 41.17516225263581], [43.383273966720125, 41.18720286092326], [43.35175134314996, 41.193610738244956], [43.3226058354909, 41.19206044643246], [43.2306217853671, 41.17263010709378], [43.21620406116847, 41.1805366011832], [43.19222619648179, 41.224978333083605], [43.17202071168647, 41.24234161397433], [43.15233199082873, 41.24415028910454], [43.13031783000383, 41.242289938030176], [43.10313602710597, 41.24880116813938], [43.157241251382644, 41.26973012334655], [43.17186568205557, 41.27934194067803], [43.18535323116669, 41.29381134172003], [43.18400964402981, 41.2989789846924], [43.154760782683944, 41.30187286454106], [43.12390995268214, 41.3129316208976], [43.075644164946276, 41.34486765651713], [43.0020569253868, 41.38269480552083], [42.98758752434473, 41.39468373606559], [42.9577185462739, 41.4370067344732], [42.94996708181539, 41.44367299421328], [42.94107873579497, 41.4463084934422], [42.93622115118518, 41.45023590116593], [42.93219038887532, 41.45478342741326], [42.926092569916136, 41.45907257124213], [42.89663700389457, 41.466565654181586], [42.88898889132425, 41.469976297967804], [42.880720662028935, 41.48124176169791], [42.875139607906526, 41.4936957811354], [42.86800826017304, 41.50020701124457], [42.85457238790538, 41.49379913392289], [42.82997440649365, 41.47250844440922], [42.81116418477927, 41.47715932344402], [42.79214725748997, 41.49286895793603], [42.76651574730387, 41.5043411254426], [42.77488732938673, 41.5142630011366], [42.794627726188594, 41.52682037426092], [42.802689249908944, 41.53410675162526], [42.80682336410696, 41.54299509764566], [42.80889042165565, 41.55291697244033], [42.812197714452964, 41.56299387686591], [42.819949178012116, 41.57234731087967], [42.80093225072279, 41.57922027619476], [42.660992472124875, 41.58826365184607], [42.6105562740528, 41.585059713634855], [42.590913540927176, 41.58016907354393], [42.586647575325344, 41.57910693553666], [42.58523482222924, 41.578755188201356], [42.5651843670649, 41.5671279910639], [42.55495243300835, 41.55033315095413], [42.54554732305047, 41.50961212210173], [42.53552209546833, 41.49348907556038], [42.51381799300595, 41.47622914745716], [42.48384566214759, 41.44217437744557], [42.46307173747069, 41.431839092400196], [42.451032576192425, 41.43137035405859], [42.43785363843466, 41.43085723956996], [42.26246382674418, 41.48232696641637], [42.21326786302143, 41.48020823202428], [42.18928999833474, 41.48170684969138], [42.172650186956574, 41.4934890755604], [42.15838749148953, 41.49989695288208], [42.143194620935, 41.500258688087975], [42.11177535015225, 41.49348907556038], [42.09751265468526, 41.498346659270894], [42.08345666479323, 41.500103658457014], [42.06940067580053, 41.49860504258866], [42.05493127475847, 41.49348907556039], [42.01958459445344, 41.48506581753346], [41.94796105965515, 41.505581360691224], [41.90775679653893, 41.49348907556038], [41.894010864110044, 41.48553090552683], [41.86269494611487, 41.45178619387771], [41.82259403488678, 41.42599965406078], [41.81298221845458, 41.42181386301934], [41.800786581435545, 41.425689596597564], [41.76099572767067, 41.45354319306386], [41.74776656097801, 41.45685048496189], [41.71851770143078, 41.45958933517965], [41.706838827449936, 41.46315500949609], [41.70260135866575, 41.46945953403027], [41.70280806514006, 41.477624411437425], [41.703944946701895, 41.485117493477524], [41.70260135866575, 41.489044902100545], [41.694953246994736, 41.48909657804462], [41.66983850074622, 41.480466614442705], [41.63996952447393, 41.478709615256484], [41.62725712081942, 41.48051829038678], [41.52076256613947, 41.51422760741819], [41.586273633821136, 41.60272858325752], [41.615733269274955, 41.632635809494985], [41.67603600415824, 41.662176825500055], [41.69288170722502, 41.692287502666105], [41.739756706906476, 41.74990469014936], [41.74236087285595, 41.76166412989568], [41.74244225430659, 41.77069733331524], [41.743907097034885, 41.778631903339665], [41.75001061319923, 41.78750234655606], [41.76628665510503, 41.80418528941957], [41.771820509209135, 41.81256745022763], [41.77393639454897, 41.821600653647245], [41.773936395448295, 41.90260981099397], [41.77393639454897, 41.9026146511452], [41.773936394549004, 41.90692780237618], [41.76197350387406, 41.96987539303494], [41.76026451949199, 41.99258047151153], [41.755707227506555, 42.00641510587244], [41.71526126439579, 42.05935293189228], [41.71525926610223, 42.059355539026846], [41.68490644647531, 42.09894440326157], [41.674327018876795, 42.1055362000356], [41.664073113483376, 42.11395905246828], [41.659190300192165, 42.13300202052684], [41.65723717505558, 42.167059636892716], [41.64918053465392, 42.21222565309136], [41.596202018808064, 42.34943268427096], [41.5922957694342, 42.35541413005801], [41.585215691151184, 42.3628604194728], [41.558360222546206, 42.38279856999799], [41.554860873230666, 42.38983795845501], [41.55119876371198, 42.40643951986795], [41.55119496587497, 42.406456947829845], [41.500173373002724, 42.64057038021883], [41.48275800877509, 42.68024323124014], [41.4573673837977, 42.713690497518435], [41.42432701937639, 42.739894924411175], [41.383474155308036, 42.7572695979136], [41.30730228037592, 42.76764557548294], [41.29102623847015, 42.77435944263415], [41.274912956767515, 42.7853050804651], [41.25074303466332, 42.79523346635136], [41.22535240968593, 42.80231354463433], [41.20533287950878, 42.804429429074844], [41.19369550924033, 42.80190664367667], [41.17359459671327, 42.79279205970578], [41.160899284674215, 42.79083893456916], [41.1502384774238, 42.7956403673091], [41.10474694081865, 42.84658437746704], [41.08179772248691, 42.90814850504944], [41.04029381580694, 42.96133047092446], [41.02312259233372, 42.98997630446286], [40.99838300906864, 42.98944733312787], [40.95899498772849, 42.976385809057824], [40.93376712295434, 42.98273346597665], [40.90398196709409, 43.0163434924582], [40.886566601967104, 43.024155992105335], [40.88624108245994, 43.02928294525169], [40.86280358171993, 43.05898672146006], [40.85596764419143, 43.06305573103716], [40.78305097692102, 43.0841738955089], [40.68287194098725, 43.09430573142436], [40.63624108206028, 43.09247467756427], [40.60401451865511, 43.08649323087787], [40.59180748812502, 43.08563873913646], [40.579925977102185, 43.08881256714626], [40.56072024794105, 43.102972723712185], [40.5505477221996, 43.10610586099667], [40.54607181076547, 43.108832098222734], [40.52898196694419, 43.12225983342456], [40.52019290517843, 43.12726471619368], [40.51026451929212, 43.12995026269444], [40.47852623829522, 43.13401927317089], [40.3982853519874, 43.16233958540356], [40.361175977089665, 43.165472723587314], [40.33513431129939, 43.140855210699414], [40.32504316520988, 43.14883047144905], [40.31031334748299, 43.17572662988004], [40.30103600420819, 43.18866608357284], [40.278330924832304, 43.2055117866396], [40.26840253984533, 43.21637604391923], [40.27279707072821, 43.24799225543819], [40.257172071433914, 43.27741120016673], [40.2351994152208, 43.304429428974984], [40.21908613441753, 43.319037177223976], [40.18824303498805, 43.32957591409715], [40.13347415510814, 43.34162018442395], [40.10132897225423, 43.365179755541256], [40.086924674933755, 43.370306708687636], [40.04078209751577, 43.37579987206642], [40.00977623788304, 43.38515859589246], [39.98601321673652, 43.38898346651378], [39.98597635532452, 43.388989609782634], [39.99128462708387, 43.40631805543388], [40.05918745973344, 43.535199077675266], [40.07283003847547, 43.55106374269754], [40.09670454947536, 43.562639262092276], [40.16429732286315, 43.57584259036321], [40.23313033149958, 43.57576507599742], [40.479833617827204, 43.508740743390554]]]}}]}