{"type": "FeatureCollection", "features": [{"type": "Feature", "geometry": {"type": "Polygon", "coordinates": [[[48.517684936523324, 29.960288706229534], [48.563690185546875, 29.950175057288813], [48.62617492675781, 29.928754522717018], [48.61587524414006, 29.90971017627], [48.55133056641, 29.904948520528], [48.48129272460994, 29.903758071028], [48.44421386719, 29.901377129352], [48.427734375, 29.857319448285], [48.42498779297, 29.846599772557], [48.42498779296875, 29.846599772557077], [48.16131591796875, 30.027488564694334], [48.043212890625, 30.022732549250424], [48.01339697818989, 29.99010783912765], [47.84072861063686, 30.053444297121793], [47.70927406829904, 30.103765026948555], [47.371673583984375, 30.10236569641242], [47.2796630859375, 30.05720849081894], [47.173919677734375, 30.02511058549258], [47.121734619140625, 29.956124387148986], [47.0159912109375, 29.73099249532227], [46.998138427734375, 29.66180275761379], [46.91024780273426, 29.5232805008286], [46.84707641601551, 29.413282951826233], [46.783245921310794, 29.353937357930764], [46.766032064282754, 29.321234489364073], [46.70308465559202, 29.250774437559414], [46.668366127421095, 29.20542958941252], [46.62683621921562, 29.168362502100273], [46.582873675282215, 29.13809327484969], [46.55739916287126, 29.10314944419423], [46.55411900446967, 29.101506915615158], [46.4227294921875, 29.059771002186196], [44.7198486328125, 29.20252099881366], [42.07917083093781, 31.120489499024508], [41.44317626953125, 31.36770891512085], [40.42407112885516, 31.945025921799527], [39.20308469237743, 32.154813985779654], [39.3035888671875, 32.22906629627297], [39.2596435546875, 32.35212281198644], [39.04266357421875, 32.30802741894789], [38.9849853515625, 32.47964619410741], [39.08660888671875, 32.498180028410744], [38.792724609375, 33.37411872061922], [40.638427734374886, 34.31621838080741], [40.9735107421875, 34.397844946449865], [41.02020263671875, 34.44995361537075], [41.11907958984375, 34.66032236481892], [41.2261962890625, 34.784483415461345], [41.2152099609375, 35.106428057364255], [41.27288818359375, 35.37561413174875], [41.261901855468636, 35.44500852178629], [41.38275146484375, 35.62158189955968], [41.3690185546875, 35.846760876811395], [41.25091552734375, 36.0624217151089], [41.2921142578125, 36.35495110643483], [41.39923095703125, 36.52508770278463], [41.81396484375, 36.589068371399115], [42.00347900390625, 36.73668306473141], [42.352294921875, 37.05298514989097], [42.374267578125, 37.06394430056685], [42.374267578125, 37.077093191754436], [42.352294921875, 37.08804885952269], [42.3524154542595, 37.10006110956955], [42.354415124590105, 37.10442943623934], [42.35918439483112, 37.107207509363825], [42.36207452712483, 37.11687912572155], [42.368253150825126, 37.11403795494387], [42.37768894696717, 37.11539250293122], [42.386760019022205, 37.109814088470316], [42.40159609500978, 37.112348653367405], [42.40854768032327, 37.12157563473091], [42.41855149214071, 37.121592363695896], [42.42550324305239, 37.12647618053866], [42.4367008378899, 37.12723241529169], [42.43602595455947, 37.13065222312359], [42.44264042940103, 37.1329704679202], [42.44433769500512, 37.13691084518605], [42.45046181553359, 37.13812590705683], [42.45624094577174, 37.13356544223062], [42.459605143954235, 37.13835585739541], [42.468144196538354, 37.13957098549994], [42.484704273442574, 37.135148112195466], [42.48832694293359, 37.1376121046664], [42.49988438917211, 37.13732585882552], [42.50367982522251, 37.14087854765338], [42.51644500889812, 37.14443123648124], [42.529124487825484, 37.13943624489127], [42.539734024994154, 37.146266476359074], [42.55474327404906, 37.15030163175786], [42.56897846624135, 37.14407233606639], [42.580453736087634, 37.14691774626975], [42.58767397343311, 37.17207137363932], [42.617340087890625, 37.20080005987362], [42.614593505859375, 37.21392518793643], [42.62972067340061, 37.219486152671635], [42.655792236328125, 37.24782120155428], [42.65086632652044, 37.25616048383578], [42.65588774933232, 37.264499766117275], [42.66327370216395, 37.272160498950925], [42.677764892578125, 37.27077435856147], [42.695617675781136, 37.292628004510924], [42.691497802734375, 37.30792178069673], [42.7313232421875, 37.318844002395444], [42.73681640625, 37.337408137077986], [42.78350830078125, 37.377796572371174], [42.826080322265625, 37.37233994582318], [42.824707031249886, 37.34832607355296], [42.85079956054676, 37.3461426132468], [42.960662841796875, 37.31338308990806], [42.9840087890625, 37.32539657367551], [43.026580810546875, 37.353784446515775], [43.08013916015625, 37.36688292232763], [43.143310546875, 37.37233994582318], [43.16665649414051, 37.35815085913536], [43.195495605468636, 37.35815085913536], [43.221588134765625, 37.34395908944491], [43.23394775390625, 37.347234351336915], [43.255920410156136, 37.327580637137665], [43.27239990234375, 37.32648861334206], [43.271026611328125, 37.315567502511044], [43.3135986328125, 37.30573714593416], [43.331451416015625, 37.32539657367551], [43.361663818359375, 37.327580637137665], [43.375396728515625, 37.3101063519868], [43.391876220703125, 37.302460074782296], [43.47564697265625, 37.26203112351243], [43.512725830078125, 37.23907530202184], [43.5662841796875, 37.25656608611523], [43.59649658203125, 37.231421807404715], [43.60610961914051, 37.23798199321937], [43.628082275390625, 37.2182997233196], [43.66241455078125, 37.22595454983972], [43.702239990234375, 37.23360859943705], [43.72421264648426, 37.2368886685595], [43.78738403320301, 37.228141500433615], [43.81072998046875, 37.22048689588553], [43.831329345703125, 37.19533058280065], [43.85330200195301, 37.22595454983972], [43.8958740234375, 37.22048689588553], [43.941192626953125, 37.243448378654115], [43.957672119140625, 37.27733111863006], [43.960418701171875, 37.289350362163546], [43.99200439453125, 37.302460074782296], [44.0167236328125, 37.327580637137665], [44.06341552734375, 37.323212446730174], [44.084014892578125, 37.31119861382921], [44.12109375, 37.318844002395444], [44.16091918945301, 37.302460074782296], [44.197998046874886, 37.290442925478196], [44.23095703125, 37.27733111863006], [44.251556396484375, 37.24891436763243], [44.270782470703125, 37.24126187205382], [44.268035888671875, 37.19314268101434], [44.279022216796875, 37.16688291460905], [44.22821044921875, 37.158127630680866], [44.18426513671875, 37.10228886039075], [44.22958374023426, 37.047504980968164], [44.22958374023426, 37.02229110771148], [44.257049560546875, 36.98280911070616], [44.309234619140625, 36.96415770803826], [44.328460693359375, 36.99158465967016], [44.36279296875, 37.02558034854759], [44.351806640625, 37.04312056092881], [44.384765624999886, 37.05736900011469], [44.402618408203125, 37.05079312980657], [44.452056884765625, 37.07271048132943], [44.517974853515625, 37.10338413422305], [44.51934814453125, 37.11543110112874], [44.53445434570301, 37.122001366241], [44.549560546875, 37.127476151584446], [44.567413330078125, 37.158127630680866], [44.611358642578125, 37.17673139677148], [44.630584716796875, 37.18876668723709], [44.680023193359375, 37.17235445206048], [44.7198486328125, 37.17235445206048], [44.758300781249886, 37.16469418870222], [44.770465783906666, 37.15541675625012], [44.76613529500783, 37.14192006495901], [44.759547269899834, 37.12796747983706], [44.74770351664084, 37.12398122320943], [44.74908857236587, 37.11091016932093], [44.75260950853237, 37.109012300724515], [44.75269942184083, 37.103317770498684], [44.76065759277368, 37.08564442944686], [44.76654870615784, 37.078952332184386], [44.773628377047956, 37.076342672276496], [44.77771037941754, 37.07532920943001], [44.77774618572652, 37.075063753009864], [44.785584749277106, 37.07186810861488], [44.78835616140771, 37.07024485331734], [44.792231893187335, 37.06373362230879], [44.79729618337217, 37.048489074910826], [44.80189538646291, 37.04352813841288], [44.81119714453256, 37.04192616795825], [44.81301668718836, 37.04237867208567], [44.817770062173295, 37.039792479782804], [44.83955098286951, 37.04715785868531], [44.84060103371071, 37.04719716551678], [44.847577351813314, 37.044044901450995], [44.85894616743168, 37.034123027555694], [44.880753621782205, 37.02492462227349], [44.88736820467888, 37.015932923465655], [44.885714559179526, 37.0050808726841], [44.87475915650988, 36.99402211542827], [44.869178101488146, 36.96735707646786], [44.87486250839802, 36.94965789789369], [44.88406091278087, 36.93335398419901], [44.88881514550251, 36.91092641222411], [44.883440796055886, 36.886845195649265], [44.86964318948157, 36.86896514902242], [44.83414148044498, 36.834031881666], [44.82339278245093, 36.80933054746676], [44.83124759969697, 36.79191558883333], [44.84911850743247, 36.78233196739224], [44.855804443359375, 36.775192495806465], [44.868066235715546, 36.77813884329711], [44.877239624309205, 36.77646433586044], [44.90458488756074, 36.777694872210965], [44.9176025390625, 36.775192495806465], [44.919534903356194, 36.77632746376839], [44.922714884084606, 36.77589589507949], [44.93522058126478, 36.76711090094728], [44.94441898654698, 36.75827423087108], [44.954754272491655, 36.75233144244209], [44.96643314647252, 36.749334208906596], [44.97945560669086, 36.74902415054408], [44.99619877085655, 36.74168609633627], [45.01097823116044, 36.72556305069424], [45.03526615420965, 36.68959625366415], [45.045911499416164, 36.66804718083275], [45.044309529860875, 36.64934031190588], [45.02487919142151, 36.613166809300786], [45.014182169371644, 36.57900868740101], [45.013251994284076, 36.5579247034623], [45.010254760748595, 36.55601267644386], [44.99785241725523, 36.55208526602219], [44.99340824379539, 36.54965647416692], [44.99139286309015, 36.533740133200574], [45.005913940076276, 36.51870229137764], [45.00952466593055, 36.51619591051288], [45.025344279414924, 36.505214742266496], [45.03816003405832, 36.49400095627908], [45.0390902100451, 36.47984161449887], [45.04549808736682, 36.47162506114764], [45.05407637502466, 36.46495880140754], [45.06208622280093, 36.45534698497536], [45.066892131466666, 36.4423762016004], [45.0685457760667, 36.43250600185048], [45.07226647911472, 36.423410950255104], [45.08373864841986, 36.412817280992726], [45.11081709853028, 36.402533670992135], [45.139962606189265, 36.4043940229658], [45.19597985838376, 36.422429097424875], [45.22130131020726, 36.42093048245578], [45.23887129847163, 36.40299875898552], [45.24961999646564, 36.37793569047972], [45.25447758017617, 36.354784648093016], [45.257009724818964, 36.31168650332945], [45.26393436697744, 36.29427154649464], [45.28269291184836, 36.27489288399942], [45.25850834248598, 36.26223215808761], [45.26419274939584, 36.25019154890084], [45.28279626553519, 36.238409322132505], [45.29736901846543, 36.22673044905095], [45.302019898399585, 36.207558492130666], [45.29953942880156, 36.161411437887544], [45.30460371898643, 36.14037912989288], [45.33560957951846, 36.10771962566021], [45.34832198047503, 36.08751413996558], [45.34418786627699, 36.06746368570048], [45.33188887647042, 36.05159902067822], [45.31958988486526, 36.03103180067706], [45.3136987714811, 36.01041290293312], [45.32021000248959, 35.99428985639173], [45.3202100024896, 35.994134827660176], [45.3202100024896, 35.99408315171604], [45.32031335437779, 35.99403147397331], [45.32052005995282, 35.99397979802924], [45.338090047317806, 35.979303691412234], [45.35958744330583, 35.97687489955697], [45.36293932502678, 35.97779471826998], [45.39825439453125, 35.97356075349624], [45.432586669921875, 35.99356320483023], [45.49163818359375, 36.00022956178002], [45.52618727942953, 35.99807946062847], [45.53998986833774, 35.99397979802925], [45.576938517298686, 35.96622955345114], [45.589857626528214, 35.959614971453725], [45.6170394294261, 35.95542918041239], [45.646856729754234, 35.933208313113155], [45.69321049047177, 35.879878235192415], [45.71873864787029, 35.82830515645779], [45.731037639475474, 35.81512766660853], [45.74902103709114, 35.81099355151116], [45.755947777677946, 35.81269202640618], [45.762176513671875, 35.80444911191491], [45.7965087890625, 35.81558597375359], [45.79716381243679, 35.81850713668551], [45.7979069424514, 35.81838328166312], [45.81418501772437, 35.809339905112516], [45.834752237725596, 35.81052846351777], [45.85134115499759, 35.817226127236886], [45.85693359375, 35.818926727738734], [45.874786376953125, 35.81224507919506], [45.890382554084894, 35.83437502322038], [45.89877933769624, 35.83218088823737], [45.90911462454029, 35.831302389093935], [45.91218691744663, 35.832166780286805], [45.95855712890625, 35.82449433864731], [45.96433506016232, 35.839484098128224], [45.98989135663807, 35.83852988540468], [46.023101806640625, 35.833401703805094], [46.053314208984375, 35.852326534859166], [46.07870803912236, 35.85644287883654], [46.10737654951207, 35.847544097563784], [46.110992431640625, 35.84564769832635], [46.1175510867937, 35.84458438255229], [46.11985111473711, 35.84287790938804], [46.124812052134466, 35.822465719017714], [46.129101195963415, 35.81554107685922], [46.135199014922584, 35.81001169958024], [46.14336389143041, 35.804533996446764], [46.1635177002816, 35.797506002400056], [46.18496341942624, 35.798177795968535], [46.19929756362758, 35.800723763067154], [46.20574951171875, 35.793310688351724], [46.2203624342711, 35.8044652119351], [46.227441447464805, 35.80572255485204], [46.24640669791075, 35.8114069635605], [46.25137441632359, 35.814228507378914], [46.27716064453125, 35.817813158696616], [46.28502086871033, 35.82800995612706], [46.302992390886125, 35.826548157271645], [46.319632202264316, 35.816884663996], [46.32707360836034, 35.80350046947109], [46.32505822765509, 35.78784250912447], [46.31337935367425, 35.771512757008104], [46.29751469045056, 35.75988555897134], [46.26712894754286, 35.74412424853524], [46.25348636880084, 35.72774281957544], [46.2395141145157, 35.71682410443422], [46.209869384765625, 35.72310272092266], [46.184602930986415, 35.71507557557363], [46.177728718905215, 35.7153921511269], [46.12760258009496, 35.693688050463166], [46.10725990426371, 35.68985463049751], [46.045074462890625, 35.705262263265716], [46.012115478515625, 35.68630240145625], [46.011488452798595, 35.68120884228933], [46.00378584803844, 35.67425771112442], [45.99587935394904, 35.65839304610217], [45.99236535647601, 35.640874736479866], [45.9923136805319, 35.62438995383328], [46.00202884975158, 35.58594268810452], [46.00086667915448, 35.580196401775126], [45.97366333007801, 35.58473476410106], [45.977682894343886, 35.57750658325388], [45.96869755015178, 35.579741516357906], [45.96389164238538, 35.5797415163579], [45.95934411613805, 35.578707988482876], [45.96802575748268, 35.558502503687585], [45.97923954347017, 35.5394855754989], [45.98311527524971, 35.53529978445751], [45.984562215174094, 35.53106231747195], [45.98321862803721, 35.526979879218], [45.97923954347017, 35.523000794651], [45.97133304848138, 35.51803985635431], [45.96606205272156, 35.51147694940173], [45.96358158402288, 35.50341542658067], [45.963994995172875, 35.49416534445507], [45.97701745629055, 35.46532989515849], [46.04099287941785, 35.38156239838595], [46.09628666209976, 35.341151429694726], [46.12016117309963, 35.31851715124547], [46.12739587451996, 35.28906158432467], [46.12528544087035, 35.28498934168475], [46.12005782031214, 35.27490224344379], [46.10765547681876, 35.262758281469466], [46.098767130798436, 35.25004587961367], [46.101454305072096, 35.23428456647955], [46.115406942176605, 35.22632639644604], [46.154164266267856, 35.22663645570781], [46.16925378403489, 35.21624949202044], [46.16548140504279, 35.18994618736661], [46.14382897942388, 35.159612122201686], [46.13039310715612, 35.13139679052947], [46.15106367994486, 35.111604715984825], [46.14310550991134, 35.09951243085398], [46.13235681191732, 35.09475819903164], [46.119954468423956, 35.092742818326414], [46.094529662913615, 35.08581817616792], [46.07664961718605, 35.089693908846805], [46.0665727136598, 35.08881541060272], [46.03975264506853, 35.075534566167285], [46.025076538451465, 35.06426910423578], [46.02042938246913, 35.06328517879644], [46.01348876953125, 35.06934514757889], [46.001129150390625, 35.064849103829204], [45.944824218749886, 35.08957427943165], [45.933837890625, 35.08620310578525], [45.92010498046875, 35.09406896086629], [45.920269902803646, 35.08961489627816], [45.92017338089684, 35.089642232902705], [45.91319706189488, 35.08731679293564], [45.89939945442126, 35.06860992490809], [45.8983659274456, 35.06390736902987], [45.901156454506754, 35.051608378324], [45.89908939605875, 35.04690582334507], [45.893094929887084, 35.04437367870228], [45.87903894089436, 35.04323679624117], [45.87247603394181, 35.04142812111089], [45.861882364679396, 35.03279815750893], [45.857024780069544, 35.02127431225966], [45.85681807449455, 35.00804514646634], [45.859711955242524, 34.99440256862365], [45.85971195524254, 34.99424753809337], [45.868962036468766, 34.968357646388256], [45.866326538139226, 34.949547425573215], [45.85785160326885, 34.931305644639814], [45.850203492497144, 34.90681101511627], [45.84657163805087, 34.902833270271955], [45.825347900390625, 34.9118363580797], [45.78826904296875, 34.90958403746169], [45.78899029926541, 34.906203278041346], [45.77826989843703, 34.91089345337015], [45.75511885605035, 34.90996327738335], [45.748504272254316, 34.89073964541833], [45.750467977015504, 34.865366517650706], [45.7454036868307, 34.84097524001527], [45.73942263475058, 34.8375495256151], [45.737457275390625, 34.84198569469109], [45.70452214375831, 34.82396214974828], [45.68923140500535, 34.82263010719371], [45.67657067909352, 34.81828928742071], [45.66675215618705, 34.80692047270164], [45.66359989391992, 34.79493153945897], [45.66592533388701, 34.7747260546637], [45.66282474846333, 34.76325388625779], [45.63502282704185, 34.73695058340271], [45.6273747153708, 34.72082753506265], [45.64225752846216, 34.70687489885748], [45.65052575685816, 34.70299916617852], [45.65951745566608, 34.6972114064812], [45.66685550987389, 34.68997670506088], [45.67036950644752, 34.68181182945237], [45.67347009277051, 34.67116648424583], [45.678379354223814, 34.66512034123076], [45.68349532035274, 34.6602110806768], [45.68762943545007, 34.65323476257422], [45.69078169771716, 34.63432118807237], [45.691246785710575, 34.61551096635799], [45.69445072392176, 34.59856109751663], [45.70561283396506, 34.58559031234303], [45.708558390657174, 34.57907908133452], [45.7083000082388, 34.5683820601839], [45.70561283396508, 34.55773671497743], [45.70153039571119, 34.5512771617116], [45.6955876054836, 34.550243632038004], [45.67357344645734, 34.55665151025899], [45.60484379150775, 34.56114736056225], [45.5739412846625, 34.56729685546548], [45.569102223457705, 34.56940301311295], [45.558929443359375, 34.591389093621565], [45.5328369140625, 34.59930237746263], [45.5287899229042, 34.58486183842851], [45.500664103465574, 34.59168813130221], [45.49652998836827, 34.564247945086564], [45.50484989540633, 34.52378529955188], [45.50345463142606, 34.494174703000105], [45.49870039870438, 34.48624237048901], [45.49301599089522, 34.479007669967984], [45.489845240410766, 34.475950160603546], [45.46966552734375, 34.4793919710481], [45.44497830058371, 34.46088908088448], [45.42676680554359, 34.45751027487925], [45.41705163542465, 34.44435862345174], [45.44795414226986, 34.36208974344689], [45.4607698978125, 34.34046315535034], [45.47927006026504, 34.32914601747474], [45.49875984495368, 34.34209713025048], [45.500212932287845, 34.34240563258221], [45.52154138182932, 34.34250437447729], [45.542211955517324, 34.331600646852344], [45.55755985480345, 34.31196360283798], [45.56303755703762, 34.289277649344], [45.56102217633238, 34.264602153566514], [45.547689656852185, 34.2164913954615], [45.54272871945483, 34.20747385733262], [45.528672730462134, 34.18856028283079], [45.52665734885756, 34.179310202503814], [45.531463257523306, 34.1679155484638], [45.53880130993248, 34.15923390711907], [45.54453739548441, 34.15062978103956], [45.54453739548439, 34.13949351031723], [45.53435713737198, 34.12820220996402], [45.49394616688209, 34.100684509382596], [45.47927006026505, 34.08763621164187], [45.454878784428345, 34.069859518701826], [45.443613322496795, 34.04766448982435], [45.43519006446985, 34.02213633242577], [45.419945516172625, 33.994360250325265], [45.41994551617264, 33.99425689843711], [45.41973881149694, 33.99425689843711], [45.41147058130225, 33.98715138822598], [45.401755412082615, 33.981622009148396], [45.38036136888207, 33.97356048632737], [45.40103194167074, 33.94945343043145], [45.423717895164714, 33.93878224770252], [45.449711141455985, 33.937386984621654], [45.47927006026504, 33.941185201136086], [45.481750528963744, 33.94087514367295], [45.48392093929989, 33.94004832047357], [45.48578129037424, 33.93865305649338], [45.57476810696257, 33.80393259771118], [45.58820397923024, 33.79150441489679], [45.60360355625908, 33.78072987938046], [45.61672937016425, 33.76868927019367], [45.62391239384186, 33.752075297237184], [45.628201539469444, 33.73184397402014], [45.63512617982931, 33.71417063386767], [45.645151408310824, 33.69791839611709], [45.65879398615352, 33.6816919976875], [45.67398685670806, 33.669031270876424], [45.72111576378143, 33.640764262360776], [45.724629622758876, 33.63303641319987], [45.727988729096516, 33.625648905272726], [45.72773034667813, 33.59009552029202], [45.734551636049176, 33.583119202189444], [45.75201826972734, 33.58676238997232], [45.76845137642987, 33.59590911931038], [45.78406119196987, 33.6084690598916], [45.81438471875121, 33.625305394659584], [45.81578698727966, 33.62580393490367], [45.86436283337803, 33.62642405342731], [45.88596358215357, 33.63091990193194], [45.88203617442987, 33.600198263139305], [45.89970951368308, 33.58516042131638], [45.92089685040931, 33.57299062092038], [45.9279248453553, 33.55087310820737], [45.91562585554881, 33.53580942796271], [45.86818689011287, 33.51157318265622], [45.85258060840836, 33.49436493049713], [45.86973718282469, 33.48211761483607], [45.899399454421264, 33.476304017616314], [45.929681845440776, 33.47950795492821], [45.936107181273364, 33.48463207132282], [45.937957763671875, 33.48185394054361], [45.95123077394637, 33.495690686458595], [45.95314294439135, 33.49658701587805], [45.95815555953142, 33.497388001555045], [45.96327152476102, 33.496561177456314], [45.96448744683817, 33.49599121412322], [45.96823246215839, 33.4942357383886], [45.971384725324846, 33.49276296004257], [45.97443363480438, 33.49079925528143], [46.008023315023934, 33.45565928145069], [46.019392131541636, 33.43839935334745], [46.02745365436265, 33.41951161726732], [46.03050256384223, 33.39920278058386], [46.031071005522456, 33.382511291462926], [46.036238648494816, 33.36793853853271], [46.06972497592689, 33.340860088422346], [46.10951582879245, 33.29370534292725], [46.14134851072515, 33.27210459415169], [46.15530114782967, 33.260219015495124], [46.16418949385001, 33.243346659220954], [46.16439619942504, 33.23306304922038], [46.158350057309306, 33.213865255677014], [46.15767826374088, 33.20567454164677], [46.162122436301395, 33.1963727835771], [46.17369795749471, 33.19022328687516], [46.174318074219755, 33.181179911223936], [46.16718672648621, 33.16833831815882], [46.15344079585599, 33.154256491643785], [46.126465699432465, 33.13177724192617], [46.106405146906006, 33.11904272670514], [46.0546875, 33.123750829710225], [46.0514162694187, 33.11518808350464], [46.05039799027504, 33.11511159302558], [46.0302958573679, 33.10568064464601], [46.02931400543698, 33.093510844250034], [46.04326664344081, 33.08345977824618], [46.08719161050444, 33.079222310361345], [46.106001831319425, 33.07250437557646], [46.12041955641736, 33.06167816231732], [46.1261556392713, 33.04798390853051], [46.11948938043054, 33.03100819946884], [46.105941915679054, 33.0191836706724], [46.09588623046875, 33.016724505691684], [46.09588623046875, 33.01208357336249], [46.08801843280442, 33.00672027641964], [46.07571944209856, 32.99449880007957], [46.07571944209856, 32.9943437704486], [46.09701013251156, 32.954320374485725], [46.15555952934874, 32.948351745836355], [46.273433472077066, 32.959488017458], [46.37962853992514, 32.93176361130162], [46.479312377664094, 32.8917918903834], [46.507321004660646, 32.868020732171026], [46.60061305934518, 32.8225414767078], [46.604421020913385, 32.82068512042194], [46.6503613686822, 32.78936920242676], [46.71588708542059, 32.75601206530457], [46.75733158378553, 32.716195374017275], [47.058398479506195, 32.49447764093038], [47.05860518418187, 32.49447764093037], [47.05865686012595, 32.494400127463926], [47.09059289574556, 32.4745563760759], [47.12103031549663, 32.46104298944236], [47.152552938167574, 32.45517771447994], [47.18779626478579, 32.458381653590486], [47.19072891393559, 32.45932061566118], [47.249450683593636, 32.465743313283596], [47.26961536360846, 32.48343407452259], [47.321948282787, 32.46822601312], [47.34334232598753, 32.45869171195296], [47.356106404686784, 32.4461860156721], [47.36732019067426, 32.43076060022152], [47.38411503078401, 32.41257049613148], [47.41083174748713, 32.39528473050587], [47.416412800710134, 32.38797251471977], [47.41796309432128, 32.37642283104882], [47.41434574406083, 32.36985992499554], [47.40876468903913, 32.36433054591796], [47.39997969580629, 32.34577870842067], [47.395948934395804, 32.34198048920823], [47.39579390476486, 32.33701955271019], [47.402460165404314, 32.32350616517741], [47.4070593666964, 32.31777008142409], [47.436876667923855, 32.2936888630506], [47.44157922380214, 32.288185323293995], [47.445351602794226, 32.28263010759339], [47.46302494294674, 32.2618303435955], [47.46943282026843, 32.25612009736462], [47.47914799038746, 32.252063498431745], [47.48452233893476, 32.239351095676504], [47.50400435421757, 32.22674204660817], [47.50922367313399, 32.213797098956945], [47.50767338042217, 32.19984446365107], [47.50235070781888, 32.19012929443136], [47.4964079184906, 32.1813442993999], [47.492480509867605, 32.17049224951768], [47.490413452318954, 32.156539612413155], [47.491343628305806, 32.148633118323765], [47.498164916777455, 32.144137268020486], [47.51382287622472, 32.14031321218504], [47.52669030771154, 32.13338857002649], [47.53475183143185, 32.12315663686928], [47.54364017745219, 32.114578349211406], [47.558729696118576, 32.1129763805555], [47.57805668177044, 32.10615509028512], [47.58023235583851, 32.10349519604644], [47.59500655241043, 32.08543284245174], [47.6177958577926, 32.04186960969469], [47.63314375797802, 32.02693512065931], [47.66807702623373, 32.012414043673175], [47.677947225084324, 31.994689026677257], [47.677947225084324, 31.99453399704631], [47.68264978006329, 31.97691233463652], [47.718409872417695, 31.92234202146708], [47.725231160889365, 31.91433217459021], [47.74331791219186, 31.904255269265263], [47.750966023862865, 31.898209127149453], [47.75654707888459, 31.88916575149826], [47.7617147218569, 31.87164744097659], [47.765280395273976, 31.864102682093062], [47.78135176587124, 31.848858134695128], [47.82078088443024, 31.823588359715036], [47.83447513821705, 31.80570831308813], [47.83726566617752, 31.78446930041786], [47.83132287594992, 31.76183502196867], [47.67892907701527, 31.407851461275953], [47.676443173713494, 31.23651701914508], [47.67293461084358, 30.99469838522233], [48.00154504376872, 30.994646708378863], [48.012242065818675, 30.989065653357244], [48.01544600402985, 30.976249899613137], [48.012035359344324, 30.49457387328563], [48.01203535934436, 30.494522196442198], [48.0135856529555, 30.463878072015408], [48.108637176671465, 30.45213586748109], [48.15102623706248, 30.432492205483637], [48.15765954575143, 30.426309306329433], [48.170475301294125, 30.406672261415757], [48.17946700010197, 30.38486480706518], [48.187683553453226, 30.34083648721416], [48.19207605006961, 30.33127634762533], [48.2000858969466, 30.32393829341747], [48.20301956889367, 30.322805759873265], [48.20320129394531, 30.322507751454424], [48.2135009765625, 30.31539496677952], [48.221543443679735, 30.318287687536582], [48.222978556015526, 30.318098856876723], [48.23507084114635, 30.318512268026733], [48.2716577558008, 30.323834941529338], [48.28426680486912, 30.323318177591855], [48.28803122972027, 30.322208154445004], [48.2965850830077, 30.314209452465885], [48.368682861328125, 30.23652704486517], [48.39813974802399, 30.219559042207397], [48.40358768842107, 30.212523906652955], [48.40870365365067, 30.20234364943988], [48.41061568246774, 30.191543275501783], [48.40803186008226, 30.180897929395897], [48.40074548451645, 30.1722679648947], [48.39113366718501, 30.164774881955246], [48.383278849039634, 30.156454977615144], [48.3811084405021, 30.145344544415195], [48.38307214346464, 30.13841990135735], [48.385206624038624, 30.13445964665535], [48.38310241699219, 30.132063138221763], [48.38653564453125, 30.1130578040595], [48.41606140136719, 30.09404881287048], [48.416909294676174, 30.09312739798196], [48.42120935083084, 30.085348205855002], [48.42394820194796, 30.08364288441159], [48.44218998198205, 30.03393015585201], [48.444257040430045, 30.020907695633664], [48.44735061667844, 30.014127007483832], [48.44764709472656, 30.006084698652703], [48.453755769759276, 30.000564360799412], [48.45779626548525, 29.994862772498923], [48.464307496493745, 29.98912668964502], [48.47815677901213, 29.979618225101017], [48.49303959120415, 29.97176340785498], [48.5015642708175, 29.96965714299705], [48.517684936523324, 29.960288706229534]]]}, "properties": {"NAME_FULL": "Republic of Iraq", "NAME_SHORT": "Iraq", "CODE": "IRQ", "DEMONYM": "Iraqi", "LANGUAGE": "Arabic, Aramaic, Sorani", "STATUS": "Sovereign state", "REGION": "West Asia", "DATASET": "WORLD"}}]}