{"type": "FeatureCollection", "features": [{"type": "Feature", "geometry": {"type": "Polygon", "coordinates": [[[98.8055419921875, 51.96626938051444], [98.81419159980213, 52.00461384890329], [98.83854536967307, 52.0252751669154], [98.8465035415052, 52.039331157706734], [98.84888065741643, 52.05630686496991], [98.8496041260296, 52.09012909008546], [98.85559859220125, 52.10669138619844], [98.8863977462589, 52.128550517392554], [98.92763553904888, 52.12958404616677], [98.93765156296922, 52.12468748853671], [98.96246545541644, 52.112556661161], [98.97445438686046, 52.08038808244403], [98.99471154849923, 52.058296407253366], [99.02509729140688, 52.04553232945343], [99.19873010301188, 52.00659413730958], [99.23283654806824, 51.99424347065963], [99.25598759045492, 51.97791371764391], [99.27469445848246, 51.9594910695572], [99.29536503127113, 51.94354888926981], [99.32389042220517, 51.93422129457715], [99.55684777880191, 51.89145904659776], [99.67932092282231, 51.88866851953658], [99.70965498888665, 51.88058115649517], [99.78396569885798, 51.83761220294074], [99.84767889085676, 51.79008175418774], [99.86846923828125, 51.76614013468048], [99.89372189171021, 51.76340484310824], [99.91791101128418, 51.749478047973554], [100.00596765188565, 51.73172719345516], [100.03852769714487, 51.73417010879682], [100.04974365234375, 51.730430542940184], [100.07014218236495, 51.736542080652136], [100.0982617594726, 51.73865183651305], [100.2102962647608, 51.726223654597966], [100.51089807248802, 51.726895447267054], [100.57110111482461, 51.70480377207642], [100.63890059468673, 51.692039693377154], [101.0694686284744, 51.55344350191606], [101.11701094579853, 51.52783783015177], [101.15876550342527, 51.5212232463557], [101.20072676752628, 51.5209131879932], [101.24155114736755, 51.51517710423997], [101.27968835473376, 51.49259450443283], [101.31544844618882, 51.463604025505326], [101.35017500797025, 51.45045237227912], [101.38779545139894, 51.45055572506666], [101.40658578973273, 51.45500606845059], [101.43402099609374, 51.45571839040817], [101.44017717483152, 51.46296192298475], [101.48205326374718, 51.472879944254], [101.52639164286003, 51.4758255009461], [101.56985152193019, 51.47008941719287], [101.62353515625, 51.455550882317645], [101.62353515625, 51.45229536554372], [101.63500627590788, 51.45244428800232], [101.64369714390799, 51.45009063797254], [101.69661381067883, 51.45244191546196], [101.7236922607892, 51.45058156348834], [101.74219242414101, 51.44484548063441], [101.79531579648682, 51.41939483760165], [101.82177412987221, 51.413581239482596], [101.86837732073208, 51.41561073319034], [101.90643310546875, 51.4094858955551], [101.92424928791195, 51.41107338569436], [101.95561609041023, 51.39378916493798], [101.97421960475097, 51.387226257985404], [102.05121748899586, 51.383608908624176], [102.07467858884579, 51.374823914492055], [102.09126672427992, 51.364643656379656], [102.13803240909226, 51.34406623321043], [102.18371665290825, 51.29297670967836], [102.1834925750897, 51.29264674890507], [102.1563720703125, 51.277380592622485], [102.1234130859375, 51.282534682474655], [102.10693359375, 51.23956626148356], [102.1487460437649, 51.194660637212294], [102.15002282849072, 51.18540395133128], [102.14911209842478, 51.1732039717688], [102.1343994140625, 51.16901107945215], [102.139892578125, 51.10179728957702], [102.14686772524615, 51.09686900231874], [102.15656070779313, 51.07627473354301], [102.15362548828125, 51.07074253510442], [102.1643691234863, 51.0596845240055], [102.16537072777683, 51.05755645786423], [102.19198409079311, 51.02058197048157], [102.21937259926605, 50.99265085964942], [102.22965620926658, 50.97926666332581], [102.23105147324682, 50.96490061507132], [102.22796631283256, 50.956925766921486], [102.2222900390625, 50.949775776224485], [102.22306663960941, 50.94769510756662], [102.21523848506797, 50.93818389926756], [102.2341614930746, 50.91796976941151], [102.23811717384469, 50.90737170708523], [102.23187829644614, 50.8847504694586], [102.21275801636934, 50.85674184246207], [102.20304284714966, 50.82935333308982], [102.21678877777978, 50.79886423739464], [102.24567590391986, 50.778762105386846], [102.30753259265497, 50.74822133464688], [102.32939172384893, 50.718817445468694], [102.32671472621452, 50.71217788586447], [102.3046875, 50.68427770577119], [102.30654695718147, 50.683733707097026], [102.29683557240374, 50.674944153449886], [102.27590661629735, 50.65019114240727], [102.27156579742365, 50.62094228106143], [102.28241784730578, 50.590608215896374], [102.30293339046365, 50.563891500092616], [102.32763472646148, 50.54554636637172], [102.3726965741875, 50.53366078861457], [102.47186364798893, 50.524927470426405], [102.51310144077887, 50.503688456856764], [102.58658532845014, 50.41527008104937], [102.61779789275857, 50.399302063239595], [102.61952941505041, 50.3990091504519], [102.76259525596627, 50.37480743551471], [102.88713545843463, 50.31496612658545], [102.92739139839429, 50.30297719334279], [102.97410689341844, 50.29563914003429], [103.13001468982606, 50.30912668914538], [103.2016899014678, 50.2969827271711], [103.24018884314057, 50.24437612056144], [103.2531079514708, 50.21497223048402], [103.26324462890625, 50.20751358296476], [103.26324462890625, 50.194484528931746], [103.28223195522875, 50.19625232317939], [103.30659305812313, 50.19042592411709], [103.40710371906137, 50.19729888943216], [103.43872969631842, 50.192596334453285], [103.47397302293668, 50.182002665190815], [103.53391768375407, 50.15378733441791], [103.60140710435432, 50.13353017187993], [103.66806970265468, 50.13120473371146], [103.69020675986845, 50.14158025904088], [103.71917724609375, 50.13290377086724], [103.7713623046875, 50.16634316943973], [103.82080078125, 50.17162093714734], [103.84300883216792, 50.18474791837122], [103.84542321820709, 50.18468984036385], [103.97399418118647, 50.14872304333376], [104.03951989792489, 50.14117828445025], [104.12168542514226, 50.148257955340334], [104.13307327844682, 50.15149952807243], [104.14764404296874, 50.15050636899785], [104.17498410449299, 50.163429519376116], [104.19811486950555, 50.17001373284744], [104.2143024809346, 50.18201460159817], [104.26300048828125, 50.20503326494332], [104.30145263671875, 50.23490869265562], [104.35234115357287, 50.2736413300185], [104.37722538244552, 50.2891795858692], [104.40580245022291, 50.3005484014875], [104.47411869312315, 50.31326080334341], [104.57695479312919, 50.309488424351315], [104.59467653461056, 50.311977125495666], [104.60906982421875, 50.31039245071915], [104.62477066031444, 50.320413900693225], [104.63245528228543, 50.32375111891898], [104.67188439994506, 50.34829742438664], [104.69705082213774, 50.353206685839886], [104.73367443239255, 50.35298162453826], [104.78759765625, 50.340201864627815], [104.81490667582455, 50.35761869949619], [104.81849043828308, 50.35832265286808], [104.87900353988154, 50.383902486210715], [104.90158614148729, 50.38979360049421], [104.9342456475186, 50.39325592112388], [105.05010420774292, 50.38348907506083], [105.07821618752699, 50.38514272145939], [105.09484215529982, 50.38810607369054], [105.1007080078125, 50.387507803003146], [105.11461632934666, 50.39282526180583], [105.13133955897344, 50.39806182889028], [105.13832586249696, 50.401889940491046], [105.25177001953125, 50.44526214970796], [105.281982421875, 50.467994531475696], [105.34015872381664, 50.47443401155595], [105.35459007323601, 50.47190198536821], [105.44677734375, 50.44176389056172], [105.49114144096315, 50.44794361328473], [105.6393705649995, 50.42193634168883], [105.77925866765338, 50.42891265889204], [105.8065438233388, 50.424365133544036], [105.85470625828711, 50.41092926037703], [105.9042122803725, 50.40379791354286], [105.95805912312998, 50.40359120706855], [105.98487919172142, 50.399767151232965], [106.03893273915452, 50.3713967899299], [106.043273559827, 50.364782206133874], [106.043273559827, 50.355532124907604], [106.04446211823209, 50.346023661262926], [106.04818282128016, 50.33811716717349], [106.05593428573876, 50.33356964182549], [106.13530928589478, 50.327110088559735], [106.16094079608085, 50.31961700562028], [106.20119673693985, 50.299721578288185], [106.22228072087856, 50.292383524979705], [106.2448633224843, 50.29026479148691], [106.4298365599185, 50.326013860279296], [106.48773193359375, 50.32091555536218], [106.50051196813936, 50.33233644389887], [106.54820398042929, 50.335791728105775], [106.65651778177016, 50.32700673487292], [106.74617639192695, 50.307421367701956], [106.78829268386025, 50.29150502583627], [106.93644901580936, 50.20913279214462], [106.97365604718877, 50.19636871344533], [106.98269942284001, 50.1871186322191], [106.99799564618215, 50.149808248052196], [107.0060571699025, 50.140196432519296], [107.02621097875361, 50.125727031477375], [107.03360070800623, 50.118802388419475], [107.03923343897203, 50.108260396899794], [107.04843184425418, 50.08464426741897], [107.05711348469957, 50.074102274999994], [107.07029097544823, 50.06624745685462], [107.10072839340057, 50.056790670053374], [107.11462935546034, 50.05048614641849], [107.16449711095292, 50.01886016916144], [107.19219567868755, 50.00604441451812], [107.20020734444584, 50.00384215580727], [107.2100830078125, 49.99538113346378], [107.29522705078125, 49.988318060767966], [107.3089599609375, 50.00597379753065], [107.31661401963895, 50.00328964363495], [107.36407149290501, 49.976123760503135], [107.39509326763766, 49.97576824780248], [107.39959716796875, 49.97418880321091], [107.41531479753233, 49.97553650700859], [107.5941974741202, 49.97348649330038], [107.64678955078125, 49.96182229868413], [107.70429429734453, 49.972224772483436], [107.72932051642863, 49.97193796946167], [107.7446041447656, 49.96735288033117], [107.7505078531548, 49.9655817671848], [107.75301291488962, 49.96438786545498], [107.7978515625, 49.93177612998566], [107.81800301243949, 49.94474427349223], [107.83918461138065, 49.94656483989544], [107.850966838149, 49.9460480759579], [107.86405826066043, 49.94312613938043], [107.8802490234375, 49.93531194616915], [107.89633948888371, 49.9359211392035], [107.89819909711059, 49.9355060844382], [107.94651656079056, 49.93349070283362], [107.95649011242871, 49.92336212246401], [107.95547318060233, 49.916569018071456], [107.91595458984375, 49.868087070275315], [107.930729806175, 49.85336456570592], [107.93003177904333, 49.8514285284039], [107.93235721901043, 49.83029286852105], [107.95003055826368, 49.78249216787925], [107.9557666429162, 49.745543518018934], [107.95483646692936, 49.73277943931965], [107.95213497164595, 49.72679027595083], [107.940673828125, 49.713824623405046], [107.94245737955956, 49.7090645775731], [107.92682784083209, 49.68286000608445], [107.92744795845653, 49.670044251441034], [107.93948856674393, 49.66322296207], [107.96034102909628, 49.66133565325509], [107.962646484375, 49.65518272008055], [107.99298155598667, 49.66266296206261], [108.00279219630286, 49.66317128522661], [108.01581465742048, 49.65572987913061], [108.00754642812518, 49.633612366417516], [108.00527266500146, 49.61779937733941], [108.01571130373361, 49.60224477247826], [108.03266117347435, 49.589325663248765], [108.10619673708985, 49.55434071904892], [108.12645389872843, 49.54715769447196], [108.20991133623916, 49.5402330532128], [108.23636967052389, 49.532481587854996], [108.25052901230401, 49.52240468342942], [108.25952071111196, 49.509640605629436], [108.26727217646969, 49.49584299725652], [108.27714237532031, 49.48251047867565], [108.33486494985749, 49.436363424432436], [108.43888064000627, 49.37645565334489], [108.4405517578125, 49.36448907111148], [108.52844238281249, 49.32512199104001], [108.54208439958808, 49.32721362921703], [108.56997265291561, 49.325718884319066], [108.60843998341852, 49.32365712647518], [108.75106693539072, 49.341175436097515], [108.76856200807866, 49.34107488963236], [108.83056640625, 49.337651296668845], [108.9404296875, 49.34659884833293], [108.96728338222321, 49.341308506299576], [109.03296187329174, 49.32789459346074], [109.03490456014829, 49.32798672083915], [109.05853271484374, 49.32333182991094], [109.12387755120194, 49.340362690479886], [109.16060266118383, 49.346653137432384], [109.25720241851367, 49.34043749817456], [109.32963415353849, 49.32586183622815], [109.3363025312368, 49.32334706631403], [109.37829808121839, 49.31255047918824], [109.4622802734375, 49.26421999734763], [109.5721435546875, 49.215803037974844], [109.70672607421875, 49.22297891606676], [110.07476806640625, 49.17811258315209], [110.18463134765625, 49.160154652338015], [110.19586104531986, 49.16309093090732], [110.22503381375954, 49.16537221325701], [110.26833866409812, 49.177051086338565], [110.29367776182686, 49.188667499128776], [110.335693359375, 49.19965350270188], [110.37512324372332, 49.24114110246444], [110.38223352046062, 49.24004465843424], [110.43328983615702, 49.2026309214798], [110.45127323467203, 49.19456939865882], [110.50822066285326, 49.184337464602315], [110.60361535676338, 49.14532175719332], [110.64495650234068, 49.13674347043478], [110.68805464710441, 49.1345213832552], [110.7313594974428, 49.13767364642161], [110.8410168868198, 49.16242665746429], [110.9655570883889, 49.207385152402836], [111.07546582643916, 49.26086225312092], [111.0992431640625, 49.26780455063753], [111.26016131381897, 49.31972948935293], [111.27354862536873, 49.32283030237654], [111.28416511721134, 49.327475017262444], [111.37115478515625, 49.35554477312124], [111.51947021484375, 49.32512199104001], [111.68426513671875, 49.380584708211565], [111.98638916015625, 49.38773663303067], [112.33795166015625, 49.49667452747045], [112.5384521484375, 49.516293312888465], [112.61160561651077, 49.516798554279596], [112.6713961195352, 49.495946350044], [112.70147180228186, 49.49129547190851], [112.73371789626394, 49.49279408867624], [112.77712609938987, 49.501372375434784], [112.86807661984017, 49.53165476645429], [112.9261609304826, 49.56653635696731], [112.9399506764655, 49.57275855990843], [112.95443049026615, 49.57828317474621], [112.9697758382844, 49.58302113961389], [112.99282352698414, 49.587155254711206], [113.04367313710554, 49.58860219463555], [113.06082971242122, 49.595991922988816], [113.0715784104152, 49.61774770139527], [113.07416223190152, 49.6533527632194], [113.07715946543689, 49.66901072266671], [113.07724916139969, 49.669170381486424], [113.16672539051923, 49.78684330979457], [113.1826827397166, 49.80197418226267], [113.21244836499996, 49.82202463832633], [113.32460286498564, 49.87744551362574], [113.47503662109375, 49.94238280025969], [113.48924838333214, 49.97133531758114], [113.5022207684668, 49.977278840596156], [113.63433837890625, 49.993615462541136], [113.72222900390625, 50.0677178281599], [113.74489476289487, 50.07609513907654], [113.75226037611544, 50.07859812440386], [113.77313765537853, 50.081647033883485], [113.8158223880927, 50.07689280206114], [113.83680301924399, 50.07694447890458], [113.84982548036162, 50.08071685789667], [113.97292508361876, 50.16037561237041], [113.99776339029277, 50.16955590135855], [114.03513716684675, 50.176938375006], [114.05529097479861, 50.183811340321114], [114.0807800508257, 50.20023902901797], [114.22210693359375, 50.25247373417045], [114.32759024407461, 50.272859694363845], [114.33300012345707, 50.27233306891604], [114.42498417178221, 50.24184397412006], [114.47304325394292, 50.23404083371751], [114.47563216001058, 50.23428166218253], [114.49676513671875, 50.22788086350316], [114.65057373046875, 50.245448494340785], [114.82612789243112, 50.2089120192699], [114.99735233614138, 50.14433054761667], [115.01523238186887, 50.13285837831152], [115.0280481374116, 50.11988759403722], [115.04964888528772, 50.09084543916569], [115.06339481681731, 50.07751292058481], [115.21015588388691, 49.97167958614397], [115.36869917952355, 49.895405172310866], [115.38781945870099, 49.891064352537775], [115.45014123542965, 49.89142608684441], [115.4729822194538, 49.887085266172065], [115.50853560443451, 49.88677520870897], [115.57819543447168, 49.893648173124696], [115.68340865128826, 49.87768015621431], [115.71627486199523, 49.877783509001695], [115.75089807188859, 49.88496653357863], [116.03177968905275, 49.990261177817395], [116.06566732564822, 50.000801361398835], [116.13537072827656, 50.01441599660091], [116.2176396082813, 50.01384755492067], [116.30052860591044, 49.99297027745631], [116.57544722480964, 49.92176015290871], [116.61720178243627, 49.89731720022862], [116.65337528504136, 49.86383087189725], [116.68427779188666, 49.82326487357505], [116.69282243263146, 49.81841207472427], [116.4083862304687, 49.42169406084926], [116.03759765624994, 48.86832824998009], [116.070556640625, 48.82494916931076], [115.78491210937494, 48.525700252688765], [115.8123779296875, 48.26125565204099], [115.52673339843744, 48.156925112380684], [115.565185546875, 47.91818280779199], [115.9442138671875, 47.68018294648414], [116.1117553710938, 47.818687628247105], [116.25457763671875, 47.87398630840817], [116.44134521484375, 47.83528342275264], [116.685791015625, 47.892406101169264], [116.83959960937494, 47.89608927375508], [117.08404541015625, 47.82053186746053], [117.3724365234375, 47.63763431783611], [117.45758056640625, 47.746711194756], [117.806396484375, 48.011975126709956], [117.88330078125, 48.021161285657804], [118.02062988281244, 48.011975126709956], [118.11676025390625, 48.04136507445029], [118.201904296875, 48.039528693690556], [118.245849609375, 48.01748701847852], [118.31451416015625, 48.00646264573117], [118.3969116210937, 48.0156497866894], [118.4326171875, 47.99727386804474], [118.55621337890625, 47.99175981578037], [118.7457275390625, 47.77440623229445], [119.12200927734375, 47.66168780332917], [119.12750244140625, 47.543163654317304], [119.3362426757812, 47.47637579720933], [119.32525634765625, 47.42065432071318], [119.3966674804687, 47.396490013933416], [119.47631835937494, 47.33510005753559], [119.5477294921875, 47.301584511330795], [119.5477294921875, 47.253135632244216], [119.6136474609375, 47.247542522268006], [119.70428466796875, 47.202776377962714], [119.8004150390625, 47.05702528260841], [119.7866821289062, 47.00835281693705], [119.84985351562494, 46.9690080331196], [119.8416137695312, 46.922131240914], [119.9212646484375, 46.899615799267245], [119.89929199218744, 46.86019101567027], [119.92401123046875, 46.848921470800434], [119.9267578125, 46.7981792512332], [119.9020385742187, 46.76620587423741], [119.93499755859375, 46.71915170604123], [119.92401123046875, 46.66074749832068], [119.8114013671875, 46.6795944656402], [119.7454833984375, 46.61171462536894], [119.67681884765625, 46.592843997427416], [119.6493530273437, 46.62492015414768], [119.59167480468744, 46.61171462536894], [119.55596923828125, 46.62869257083747], [119.42962646484375, 46.63623661551964], [119.388427734375, 46.60794102560568], [119.3115234375, 46.60982785835103], [119.234619140625, 46.64377960861833], [119.1659545898438, 46.65132155014943], [119.1000366210937, 46.63623661551964], [119.00390625, 46.74927110475196], [118.9324951171875, 46.71915170604123], [118.90502929687494, 46.7248003746672], [118.91052246093744, 46.76996843356982], [118.8418579101562, 46.76996843356982], [118.78967285156244, 46.71350244599995], [118.7924194335938, 46.68901548485151], [118.66882324218756, 46.6965511173143], [118.6441040039062, 46.72668313278476], [118.564453125, 46.68901548485151], [118.44085693359375, 46.70408569832252], [118.38592529296875, 46.73233101286786], [118.27880859374994, 46.73233101286786], [118.19366455078125, 46.68901548485151], [118.12774658203125, 46.6795944656402], [118.07281494140625, 46.640008243515915], [117.9876708984375, 46.63435070293566], [117.99591064453125, 46.621147474556096], [117.92999267578125, 46.61171462536894], [117.86407470703125, 46.5720787149159], [117.86407470703125, 46.53997127029103], [117.7679443359375, 46.526745036021474], [117.68829345703125, 46.51540570001737], [117.6361083984375, 46.556971695640904], [117.61138916015625, 46.59850587595948], [117.5152587890625, 46.592843997427416], [117.42462158203125, 46.579630646972596], [117.44110107421875, 46.53052428878426], [117.38616943359375, 46.477590820859966], [117.37518310546875, 46.411351502899215], [117.3724365234375, 46.36019756701459], [117.23785400390625, 46.36398839132818], [117.09228515624994, 46.356406479672486], [116.98242187500006, 46.36588370484979], [116.82861328125, 46.379149058330746], [116.7626953125, 46.33175800051563], [116.70501708984375, 46.32417161725691], [116.58416748046875, 46.2957133089894], [116.56768798828125, 46.25394769073575], [116.4743041992187, 46.17412493440401], [116.40563964843744, 46.1322667089571], [116.2628173828125, 45.960696964286164], [116.23535156250006, 45.87853662114514], [116.2765502929687, 45.838367585245855], [116.28479003906244, 45.77327047688937], [116.22985839843744, 45.75027686430362], [116.1968994140625, 45.69275137290873], [116.09802246093744, 45.67740123855739], [116.0348510742187, 45.673563046842524], [116.01837158203125, 45.65244828675087], [115.9332275390625, 45.62940492064501], [115.68328857421875, 45.44857064811582], [115.52673339843744, 45.42544355958045], [115.36193847656256, 45.38494834654319], [115.20538330078125, 45.39266395850033], [114.96368408203125, 45.37530235052552], [114.7384643554688, 45.43700828867391], [114.54345703124994, 45.377231681380145], [114.52423095703125, 45.29421101337773], [114.4088745117187, 45.160737441973495], [114.1726684570312, 45.03665569548622], [114.15893554687494, 44.99588261816546], [114.0875244140625, 44.929807512153914], [113.89801025390625, 44.91035917458495], [113.88427734375, 44.87728189251396], [113.77166748046875, 44.84223815129917], [113.62335205078125, 44.740880866109904], [113.4915161132813, 44.779885502772736], [113.15093994140625, 44.79158175909386], [112.950439453125, 44.83834308566653], [112.80212402343744, 44.8500274926005], [112.587890625, 44.929807512153914], [112.53021240234375, 45.00947686967287], [112.4258422851562, 45.07546020688359], [112.3654174804687, 45.061881623213004], [112.1017456054687, 45.07546020688359], [112.04406738281244, 45.09485258791474], [111.9094848632812, 45.058001435398296], [111.77215576171875, 44.97645666320777], [111.65679931640625, 44.82860426955568], [111.5469360351562, 44.65888542068506], [111.56341552734375, 44.56894765233198], [111.5167236328125, 44.549377532663684], [111.4508056640625, 44.44162421758805], [111.39862060546875, 44.37098696297173], [111.41784667968744, 44.32384807250689], [111.46453857421875, 44.30616121527788], [111.51947021484375, 44.27470475118813], [111.5167236328125, 44.22552029849434], [111.57989501953125, 44.15068115978094], [111.6622924804687, 44.04614157509527], [111.7694091796875, 44.008620115415354], [111.8655395507812, 43.94339481559037], [111.95068359375, 43.82858280301419], [111.96441650390625, 43.75919263886012], [111.94793701171875, 43.68574971761674], [111.884765625, 43.66985832954972], [111.7886352539062, 43.66985832954972], [111.6018676757812, 43.50872101129684], [111.5524291992187, 43.49079023700749], [111.5167236328125, 43.492782808225], [111.4096069335937, 43.48082639482503], [111.35742187499994, 43.432977075795606], [111.2942504882812, 43.42300370191848], [111.0003662109375, 43.32118142926661], [110.78338623046875, 43.100982876188546], [110.69000244140625, 43.04279812270172], [110.68176269531244, 43.01669737169671], [110.6268310546875, 42.93631775765237], [110.467529296875, 42.837709559849614], [110.4263305664062, 42.777259403287424], [110.12969970703125, 42.66628070564928], [110.1022338867187, 42.633958722673135], [109.87426757812506, 42.62991729384455], [109.6737670898437, 42.5530802889558], [109.53918457031244, 42.47817430242155], [109.4815063476562, 42.459940352216556], [109.2864990234375, 42.43359304732316], [109.0228271484375, 42.45386118849115], [108.98437499999994, 42.439674178149424], [108.82781982421875, 42.40115038362433], [108.775634765625, 42.415346114253616], [108.7042236328125, 42.409262623071186], [108.5284423828125, 42.445754718858524], [108.2949829101562, 42.437647200108685], [108.2400512695312, 42.459940352216556], [108.0477905273437, 42.43359304732316], [107.95440673828125, 42.409262623071186], [107.56988525390625, 42.41737381352118], [107.47100830078125, 42.45386118849115], [107.29248046875, 42.405206634470666], [107.2650146484375, 42.36869093640926], [107.039794921875, 42.31793945446847], [106.7816162109375, 42.29559582449642], [106.3531494140625, 42.13693172716147], [105.64453125, 41.920672548686824], [105.281982421875, 41.74672584176937], [105.21331787109375, 41.74467659677642], [105.0100708007813, 41.580525125613846], [104.90570068359375, 41.65854925140818], [104.66400146484375, 41.64623592868676], [104.51568603515625, 41.66060124302088], [104.52392578125, 41.87774145109676], [104.0707397460937, 41.80203073088394], [103.8482666015625, 41.80203073088394], [103.392333984375, 41.88592102814744], [103.02703857421875, 42.014611228817955], [102.70843505859375, 42.14915080911929], [102.535400390625, 42.15933157601718], [102.4447631835937, 42.14100501649703], [102.07397460937494, 42.220381783720605], [101.80206298828125, 42.49842801732155], [101.656494140625, 42.51665075361143], [101.4202880859375, 42.56117285531808], [100.8599853515625, 42.67233920753351], [100.31066894531244, 42.6844544397102], [100.2639770507812, 42.63597933867727], [99.96734619140625, 42.64002037386321], [99.4921875, 42.56926437219384], [98.5610961914062, 42.63597933867727], [98.20404052734375, 42.65416193033991], [97.16583251953125, 42.79741601927622], [96.9818115234375, 42.76112938488444], [96.75659179687494, 42.75306280054229], [96.38580322265625, 42.724821486252736], [96.3665771484375, 42.89206418807337], [95.9381103515625, 43.20917969039356], [95.8804321289062, 43.26320625445309], [95.86395263671875, 43.401056495052906], [95.745849609375, 43.58238046828168], [95.66345214843744, 43.733398628766096], [95.62500000000006, 43.84839376489157], [95.526123046875, 44.000717834282774], [95.32287597656244, 44.03232064275084], [95.3778076171875, 44.22158376545796], [95.42999267578125, 44.262904233655384], [95.4135131835937, 44.29436701558004], [95.0070190429687, 44.24716652494939], [94.94110107421875, 44.288469027276506], [94.79003906249994, 44.33170718680922], [94.71588134765625, 44.33367180085156], [94.6060180664062, 44.44750680513074], [94.46319580078125, 44.51021754644924], [94.34783935546875, 44.51609322284931], [94.33685302734375, 44.5826428195842], [94.25445556640625, 44.61588908327616], [94.2214965820313, 44.66474608911831], [94.15008544921875, 44.682324539764934], [93.7353515625, 44.85781578061526], [93.7078857421875, 44.896741421341964], [93.4881591796875, 44.9609111593886], [93.3343505859375, 44.98422783516651], [93.09814453125006, 45.01530198999212], [92.98828125, 45.00559312697019], [92.8839111328125, 45.04441870436415], [92.79052734375, 45.04635929200553], [92.6998901367187, 45.02695045318546], [92.48291015624994, 45.00559312697019], [92.31536865234375, 45.02695045318546], [92.23846435546875, 45.01336034905033], [92.0599365234375, 45.08321794926837], [91.8072509765625, 45.07546020688359], [91.64794921875, 45.0657615477031], [91.56005859375, 45.07739974122637], [91.49139404296875, 45.11230010229608], [91.42822265625, 45.15299023250611], [91.38427734375006, 45.116176603574864], [91.28265380859375, 45.127804527473224], [91.20025634765625, 45.1510532655634], [91.1480712890625, 45.20913363773731], [91.0079956054688, 45.20913363773731], [90.9146118164063, 45.18784438050534], [90.87066650390625, 45.20332826663052], [90.88989257812494, 45.263288531496876], [90.81298828125, 45.30000710263142], [90.7662963867187, 45.42929873257377], [90.670166015625, 45.4947963896697], [90.6674194335938, 45.60058738537025], [90.72509765625, 45.73685954736049], [90.8514404296875, 45.891919851282076], [91.021728515625, 46.02176059146292], [91.021728515625, 46.11513371326539], [90.95581054687494, 46.193140876238004], [90.8926391601562, 46.3127900695348], [90.9722900390625, 46.36398839132818], [91.01348876953125, 46.47191632087041], [91.07116699218756, 46.568302354495195], [91.0107421875, 46.581518465658014], [91.05194091796875, 46.717268685073954], [90.94482421875, 46.81509864599243], [90.9503173828125, 46.86770273172814], [90.9173583984375, 46.933385414813976], [90.84869384765625, 46.97837846572259], [90.7608032226563, 46.98774725646565], [90.6536865234375, 47.09817500706038], [90.57128906250006, 47.20650833393468], [90.48889160156244, 47.31648293428332], [90.52459716796875, 47.396490013933416], [90.45593261718744, 47.41136166853917], [90.48065185546875, 47.49864785970502], [90.40924072265625, 47.543163654317304], [90.40924072265625, 47.56911375866714], [90.34881591796875, 47.63948497925488], [90.3790283203125, 47.646886969413], [90.36529541015625, 47.667237034505156], [90.2142333984375, 47.71345768748889], [90.10711669921875, 47.73932336136854], [90.06591796875, 47.81315451752768], [90.08514404296875, 47.868459093342956], [89.96429443359375, 47.88872266659918], [89.9395751953125, 47.83528342275264], [89.75830078125, 47.82790816919329], [89.7418212890625, 47.89608927375508], [89.6649169921875, 47.908978314728714], [89.6319580078125, 47.942106827553026], [89.5852661132812, 47.98808345357488], [89.60449218750006, 48.004625021133904], [89.5852661132812, 48.03034580796616], [89.48913574218744, 48.02483529097477], [89.3792724609375, 48.035855735787315], [89.31884765625, 48.019324184801185], [89.2529296875, 47.97337538577628], [89.1650390625, 47.99175981578037], [89.06890869140625, 47.98256841921405], [88.92883300781244, 48.101928918768664], [88.81622314453125, 48.100094697973795], [88.71734619140625, 48.17158081783164], [88.64868164062494, 48.17524408990215], [88.60198974609375, 48.22650242109718], [88.57177734375, 48.272225451004324], [88.6129760742187, 48.334343174592014], [88.53607177734375, 48.35442390123028], [88.5003662109375, 48.398208936781806], [88.47015380859375, 48.387266208071274], [88.35479736328125, 48.427378042075105], [88.3465576171875, 48.472921272487824], [88.1982421875, 48.49840764096436], [88.13232421875, 48.52388120259336], [88.0279541015625, 48.55297816440071], [87.95654296875, 48.592959181191695], [88.02246093749994, 48.629278127969414], [88.011474609375, 48.65105695744785], [88.08288574218744, 48.70727541512677], [87.97027587890625, 48.76705193388751], [87.9345703125, 48.75799945448164], [87.8659057617187, 48.79600890414036], [87.8054809570312, 48.81952414194507], [87.77801513671875, 48.87194147722911], [87.72857666015625, 48.86471476180277], [87.7532958984375, 48.929717630629554], [87.8659057617187, 48.94956275956837], [87.89062500000006, 48.97661158387714], [87.87689208984375, 49.01445529346132], [87.83569335937494, 49.05407025156395], [87.84942626953125, 49.07206662261101], [87.8384399414062, 49.088257784724675], [87.86865234374994, 49.11163570081922], [87.81883759536902, 49.16512723804492], [87.83699466996806, 49.159997864709695], [87.85518477405802, 49.158964335036], [87.95678063971484, 49.16888621162934], [87.97548750954088, 49.1758108519892], [87.9867278357457, 49.186053517351304], [87.98812866210938, 49.18619152703722], [87.99189823642425, 49.1907650073004], [87.99295414231983, 49.19172719385489], [88.02974776344848, 49.21555002891071], [88.108502645081, 49.247434388586164], [88.14395267727423, 49.270740459704434], [88.14543566529268, 49.279362482390646], [88.1707763671875, 49.29378477444933], [88.16253662109375, 49.360911547126165], [88.1308869362176, 49.378943494509215], [88.1357878016657, 49.386082255092006], [88.14560632367291, 49.39719268829194], [88.14685568821159, 49.39974347429185], [88.18450927734375, 49.41812070066643], [88.17159191301282, 49.44052103726914], [88.1747518313319, 49.4438565064726], [88.19996993036794, 49.454346822048194], [88.37877038584463, 49.4757925420921], [88.40192142733197, 49.47584421803624], [88.45111739105478, 49.465147196885596], [88.47540531410391, 49.4636485801179], [88.53876062140556, 49.466542460865924], [88.55782922373969, 49.47108998621387], [88.59973881009795, 49.488918355997356], [88.6141565351959, 49.49279408867624], [88.61575850475121, 49.49294911740782], [88.63034123562477, 49.491550192528024], [88.64155518367706, 49.48719274381878], [88.64867639140236, 49.48359568339409], [88.6746696376936, 49.45982452428237], [88.69565026884486, 49.44695709369496], [88.71942142795658, 49.44292633048582], [88.8706266684859, 49.43600168922655], [88.87532922346485, 49.44178944982324], [88.86269648801499, 49.46159987578123], [88.87939453125, 49.48240137826932], [88.8629150390625, 49.500242164537745], [88.88412454926323, 49.54085481922951], [88.8889201253635, 49.54167999313717], [88.90835046380288, 49.535943909383946], [88.91909916179684, 49.523179831583974], [88.92695397994221, 49.50741851844985], [88.93759932514874, 49.492845765519625], [88.94757287588753, 49.48282053703813], [88.9547042245203, 49.47186513346913], [88.96266239545321, 49.4621499633501], [88.97532312046572, 49.455845439715304], [89.0140804454562, 49.46054799559354], [89.16073815973827, 49.50271596347089], [89.19525801594467, 49.52152618428599], [89.21427287596617, 49.5438710583037], [89.22821044921875, 49.551943677794924], [89.19662475585938, 49.58845831789965], [89.18862309451961, 49.62253174139638], [89.21644535446953, 49.6344908664603], [89.25220544412595, 49.6294265753761], [89.31070316591831, 49.59314971998355], [89.33943526242744, 49.5807990524343], [89.37193973792861, 49.58167755247708], [89.39782963143237, 49.59898915742365], [89.41446868640442, 49.61918781235657], [89.43008422851562, 49.62138710925949], [89.44267461152775, 49.64358097823427], [89.47534428051411, 49.64343088842473], [89.5203027754527, 49.66317128522661], [89.61631758608772, 49.685443828469865], [89.66412484404385, 49.70202849211898], [89.67453002929688, 49.70405588474761], [89.67981070097082, 49.707470022804976], [89.68230839081947, 49.70833648843824], [89.70241052282732, 49.719963685575586], [89.7049369148188, 49.72371499470111], [89.72122192382812, 49.73424381990674], [89.71298217773438, 49.79013068868654], [89.6759033203125, 49.78215079425891], [89.63542261668748, 49.803055241019614], [89.64194909717303, 49.80812367806527], [89.64355106672835, 49.81887237605932], [89.6406717512085, 49.822592839920524], [89.6484375, 49.82735281650853], [89.61664094464554, 49.86362752337024], [89.61862814177074, 49.87695239187011], [89.62921142578125, 49.89286502817229], [89.62231832358292, 49.897516216982694], [89.62386234587062, 49.90269154967522], [89.63321098469915, 49.90793913428358], [89.66768396014665, 49.927289531086934], [89.72070397970491, 49.93974355142377], [89.86643151889942, 49.94274078405996], [89.92017500797023, 49.950853984623684], [89.96942264943567, 49.96708038395253], [89.98943376882512, 49.986243247739985], [90.0274658203125, 49.998029518286025], [90.00329302058546, 50.04387931498085], [90.00492435847234, 50.05074452793759], [90.01049104144046, 50.05787799289589], [90.0805213785301, 50.08826362516541], [90.18243290185691, 50.10247263630316], [90.19011292603247, 50.104735500651365], [90.24993896484375, 50.10296448723353], [90.30075073242186, 50.11793646935709], [90.32684326171875, 50.15490600646736], [90.35842895507812, 50.161064818858684], [90.37844671164346, 50.180786800711616], [90.40495161972147, 50.18262278371453], [90.42500207578519, 50.18691192754339], [90.440575189084, 50.19549957009805], [90.44906616210936, 50.19536367929798], [90.4833984375, 50.20767008473418], [90.48292307703818, 50.2152741826265], [90.5189498288715, 50.21838287427023], [90.60493941282367, 50.205980529877536], [90.64845096873714, 50.20665232344597], [90.66643436725224, 50.21037302649398], [90.68390100093042, 50.21621246393404], [90.69971398910928, 50.22515248769712], [90.70514540472188, 50.23054045126188], [90.72921752929686, 50.241057193511956], [90.7178882038263, 50.28111981246562], [90.72658573544328, 50.29186676104219], [90.76244917788726, 50.30571604445992], [90.83996382696898, 50.32080556312621], [90.87706750466162, 50.33935740242211], [90.89373057840703, 50.3529021693001], [90.91049194335938, 50.3480894622679], [90.91118467418303, 50.36708992733109], [90.94858768847095, 50.397493388109375], [90.97514937374459, 50.41392649391253], [91.01204634586217, 50.4252953095309], [91.1297652589595, 50.42617380867435], [91.13259893219237, 50.42673182436324], [91.153564453125, 50.421643882044705], [91.2904169875734, 50.46641724449739], [91.2975069580796, 50.46637807358925], [91.38215295399566, 50.45495758112743], [91.38566396142978, 50.45562737328276], [91.40899658203125, 50.45138348100283], [91.40641916734543, 50.45958682775994], [91.41574263511455, 50.4613654584491], [91.43248579928026, 50.478056946670726], [91.43824815459308, 50.49372581706618], [91.45156860351562, 50.499452103967734], [91.4551087148686, 50.52233263255652], [91.47506717920695, 50.53598622768224], [91.5757328697761, 50.56197947217486], [91.60270796709895, 50.57960113548398], [91.60628521531768, 50.58388943506823], [91.64108276367188, 50.584980542817995], [91.643140547812, 50.62807051989908], [91.65314416517106, 50.64006256113828], [91.67960249945577, 50.65654734288556], [91.7497790934304, 50.68409088188866], [91.82419315618917, 50.70155751646626], [91.89995080608486, 50.70724192337605], [92.06273156780763, 50.68631296816896], [92.15884973123009, 50.68910349523009], [92.24277225853291, 50.720006002075344], [92.24822459315968, 50.72752477177065], [92.2796630859375, 50.73297844827752], [92.3016357421875, 50.76078473271486], [92.296142578125, 50.79551936692376], [92.31948852539062, 50.84323737103244], [92.31370084007492, 50.85445773212157], [92.31522261653049, 50.85586334241929], [92.33547977726988, 50.86361480867648], [92.36090458188092, 50.86836904049881], [92.38457238820516, 50.86557851253831], [92.39986861244645, 50.85059234755877], [92.40639967863525, 50.837318396977736], [92.40600585937499, 50.829360798981426], [92.4128177855771, 50.82427402843098], [92.41898889252336, 50.811731670680054], [92.44327681467321, 50.786306865169635], [92.4749027919303, 50.77049387609153], [92.51645064308269, 50.76062367814026], [92.55458785044891, 50.74300201483114], [92.6118453369927, 50.687656555305765], [92.64977583878388, 50.67406565340719], [92.67189335149698, 50.6756159470183], [92.69525109945863, 50.681920472451814], [92.71736861217168, 50.69215240560902], [92.73524865789926, 50.705226543570134], [92.74661747351755, 50.721452941999665], [92.7470772607635, 50.72369266339595], [92.76718139648438, 50.728632224449335], [92.75809921356623, 50.765661195950734], [92.76026005046093, 50.77075225940928], [92.79612349470351, 50.78801218751246], [92.8577218019196, 50.79550527045182], [92.92107710832187, 50.79245636007294], [92.96169478348742, 50.777883606243414], [92.97399377419327, 50.7421751925311], [92.9733736574683, 50.6943744918893], [92.97837841129602, 50.6836659962922], [92.955322265625, 50.66600188318191], [93.01025390625, 50.604159488561], [93.03294991686668, 50.61302253031266], [93.04262007635535, 50.60988352560423], [93.08848126665504, 50.601745635603514], [93.1365966796875, 50.583236614805884], [93.14124322666122, 50.59946026516848], [93.15618236270909, 50.59957011153618], [93.17230224609375, 50.596314500690134], [93.19290161132811, 50.596314500690134], [93.22448730468749, 50.59108378226446], [93.25177039636128, 50.60240706708551], [93.42151167952039, 50.60936676166672], [93.53633671097036, 50.58471710341157], [93.8869613038211, 50.57497609487089], [94.23758589667179, 50.56523508722945], [94.25866988240912, 50.55753529961438], [94.27334598812682, 50.54477122001581], [94.27820357273667, 50.52921661425532], [94.27975386544848, 50.49268137644435], [94.3197514247884, 50.42901601257891], [94.32750288924693, 50.40436635342446], [94.33225712106925, 50.30101348948091], [94.34434940620011, 50.249182027428596], [94.35447798746917, 50.22360219318671], [94.36853397646179, 50.20272491482295], [94.39178837073668, 50.18556834040659], [94.47498742672829, 50.162262268388936], [94.49173059089406, 50.152288717650144], [94.4985518802652, 50.13952463805156], [94.50227258331306, 50.125055237009605], [94.50909387268408, 50.10986236645505], [94.5208760994524, 50.09777008132415], [94.56397424331668, 50.07100168957631], [94.57441288294812, 50.058547669239545], [94.59229292867569, 50.0298155736298], [94.60345503781967, 50.01973866830492], [94.62453902175841, 50.01519114205751], [94.65099735514376, 50.017826640387135], [94.74639204905381, 50.040357564250144], [94.92157515516924, 50.04588694332775], [94.95371789546448, 50.04061594756793], [94.98058964089915, 50.02475128254563], [95.0040507407491, 49.99276357008269], [95.02162072811407, 49.96981923417031], [95.02833866379832, 49.96341135684866], [95.0763977459592, 49.94553131112114], [95.35472701044318, 49.947701721457236], [95.39978885906854, 49.93886505138102], [95.44516076695574, 49.91442209960018], [95.4616972264458, 49.90263987283186], [95.47720096205477, 49.894083165305844], [95.48061079914906, 49.89220123320037], [95.50066125521273, 49.886723531865535], [95.52060835848896, 49.88961741261345], [95.53714481618032, 49.90072784491408], [95.56318973841567, 49.927599589449486], [95.5839636639919, 49.936694641044824], [95.68049523946371, 49.9459963991145], [95.72142297389112, 49.958502096294715], [95.74384857101167, 49.9791670055071], [95.78979492187499, 49.96888926176223], [95.76922380503943, 49.999750662482], [95.78767216014208, 50.011728821427965], [95.82787642415768, 50.02015207945494], [95.8670471602982, 50.01498443648251], [95.89216190744608, 49.99291860061287], [95.89216190744608, 49.99276357008269], [95.90446089725266, 49.964806620828895], [95.92265100134264, 49.944601136033555], [95.94631880676754, 49.93850331617511], [95.97484419770153, 49.952455953279596], [95.9856962484831, 49.96496165045977], [95.99830529845069, 49.97591705312953], [96.0119478762934, 49.985218811199196], [96.02662398291048, 49.99281524692608], [96.04099003116495, 49.99793121395438], [96.05597619614451, 49.99880971309772], [96.07106571481086, 49.9967426564484], [96.08594852700287, 49.99291860061287], [96.08605187979042, 49.99286692466881], [96.08625858626472, 49.99281524692608], [96.08636193905225, 49.99276357008269], [96.23560347482052, 49.949200338225], [96.28118208828278, 49.92625600231263], [96.32335005705949, 49.897885641009516], [96.34629439297179, 49.88858388293984], [96.37285607914477, 49.886051737397715], [96.39303593696664, 49.89042139181381], [96.4324951171875, 49.875167784397426], [96.47918701171875, 49.921167124815405], [96.48115161418143, 49.921762280594464], [96.50328739409798, 49.9221218872153], [96.52385461409916, 49.91576568763633], [96.53925419112797, 49.90186472647596], [96.55300012265755, 49.879850566550374], [96.56808964042457, 49.86176381434854], [96.58514286295274, 49.85752634736302], [96.60436649581708, 49.86290069591042], [96.62596724549194, 49.87339101148602], [96.65988888679858, 49.896102358769966], [96.69859988566003, 49.913131558331614], [96.70193160006323, 49.91375030513246], [96.83556422022755, 49.90021134693019], [96.86370849609375, 49.89463439573421], [96.96926805423092, 49.88663340197809], [97.00589237473329, 49.86527781182153], [97.01258550303226, 49.85753888217414], [97.020263671875, 49.834439500479235], [97.0346235146985, 49.8320574310148], [97.04227258291333, 49.82321319583231], [97.05725874879221, 49.81272288025668], [97.08526964297964, 49.80583827501638], [97.10015018708145, 49.80218088783768], [97.11989058478265, 49.793654277023265], [97.12898563637803, 49.77582590813908], [97.15296350106469, 49.7502460738972], [97.20505334553548, 49.7340713514117], [97.26231083207922, 49.72611318047888], [97.30168827379482, 49.72554473969799], [97.3433394777347, 49.734174703299935], [97.39077844227127, 49.74947092844059], [97.47459761588723, 49.78869334052524], [97.54270715321259, 49.8227481078389], [97.57360966005777, 49.847501118881496], [97.57595246809555, 49.85682486240277], [97.5860595703125, 49.86277585341321], [97.5811347017431, 49.87744875331395], [97.58125777172876, 49.87793853863268], [97.58040224860989, 49.87963098647493], [97.5678523806282, 49.9170214171164], [97.64223596221986, 49.93002838130473], [97.73359989471933, 49.95834706756309], [97.75633752505676, 49.96149932893087], [97.77752486178292, 49.956176656327614], [97.8107011317518, 49.93116526286657], [97.82992476551553, 49.92331044651988], [97.84229236643168, 49.92810380629539], [97.85522460937499, 49.921167124815405], [97.88818359375, 49.92647191927194], [97.87532038059767, 49.954406295620814], [97.90619917844936, 49.97307485012416], [98.04799930812149, 50.02304596020286], [98.10556685392714, 50.06387034094351], [98.16463989025335, 50.14668155417995], [98.18206787109375, 50.152266272562684], [98.17824079289385, 50.16574790523985], [98.21938658020416, 50.22342790238643], [98.22601318359375, 50.22788086350316], [98.30291748046875, 50.33318956698284], [98.27216333262614, 50.41164423753757], [98.28126750569461, 50.42858565959564], [98.32763671875, 50.47498691278631], [98.33038330078125, 50.501199132933344], [98.2964719081318, 50.50793905668895], [98.29346236189846, 50.51862294589223], [98.27537561149525, 50.537691549125675], [98.26939616555741, 50.540886575021716], [98.2672119140625, 50.544853857152326], [98.25987853994485, 50.54597217335593], [98.25129439312175, 50.550558981511784], [98.22555953014816, 50.55763865240186], [98.1843806238457, 50.562290089803035], [98.1134033203125, 50.597186230587035], [98.05847167968749, 50.61984554139944], [98.01177978515624, 50.67035391495795], [98.02276611328125, 50.68775800806201], [98.00079345703125, 50.70341617382632], [97.95723061031741, 50.80504248510056], [97.96842570627513, 50.815412821156], [98.031005859375, 50.86664473085768], [97.8826904296875, 50.93766174471314], [97.82501220703125, 51.015482592607846], [97.8662109375, 51.060386316691016], [97.9376220703125, 51.212045390353026], [97.96234130859375, 51.33575975299127], [98.06121826171875, 51.45914115860514], [98.1353759765625, 51.469407923261336], [98.228759765625, 51.45914115860514], [98.2562255859375, 51.525833847122584], [98.2342529296875, 51.58901622923166], [98.2672119140625, 51.61119461048402], [98.3441162109375, 51.70490640601452], [98.35139997199354, 51.72408406143159], [98.39579647229644, 51.737432674613025], [98.45123291015625, 51.742336876891024], [98.47147011797077, 51.75448069517765], [98.61871382698153, 51.780664775658884], [98.65137333211361, 51.79748545329106], [98.68268925010875, 51.81947377659351], [98.69473850245396, 51.83034001115288], [98.7615966796875, 51.86631606154489], [98.7734346162388, 51.92595849967159], [98.7766370040945, 51.93011301700211], [98.78390430812821, 51.95293533945066], [98.8055419921875, 51.96626938051444]]]}, "properties": {"NAME_FULL": "Mongolia", "NAME_SHORT": "Mongolia", "CODE": "MNG", "DEMONYM": "Mongolian", "LANGUAGE": "Mongolian", "STATUS": "Sovereign state", "REGION": "East Asia", "DATASET": "WORLD"}}]}