{"type": "FeatureCollection", "features": [{"id": "0", "type": "Feature", "properties": {"id": "4", "NAME_FULL": "Democratic Republic of Limaria", "NAME_SHORT": "Limaria", "CODE": null, "DEMONYM": "Limarians", "LANGUAGE": null, "STATUS": "NOTIONAL", "REGION": "Eurasia", "VERSION": "GIS version 1.5; May 2024"}, "geometry": {"type": "Polygon", "coordinates": [[[45.00239994440189, 41.290452372978656], [45.03940026840763, 41.23117950483029], [45.02932336398202, 41.21009551999227], [45.034852742160304, 41.197693176498895], [45.05200931837534, 41.192112121477194], [45.11732832953873, 41.19206044643243], [45.13443322801107, 41.18787465449168], [45.18678145310155, 41.15686879485895], [45.19975223827517, 41.14265777623536], [45.20104414946792, 41.12674143526902], [45.1667309979372, 41.10777618482304], [45.06782230745354, 41.11092844709015], [45.05717696134763, 41.07878570589562], [45.01888472524986, 41.0749099732167], [44.979455606690856, 41.08204132095019], [44.96395267777382, 41.073773092554205], [44.96069706181994, 41.05992380823718], [44.96694991041001, 41.044834290470085], [44.97945560669088, 41.03263865255173], [45.01573246298278, 41.02323354169458], [45.02999515844975, 41.04628123039448], [45.070044392834475, 41.062094219472634], [45.09169681845339, 41.05103546131745], [45.11102380410523, 41.04953684544904], [45.117121623064406, 41.06142242500492], [45.12001550291308, 41.07961252909492], [45.13655196240315, 41.07289459341077], [45.16921146753516, 41.04715973043721], [45.18967533384955, 41.037547913105676], [45.20517826366591, 41.024887187193876], [45.20864407704121, 41.01138962950329], [45.20578550800158, 41.00281442174635], [45.19184574418574, 40.997808736184204], [45.187711629088355, 40.99837717696512], [45.18378422046541, 40.99791208897172], [45.180270222992384, 40.996413473103296], [45.177169636669376, 40.99382965251641], [45.186781453101574, 40.97083363886135], [45.20993249548828, 40.96799143495676], [45.22047448700796, 40.97905019131327], [45.22085106744168, 40.99206109250481], [45.231264040985295, 41.0013360630794], [45.268740274743884, 41.01026275742031], [45.31256188991927, 40.99662017957758], [45.33535119620076, 40.99382965251643], [45.38194794743983, 41.011448110641794], [45.39152347802604, 41.01506866518676], [45.419118692973285, 41.017342428310414], [45.425216511932454, 40.99367462198621], [45.41643151869961, 40.96132517521665], [45.42873050940546, 40.951196594847], [45.44284278336773, 40.94838019698849], [45.452811726879645, 40.94639068618118], [45.479270060265044, 40.92990590443389], [45.522058145766785, 40.88815134770652], [45.53787113484499, 40.87590403294473], [45.55823164837187, 40.87094309644672], [45.58179610190853, 40.86965118435469], [45.59915938279928, 40.86267486625204], [45.60096805792951, 40.84055735353902], [45.58220951305857, 40.79937123759254], [45.55585453336, 40.77658193041176], [45.47833511067675, 40.74818305340518], [45.43792891468765, 40.73338043286066], [45.39880985539048, 40.708937480180566], [45.373643432298564, 40.67529612221825], [45.37358518590759, 40.651298383413646], [45.373540080410365, 40.63271474229154], [45.38780277497807, 40.609512023960704], [45.40702640784242, 40.595094300661415], [45.427231893537055, 40.58295033868719], [45.44464685037186, 40.56636220325307], [45.44857425989415, 40.55649200440248], [45.45084802211852, 40.53437449258874], [45.45544722520926, 40.52362579459478], [45.46469730643554, 40.51571930050528], [45.48541955606765, 40.50528065997447], [45.49384281409463, 40.49365346283709], [45.52619226086414, 40.44104685532809], [45.58541345216907, 40.39872385692044], [45.818370808765806, 40.29779978483219], [45.819151645132315, 40.29714101344701], [45.86167565910439, 40.26126454702121], [45.88172611516811, 40.26043772382192], [45.88850421189984, 40.261956953050955], [45.90270674631928, 40.26514028059947], [45.92461755345731, 40.26617380847446], [45.93919030728682, 40.26028269509027], [45.95355635644071, 40.24958567304041], [45.979239543470165, 40.223592428547704], [45.981099895443776, 40.21780466705174], [45.981771688112886, 40.2119135554662], [45.98109989544379, 40.20597076433927], [45.96296146639855, 40.141685282849515], [45.95076582848019, 40.117190654225304], [45.93169722524677, 40.09755360931161], [45.90952803569026, 40.08267079711961], [45.9058073335416, 40.07507436139263], [45.89402510587395, 40.0290823376797], [45.88720381740222, 40.0184369924732], [45.87376794423523, 40.00975535112853], [45.80390140772376, 40.00448435536868], [45.63957035328919, 40.02541331057579], [45.576266723730264, 39.99389068610632], [45.57758344092306, 39.98398292617114], [45.5794189859974, 39.970171203838], [45.61114831514262, 39.9591641234255], [45.71543135597228, 39.95089589502953], [45.74276818940041, 39.9405089313421], [45.76442061322071, 39.9220604466323], [45.80917744418366, 39.85126167198855], [45.81682051605396, 39.8391714481038], [45.86188236467939, 39.80454823821061], [45.883187643894644, 39.79614787152705], [45.91614261948629, 39.78315419501009], [45.97923954347018, 39.7684780883931], [46.00657637509963, 39.74791086839185], [46.045126994515165, 39.687552796424384], [46.07654626439859, 39.66812245708574], [46.1144767661898, 39.659647522215366], [46.131685018348904, 39.65215443927595], [46.14610274344683, 39.63846018548914], [46.169563842397395, 39.60409535801432], [46.18423994991372, 39.593243307232804], [46.206460815414296, 39.58792063552888], [46.24118737809501, 39.59350168965125], [46.309503621894635, 39.620528462918266], [46.3437134197385, 39.618616435000426], [46.35787276241805, 39.60967641213673], [46.38143721505543, 39.585026753881564], [46.39642338093429, 39.576655172698054], [46.416163777736124, 39.57401967436845], [46.47931237766408, 39.57867055340331], [46.49543542510474, 39.5759317022862], [46.512023560538864, 39.56756012020336], [46.524270874401296, 39.5546410118732], [46.52726810703746, 39.5381562301259], [46.51827640822961, 39.52544382737074], [46.50370365440013, 39.51846750926817], [46.49202478041922, 39.51019927997278], [46.49171472205677, 39.49366282138208], [46.498587687371874, 39.483120829862415], [46.49822595216593, 39.47376739494927], [46.49140466279494, 39.4664293425401], [46.47931237766409, 39.46188181629277], [46.47895196086427, 39.46182942448831], [46.40572513810463, 39.45118479424286], [46.37399580895935, 39.435991924587675], [46.36086999505419, 39.41025706071475], [46.37461592748304, 39.37883778903274], [46.40737878540263, 39.35914906817493], [46.47931237766408, 39.334241028400704], [46.49528039547386, 39.32400909434423], [46.50267012652511, 39.30948801735811], [46.50794112138563, 39.2935716754924], [46.51765629150464, 39.27884389293126], [46.54184086086702, 39.259051819286036], [46.58452559448059, 39.23577158748874], [46.59114017737728, 39.231069031610495], [46.59785811396074, 39.22507456543882], [46.59914138176937, 39.22248710709432], [46.60261234578309, 39.21548858742839], [46.59382735165095, 39.212129619586285], [46.5727950436563, 39.21150950106264], [46.52644128383815, 39.18582631493244], [46.514142293132295, 39.18443105095228], [46.45337080911554, 39.20840891653826], [46.41833418807233, 39.211922913111955], [46.39528649937245, 39.195179748946295], [46.39626835130333, 39.16443227263128], [46.421848186444606, 39.144640198086705], [46.45512780740239, 39.12993825304789], [46.4793123776641, 39.11477122001578], [46.4919214285311, 39.081905009308656], [46.49750248175413, 39.05353464800557], [46.494608601905455, 39.02552602190842], [46.48148278800024, 38.99377085434145], [46.48075931848777, 38.990618591175036], [46.479312377664094, 38.98775055064741], [46.47579838019109, 38.97560658867311], [46.474093058747656, 38.96323008360144], [46.4750749106786, 38.951060282306166], [46.4793123776641, 38.939381409224616], [46.51403894034481, 38.88217559952427], [46.49605554182977, 38.88607716882627], [46.39187585468694, 38.922354024218826], [46.37823327684426, 38.924705303506926], [46.367587932537056, 38.92362009698985], [46.343351685431934, 38.91747060208662], [46.30454268449729, 38.91625620525965], [46.29131351690527, 38.91393076619187], [46.271934855309325, 38.90656687446169], [46.21994836542474, 38.8771629843842], [46.20248172994789, 38.87054840148749], [46.13587080939035, 38.86370127459414], [46.12605228648381, 38.86266774492049], [46.0679679767407, 38.87411407490461], [46.00182214327725, 38.89747182196698], [45.79108565308042, 38.93209503186022], [45.768074091945806, 38.9391299030226], [45.71687829589662, 38.95478098625352], [45.62778812742013, 38.9555044566653], [45.57084069833955, 38.96638234496927], [45.543142131504176, 38.967131652903454], [45.53556486932329, 38.96845289818269], [45.53084313989899, 38.969276225717245], [45.51027591989777, 38.9786554972534], [45.4945290085069, 38.98191651903211], [45.48257735216304, 38.98439158190599], [45.45983972182569, 38.993124898295385], [45.43860070825605, 39.00423533149538], [45.427076863906116, 39.0148806776012], [45.425268188775874, 39.02562937559521], [45.42821374546794, 39.034104310465516], [45.43229618372186, 39.04247589254842], [45.43451827000213, 39.05278534007135], [45.429712361336385, 39.05947743733385], [45.40583785033656, 39.067874857838376], [45.39638106353523, 39.073326722550185], [45.391316772451106, 39.08174998057713], [45.38346195520507, 39.103247376565164], [45.379327840107706, 39.111153870654576], [45.36992272925051, 39.11895701105724], [45.36062097208019, 39.12322031646446], [45.351939330735505, 39.12831044507096], [45.3452730709954, 39.13843902633998], [45.353903035496685, 39.1531926473228], [45.34821862768753, 39.16391550689509], [45.33488610820728, 39.170426737903654], [45.320933472002075, 39.17259714823981], [45.31111494999494, 39.176292012866135], [45.311321656469275, 39.184844462102205], [45.31390547705612, 39.19424957295939], [45.31111494999492, 39.200528259971186], [45.30170983913774, 39.20138092159226], [45.292614787542405, 39.19861623115414], [45.285690144484555, 39.19492136742714], [45.28310632299839, 39.19306101545343], [45.17892663585553, 39.21982940720137], [45.15272668488859, 39.21352488356652], [45.14626713072346, 39.228666077277644], [45.135828491091964, 39.278482158624705], [45.128903848933476, 39.28928253256282], [45.12037723811904, 39.29889434809565], [45.11434974794248, 39.30934967644639], [45.096037638226385, 39.34111399461512], [45.087976115405375, 39.350725810148], [45.0787260332798, 39.35475657245783], [45.06864912885422, 39.36421335925913], [45.060484253245654, 39.374600322047264], [45.057176961347636, 39.38173167068004], [45.05169925911353, 39.38684763590966], [45.01562910929594, 39.405967915986544], [45.01211511272226, 39.409481913459516], [45.00994470238606, 39.41402944060615], [45.00637902806968, 39.417956848329894], [44.99857588676776, 39.41961049562788], [44.98772383598624, 39.41935211231009], [44.98250451706981, 39.42017893550948], [44.95702803651466, 39.43449330692063], [44.95330733346663, 39.44162465555336], [44.96162723780675, 39.453768616628345], [44.94069828349893, 39.46808298803946], [44.92839929189377, 39.48823679599134], [44.898426961035405, 39.58435496031315], [44.886438028692055, 39.60595570908868], [44.86535404475337, 39.61758290622614], [44.86928145337636, 39.620528462918266], [44.872278686911834, 39.62507598916556], [44.84923099731266, 39.62559275310306], [44.82783695501145, 39.62879669221354], [44.82395307267616, 39.6305400262012], [44.8096468509214, 39.63696156962074], [44.80699282925564, 39.6399017123941], [44.79574589066033, 39.65236114664959], [44.78432539909784, 39.69023997069809], [44.77455855303475, 39.70279734292306], [44.75910730006185, 39.72310618140511], [44.69776737436479, 39.785272929402176], [44.6920312915109, 39.79302439386068], [44.68717370600173, 39.796383362602064], [44.68241947417937, 39.79721018490208], [44.671257365035345, 39.79586659866461], [44.666193074850526, 39.7963833626021], [44.64769291149867, 39.80511667899151], [44.611519408893585, 39.837311096130215], [44.598186889413405, 39.831006572495326], [44.59446618636537, 39.836794332192675], [44.59415612800292, 39.84805979412418], [44.5910555416799, 39.857826640187305], [44.575966023912834, 39.866353251001755], [44.5674910890425, 39.87301951254046], [44.56377038599449, 39.88170115208647], [44.55911950695965, 39.89689402354032], [44.547854045028146, 39.91146677647059], [44.52217085799868, 39.9335326132395], [44.464344929774654, 39.972289937330736], [44.380925553371604, 40.00980379311058], [44.32564538642544, 40.03466339270137], [44.28905847177105, 40.043396708191516], [44.25526208507718, 40.043396708191516], [44.195007364997885, 40.03078765912311], [44.166378621276365, 40.02804880800608], [44.14591475406265, 40.02339792897124], [44.135476115330455, 40.022312724252835], [44.12700118046007, 40.02448313548839], [44.114288777704914, 40.03393992139024], [44.10447025569773, 40.03595530209552], [44.083127889340574, 40.03161448232251], [44.048349649816494, 40.01285593745157], [44.03243330885011, 40.00861847046599], [43.912130574266556, 40.02432810495805], [43.802783244151385, 40.07073354161961], [43.7112126060769, 40.09073232083995], [43.66542728703962, 40.11016265927929], [43.65250817870947, 40.13899810947518], [43.666357463026486, 40.148919983370526], [43.7116260172269, 40.156464742254], [43.72139286328999, 40.16938385148354], [43.71493330912489, 40.18064931341512], [43.68372074391714, 40.21010487943666], [43.67307539871066, 40.22772654364508], [43.69136885648749, 40.23863026947135], [43.69034758996929, 40.24044318850228], [43.67596927945868, 40.265967102000175], [43.63147587071485, 40.3103054811131], [43.60444909744785, 40.3297874963958], [43.594217163391356, 40.345445454943786], [43.60103845186303, 40.361826883903596], [43.609565064476115, 40.37298899394687], [43.62446300146632, 40.41113748510685], [43.62532637491227, 40.41334828849268], [43.625326374912284, 40.42016957606506], [43.58486372847825, 40.44657623440569], [43.563624714908656, 40.46471466165229], [43.55949060071062, 40.47789215240091], [43.59370039945385, 40.50900136302245], [43.615301147330065, 40.52042185548426], [43.63896895365429, 40.522592264921066], [43.63628177938058, 40.529775289497984], [43.6346281329819, 40.5327725221342], [43.63147587071483, 40.5368549603881], [43.63757368967403, 40.53514963804532], [43.64201786313387, 40.534374492588704], [43.646462037492995, 40.533030905451895], [43.65250817870949, 40.52941355429212], [43.65147464993511, 40.5533914189788], [43.664807169415326, 40.57406199266683], [43.70718184376703, 40.61194081761461], [43.699533732096036, 40.634575094265216], [43.70563155105521, 40.64077626601188], [43.72640547753076, 40.668991598583396], [43.7293510333235, 40.67710479734848], [43.724131714407086, 40.746351217134944], [43.72061771693404, 40.76288767662496], [43.71131595886437, 40.78164622149593], [43.66976810681269, 40.83213409551206], [43.659536173655454, 40.85197784420213], [43.65416182420883, 40.87471547543878], [43.65193973792856, 40.894765931502505], [43.64765059409963, 40.913886211579396], [43.63617842569376, 40.933523255593805], [43.60486250949721, 40.963340555921896], [43.565433390038905, 40.988145244707255], [43.52238692211877, 41.004474995924284], [43.47959883751635, 41.00912587495913], [43.46047855743944, 41.02287180648864], [43.44456221647312, 41.05144887336678], [43.436293986278415, 41.08322987935545], [43.44042810047644, 41.106587626417834], [43.45045332805865, 41.10467559939935], [43.46032352690925, 41.10452056886915], [43.47014204891639, 41.10617421526783], [43.524143921304955, 41.12281402664597], [43.56662194844416, 41.12405426099533], [43.72971276942874, 41.10669097920533], [43.75415572120956, 41.108241271917166], [43.773741089279845, 41.114494121406544], [43.820353231516386, 41.145499980139945], [43.863244669805624, 41.158987528351716], [43.95584883665446, 41.16048614511947], [43.97775529017446, 41.16453733822755], [43.978186390089846, 41.164617062227634], [44.00111739085488, 41.16885772720232], [44.041321654870444, 41.18255198188839], [44.061268758146646, 41.184153951443704], [44.10364343249837, 41.17516225263581], [44.12472741733644, 41.17805613248455], [44.144364461350804, 41.18606597936146], [44.16007409674218, 41.19789988207389], [44.165190063770424, 41.20766672813701], [44.16586185733884, 41.21614166300731], [44.168445678824966, 41.22358306910331], [44.18033125838082, 41.22993927048096], [44.1909766044867, 41.23004262326846], [44.218106731440464, 41.22156768839808], [44.2664758710646, 41.196194560630445], [44.28497603441644, 41.19087188712785], [44.308488810210406, 41.1938174447193], [44.31773889143663, 41.19857167654164], [44.32492191601361, 41.20482452423238], [44.333086792521456, 41.21035390241065], [44.3449206952339, 41.213247782259316], [44.35727136278316, 41.21216257844022], [44.41060144070391, 41.1877196248608], [44.432460570998515, 41.18167348364431], [44.45493981981679, 41.18048492433975], [44.47922774286606, 41.18580759694304], [44.49938155081789, 41.202809144426475], [44.505892781826404, 41.20658152341854], [44.516641479820414, 41.20683990493763], [44.52191247647958, 41.19929514605411], [44.52552982584074, 41.18906321199767], [44.531007528074944, 41.181466777169994], [44.55152307123274, 41.17702260460951], [44.566250854693195, 41.18694447940421], [44.57844649351086, 41.20280914442645], [44.5913656009417, 41.21577992870071], [44.612862996030415, 41.22311798110993], [44.63312015766912, 41.22105092446059], [44.67492639123994, 41.2084935513363], [44.82153243047725, 41.20621978821267], [44.847784057388324, 41.20890696248633], [44.85770593308234, 41.21934560211782], [44.85382048592665, 41.22351397059322], [44.847060587875845, 41.230766094579565], [44.80954349813393, 41.24440867242226], [44.80127526883854, 41.25851633735908], [44.82070560727795, 41.27334747450631], [44.91723718274977, 41.26177195241365], [44.95516768454101, 41.262702128400484], [44.967363322459335, 41.26900665293467], [44.98999759910989, 41.28445790770628], [45.00239994440189, 41.290452372978656]]]}}]}