{"type": "FeatureCollection", "features": [{"id": "0", "type": "Feature", "properties": {"id": -13506550, "name": null, "name_en": null, "descriptio": null, "ref": null, "wikidata": null, "operator": null, "wd_operato": null, "start_date": null}, "geometry": {"type": "Polygon", "coordinates": [[[6.341153538920281, 49.491447897685084], [6.341168793984053, 49.491478240174565], [6.341199974663852, 49.4915077444737], [6.341235849209425, 49.49152668757488], [6.341292175598767, 49.491541775000634], [6.341362499766404, 49.49154118826739], [6.341399883054549, 49.49153289018325], [6.341437182523663, 49.49151847330976], [6.341478672944362, 49.491488885191565], [6.341503148101651, 49.49144186271479], [6.341498035140717, 49.4914017972176], [6.341480516963061, 49.49137355020391], [6.341453024320656, 49.4913492426847], [6.34140575038677, 49.49132677918421], [6.341346657969381, 49.491315379795886], [6.341276249982741, 49.491319151652334], [6.341203997977374, 49.491346141380546], [6.3411575622338034, 49.491394924057], [6.341153538920281, 49.491447897685084]], [[6.3412902477610364, 49.491435073373204], [6.341291253589418, 49.491420656499756], [6.34130407790127, 49.491408838016284], [6.341324697383072, 49.49140347359823], [6.341346490331318, 49.49140615580724], [6.341362583585436, 49.49141604645305], [6.341367864184434, 49.491430044231315], [6.341360655747677, 49.491443790552516], [6.3413432213890815, 49.49145267536988], [6.34132117698374, 49.49145401647439], [6.3413013956922555, 49.491447478589905], [6.3412902477610364, 49.491435073373204]]]}}, {"id": "1", "type": "Feature", "properties": {"id": 83552821, "name": "Ch\u00e2teau d'Eau Leudelange", "name_en": null, "descriptio": null, "ref": null, "wikidata": null, "operator": null, "wd_operato": null, "start_date": null}, "geometry": {"type": "Polygon", "coordinates": [[[6.07804928634107, 49.56368104375863], [6.078198651855614, 49.5637100451436], [6.078285739829597, 49.56372697658801], [6.078308873882349, 49.563676768987996], [6.07833284612542, 49.563624717369294], [6.078096392636895, 49.563578868358924], [6.07804928634107, 49.56368104375863]]]}}, {"id": "2", "type": "Feature", "properties": {"id": 103043747, "name": null, "name_en": null, "descriptio": null, "ref": null, "wikidata": null, "operator": null, "wd_operato": null, "start_date": null}, "geometry": {"type": "Polygon", "coordinates": [[[6.3264522, 49.750485599999976], [6.3265452, 49.750508], [6.3265845, 49.750440099999985], [6.3264915, 49.750417599999984], [6.3264522, 49.750485599999976]]]}}, {"id": "3", "type": "Feature", "properties": {"id": 110557955, "name": null, "name_en": null, "descriptio": null, "ref": null, "wikidata": null, "operator": null, "wd_operato": null, "start_date": null}, "geometry": {"type": "Polygon", "coordinates": [[[5.887349254479177, 49.600049283438196], [5.887380854254133, 49.600089935668585], [5.887441874509221, 49.60011239916908], [5.8874814370922195, 49.60011382409264], [5.887525861179029, 49.60010493927526], [5.887574727674519, 49.600073590957386], [5.887589479824129, 49.600030759432165], [5.887568525066172, 49.599991448306284], [5.887524268617427, 49.59996605113965], [5.88746039851526, 49.599957417779386], [5.8873920860043825, 49.59997493595706], [5.887352774878508, 49.60001273834032], [5.887349254479177, 49.600049283438196]]]}}, {"id": "4", "type": "Feature", "properties": {"id": 112022559, "name": null, "name_en": null, "descriptio": null, "ref": null, "wikidata": null, "operator": null, "wd_operato": null, "start_date": null}, "geometry": {"type": "Polygon", "coordinates": [[[6.2295245999999995, 49.61752599999999], [6.2298914, 49.61753840000001], [6.2299056, 49.61736220000002], [6.2295388, 49.61734979999999], [6.2295245999999995, 49.61752599999999]]]}}, {"id": "5", "type": "Feature", "properties": {"id": 112716034, "name": null, "name_en": null, "descriptio": null, "ref": null, "wikidata": null, "operator": null, "wd_operato": null, "start_date": null}, "geometry": {"type": "Polygon", "coordinates": [[[5.963569923349438, 50.01225032675366], [5.963573862843958, 50.012265833274576], [5.963585681327431, 50.012279663414795], [5.963603953876344, 50.012290056974734], [5.963626668833939, 50.01229584048791], [5.963651060172167, 50.012296343402106], [5.963672853120414, 50.0122920686315], [5.963691377126452, 50.01228351909027], [5.963704871990558, 50.012271784425806], [5.9637117451511585, 50.01225778664754], [5.963711577513095, 50.01224311831694], [5.963704117619272, 50.01222937199574], [5.96369028747901, 50.0122176373313], [5.963671428196875, 50.01220942306619], [5.963649551429597, 50.0122054835717], [5.963626752652971, 50.01220607030493], [5.963605546437946, 50.012211350903925], [5.9635867709748425, 50.01222132536869], [5.963574449577179, 50.01223498787086], [5.963569923349438, 50.01225032675366]]]}}, {"id": "6", "type": "Feature", "properties": {"id": 122306197, "name": null, "name_en": null, "descriptio": null, "ref": null, "wikidata": null, "operator": null, "wd_operato": null, "start_date": null}, "geometry": {"type": "Polygon", "coordinates": [[[6.156792488971405, 49.53725784837542], [6.156800535598449, 49.537279725142696], [6.15681822141417, 49.5372977462345], [6.156843953856907, 49.53731124109861], [6.156874966898641, 49.53731878481149], [6.156907991597138, 49.5373194553637], [6.156939675191154, 49.5373133365744], [6.156966664919366, 49.53730093135773], [6.156986278572789, 49.53728366463719], [6.156996336856594, 49.53726329661248], [6.1569958339424025, 49.537241838940325], [6.15698493746828, 49.537221554734664], [6.156963563615193, 49.53720395273798], [6.1569342269540925, 49.53719196661645], [6.1569005317033145, 49.537186937474566], [6.156866165900311, 49.53718945204552], [6.156835069039546, 49.53719925887223], [6.156810761520347, 49.537215268307264], [6.156795925551705, 49.53723555251295], [6.156792488971405, 49.53725784837542]]]}}, {"id": "7", "type": "Feature", "properties": {"id": 124523989, "name": null, "name_en": null, "descriptio": null, "ref": null, "wikidata": null, "operator": null, "wd_operato": null, "start_date": null}, "geometry": {"type": "Polygon", "coordinates": [[[6.047490962846211, 49.62157442988293], [6.047496662540368, 49.621589098213484], [6.047513677803806, 49.6216041856392], [6.047542930645903, 49.621614243923005], [6.047563047213515, 49.62161558502753], [6.047582157952747, 49.621613154275614], [6.047606381652913, 49.62160376654405], [6.047619373602829, 49.62159328916508], [6.047627839325031, 49.62157744736808], [6.047626079125365, 49.62155909100009], [6.047616775212845, 49.62154593141212], [6.0476032803487385, 49.621536459861545], [6.04757897282954, 49.621528161777405], [6.0475523183774555, 49.62152665303484], [6.047520048050217, 49.621534532023794], [6.047503954796127, 49.62154475794568], [6.0474938965123215, 49.62155766607655], [6.047490962846211, 49.62157442988293]]]}}, {"id": "8", "type": "Feature", "properties": {"id": 125912623, "name": null, "name_en": null, "descriptio": null, "ref": null, "wikidata": null, "operator": null, "wd_operato": null, "start_date": null}, "geometry": {"type": "Polygon", "coordinates": [[[5.98397893556762, 49.644425761047785], [5.983984132347587, 49.64445199640471], [5.984007936952595, 49.644474543724236], [5.984035848690155, 49.64448544019837], [5.984066861731891, 49.64448904441675], [5.984112543104203, 49.64448083015165], [5.9841347551476085, 49.64446859257297], [5.984149172021063, 49.64445308605213], [5.984154871715218, 49.64442525813359], [5.984146154535921, 49.644406231213374], [5.984122936664137, 49.644387371931245], [5.9840909177940205, 49.64437664309519], [5.9840457393358975, 49.644376140180995], [5.984014223379973, 49.64438577936966], [5.983992262793663, 49.64440095061439], [5.98397893556762, 49.644425761047785]]]}}, {"id": "9", "type": "Feature", "properties": {"id": 126268099, "name": null, "name_en": null, "descriptio": null, "ref": null, "wikidata": null, "operator": null, "wd_operato": null, "start_date": null}, "geometry": {"type": "Polygon", "coordinates": [[[6.023068024836334, 49.63985938401785], [6.023080430053028, 49.63989877896279], [6.023108257971558, 49.63992392467232], [6.023168020941199, 49.63994538234445], [6.023226526625336, 49.63994613671575], [6.023281763367265, 49.63992954054744], [6.023320739217013, 49.63989685112509], [6.023331970967263, 49.63986315587431], [6.02332006866476, 49.639826862233576], [6.023290480546565, 49.63980012396246], [6.023252929620327, 49.63978419834644], [6.023196016497792, 49.63977698990969], [6.023148239649687, 49.63978377925126], [6.023108593247684, 49.639800794514706], [6.023080178595933, 49.639826443138425], [6.023068024836334, 49.63985938401785]]]}}, {"id": "10", "type": "Feature", "properties": {"id": 127802782, "name": null, "name_en": null, "descriptio": null, "ref": null, "wikidata": null, "operator": null, "wd_operato": null, "start_date": null}, "geometry": {"type": "Polygon", "coordinates": [[[6.05713031913382, 49.55833473063841], [6.057132582247674, 49.5583689288034], [6.057174240306466, 49.5584033784254], [6.057237188399284, 49.55841234706182], [6.057290832579583, 49.558396589083856], [6.057319750145553, 49.55836633041339], [6.057316984117507, 49.558326767830394], [6.057290581122488, 49.55830195739701], [6.057238780960887, 49.55828653469519], [6.057196368530839, 49.558288881628066], [6.057155883938492, 49.55830489106314], [6.05713031913382, 49.55833473063841]]]}}, {"id": "11", "type": "Feature", "properties": {"id": 130406687, "name": null, "name_en": null, "descriptio": null, "ref": null, "wikidata": null, "operator": "Gemeinde Monnerich", "wd_operato": null, "start_date": null}, "geometry": {"type": "Polygon", "coordinates": [[[5.959181242666829, 49.53236516385495], [5.959191971502889, 49.53239936201987], [5.959218374497881, 49.53242978832843], [5.959257937080878, 49.53245342529537], [5.9593068873954, 49.53246817744495], [5.95936028011863, 49.532472368396554], [5.959418618164705, 49.532464237950464], [5.959469328678921, 49.53244378610674], [5.959506292871908, 49.53241335979821], [5.959525068335012, 49.532376563243275], [5.959523475773408, 49.53233783885061], [5.959501682825163, 49.532301796667], [5.9594622878802275, 49.53227262764391], [5.959409984804437, 49.532253935999826], [5.95935097620611, 49.532247984848595], [5.959292386702913, 49.53225536092339], [5.959245699502247, 49.53227262764391], [5.959209489680519, 49.5322985277247], [5.959187277637112, 49.53233037895679], [5.959181242666829, 49.53236516385495]]]}}, {"id": "12", "type": "Feature", "properties": {"id": 131279589, "name": null, "name_en": null, "descriptio": null, "ref": null, "wikidata": null, "operator": null, "wd_operato": null, "start_date": null}, "geometry": {"type": "Polygon", "coordinates": [[[6.108987900000001, 49.5866681], [6.1089954, 49.586689699999994], [6.1090111, 49.586709299999995], [6.1090344, 49.586725699999995], [6.1090724, 49.58674009999999], [6.109115500000001, 49.5867455], [6.109158999999999, 49.58674139999999], [6.1091979, 49.5867282], [6.1092279, 49.58670739999999], [6.1092457, 49.58668140000001], [6.1092493, 49.58665300000001], [6.1092381, 49.58662549999999], [6.1092136, 49.58660190000001], [6.109178499999999, 49.5865848], [6.1091366, 49.5865762], [6.1091109, 49.58657559999999], [6.109070200000001, 49.5865814], [6.1090344, 49.586595199999984], [6.1090131, 49.58660989999997], [6.108997700000001, 49.5866274], [6.1089889, 49.586647400000004], [6.108987900000001, 49.5866681]]]}}, {"id": "13", "type": "Feature", "properties": {"id": 148651259, "name": null, "name_en": null, "descriptio": null, "ref": null, "wikidata": null, "operator": null, "wd_operato": null, "start_date": null}, "geometry": {"type": "Polygon", "coordinates": [[[6.086217618621703, 50.09977818300504], [6.0862212228400665, 50.09979268369753], [6.086231616399999, 50.09980575946646], [6.086247793473149, 50.0998161530264], [6.0862681614978555, 50.0998227747299], [6.086290792636418, 50.09982503784377], [6.086313256136918, 50.0998227747299], [6.086333624161625, 50.0998161530264], [6.086349885053778, 50.09980575946646], [6.086360194794678, 50.09979268369753], [6.086363799013043, 50.09977818300504], [6.086359356604362, 50.09976217356998], [6.086346699930573, 50.09974809197264], [6.086327170096184, 50.09973769841272], [6.086303365491176, 50.09973208253757], [6.086278052143598, 50.09973208253757], [6.08625424753859, 50.09973769841272], [6.086234717704173, 50.09974809197264], [6.086222144849415, 50.09976217356998], [6.086217618621703, 50.09977818300504]]]}}, {"id": "14", "type": "Feature", "properties": {"id": 150262254, "name": null, "name_en": null, "descriptio": null, "ref": null, "wikidata": null, "operator": "Gemeinde Monnerich", "wd_operato": null, "start_date": null}, "geometry": {"type": "Polygon", "coordinates": [[[6.016290920844426, 49.5291309226964], [6.016292094310871, 49.52917107201264], [6.0163130490688, 49.52920862293885], [6.016333417093507, 49.52922496765005], [6.016351773461452, 49.52923971979961], [6.016403741261143, 49.5292610936527], [6.01646367186882, 49.529270229927164], [6.016524943581032, 49.529266374251684], [6.01658101851325, 49.52924986190246], [6.016625777876186, 49.52922245307909], [6.016654443985062, 49.52918708144768], [6.016663831716612, 49.529147518864704], [6.016653019061522, 49.52910804010076], [6.016622928029108, 49.52907291992648], [6.0165769951997286, 49.52904618165536], [6.016519998258133, 49.52903059131544], [6.016458223631759, 49.52902774146835], [6.016398544481149, 49.529038135028266], [6.016347247233739, 49.529060682347854], [6.016310031583656, 49.52909278503699], [6.016290920844426, 49.5291309226964]]]}}, {"id": "15", "type": "Feature", "properties": {"id": 157379143, "name": null, "name_en": null, "descriptio": null, "ref": null, "wikidata": null, "operator": null, "wd_operato": null, "start_date": null}, "geometry": {"type": "Polygon", "coordinates": [[[6.2344021230165945, 49.583574149836465], [6.234403045025942, 49.58359552368955], [6.234416456071017, 49.583619495932616], [6.2344415179615, 49.58363885812894], [6.2344754646693445, 49.583651430983714], [6.23451393760493, 49.58365587339237], [6.234562636462357, 49.58364866495566], [6.234594320056345, 49.583633828987026], [6.234616364461715, 49.583612958048136], [6.234626087469394, 49.583588399071836], [6.234622231793936, 49.58356316954329], [6.234611335319811, 49.58354648955595], [6.234586273429301, 49.58352704354061], [6.234552326721456, 49.58351438686681], [6.23451393760493, 49.58350994445814], [6.234469681156156, 49.58351572797133], [6.234436991733787, 49.58352964193058], [6.234413438585876, 49.58354992613628], [6.2344021230165945, 49.583574149836465]]]}}, {"id": "16", "type": "Feature", "properties": {"id": 157502178, "name": null, "name_en": null, "descriptio": null, "ref": null, "wikidata": null, "operator": null, "wd_operato": null, "start_date": null}, "geometry": {"type": "Polygon", "coordinates": [[[6.4966989, 49.711522599999974], [6.4967064, 49.711540799999995], [6.496723000000001, 49.71155629999999], [6.4967468, 49.71156719999998], [6.4967749, 49.7115721], [6.4967981, 49.711571399999976], [6.4968254000000005, 49.71156479999999], [6.496847500000001, 49.7115525], [6.4968617, 49.7115361], [6.496866499999999, 49.71151750000002], [6.4968569, 49.71149299999999], [6.4968392, 49.711478099999994], [6.4968146, 49.71146799999998], [6.496786099999999, 49.7114639], [6.4967440000000005, 49.71146989999999], [6.496720899999999, 49.711481400000004], [6.4967051, 49.71149719999999], [6.4966989, 49.711522599999974]]]}}, {"id": "17", "type": "Feature", "properties": {"id": 159349894, "name": null, "name_en": null, "descriptio": null, "ref": null, "wikidata": null, "operator": null, "wd_operato": null, "start_date": null}, "geometry": {"type": "Polygon", "coordinates": [[[6.030320969471405, 49.559804078264754], [6.030321640023658, 49.55983282819263], [6.030350892865727, 49.559854788778935], [6.030394730219314, 49.559859231187616], [6.030432867878773, 49.559844479038034], [6.0304405792296905, 49.559830062164586], [6.030447452390292, 49.55981715403371], [6.030431526774265, 49.559790248124486], [6.0303927185625525, 49.559776166527165], [6.03034904884703, 49.559781530945195], [6.030320969471405, 49.559804078264754]]]}}, {"id": "18", "type": "Feature", "properties": {"id": 165741203, "name": null, "name_en": null, "descriptio": null, "ref": null, "wikidata": null, "operator": null, "wd_operato": null, "start_date": null}, "geometry": {"type": "Polygon", "coordinates": [[[6.103538, 49.616181400000016], [6.103547799999999, 49.61622059999999], [6.1035976000000005, 49.61624379999999], [6.1036582, 49.616237500000004], [6.103694, 49.61620519999999], [6.1036842, 49.61616599999999], [6.1036344, 49.61614270000001], [6.1035739, 49.616149099999994], [6.103538, 49.616181400000016]]]}}, {"id": "19", "type": "Feature", "properties": {"id": 175026305, "name": null, "name_en": null, "descriptio": null, "ref": null, "wikidata": null, "operator": null, "wd_operato": null, "start_date": null}, "geometry": {"type": "Polygon", "coordinates": [[[6.115108446299218, 49.51577796420781], [6.11511498418369, 49.51580059534638], [6.115132837637447, 49.515820292818816], [6.115160162641785, 49.51583487733034], [6.115196791558674, 49.51584275631933], [6.115232079371026, 49.51584183430996], [6.115264684974362, 49.51583303331166], [6.115290752693227, 49.51581769442885], [6.1153094443373, 49.51579162670997], [6.115310953079871, 49.515768744114276], [6.115300391881875, 49.515746951166065], [6.115278850390723, 49.515728762436154], [6.115249178453497, 49.51571635721947], [6.115225290029457, 49.515712082448836], [6.115189918398045, 49.51571266918208], [6.115157061337613, 49.515721051085244], [6.115131664171003, 49.51573538413966], [6.115114229812406, 49.51575533306921], [6.115108446299218, 49.51577796420781]]]}}, {"id": "20", "type": "Feature", "properties": {"id": 175609782, "name": null, "name_en": null, "descriptio": null, "ref": null, "wikidata": null, "operator": null, "wd_operato": null, "start_date": null}, "geometry": {"type": "Polygon", "coordinates": [[[6.286837046156221, 49.50196743762491], [6.2868494513729445, 49.50199551700052], [6.286872333968603, 49.502016974672664], [6.286908795247399, 49.50203432521227], [6.286952129686796, 49.50204253947736], [6.287002840201012, 49.5020396896303], [6.287043324793331, 49.50202669768038], [6.28707458929216, 49.50200549146532], [6.287092694203039, 49.501978585556145], [6.287096382240435, 49.50195654115079], [6.287087497423073, 49.50192787504197], [6.28707165562605, 49.50190909957885], [6.287039133841744, 49.50188864773507], [6.286997978697173, 49.501876661613544], [6.286945591802321, 49.501875236690005], [6.286902927915178, 49.501884875878645], [6.2868585876474015, 49.50191136269272], [6.286840231279456, 49.501938184782844], [6.286837046156221, 49.50196743762491]]]}}, {"id": "21", "type": "Feature", "properties": {"id": 176923763, "name": null, "name_en": null, "descriptio": null, "ref": null, "wikidata": null, "operator": null, "wd_operato": null, "start_date": null}, "geometry": {"type": "Polygon", "coordinates": [[[5.980616786566657, 49.88675647243984], [5.980622570079846, 49.88676845856134], [5.980634388563317, 49.88677851684518], [5.9806507332745005, 49.88678539000577], [5.980669760194701, 49.8867881560338], [5.980687362191361, 49.886786982567365], [5.980703455445479, 49.886782372520614], [5.980716531214426, 49.88677474498875], [5.9807253322127565, 49.886764854342985], [5.98072893643112, 49.88675379023079], [5.9807270924124225, 49.886742474661546], [5.980719883975695, 49.886732081101606], [5.980707981673191, 49.88672369919842], [5.980692642790359, 49.88671799950426], [5.980675376069827, 49.886715652571354], [5.980655930054468, 49.88671724513297], [5.980638579514903, 49.88672302864615], [5.980625336107891, 49.886732248739655], [5.980617792395037, 49.88674389958505], [5.980616786566657, 49.88675647243984]]]}}, {"id": "22", "type": "Feature", "properties": {"id": 197295744, "name": null, "name_en": null, "descriptio": null, "ref": null, "wikidata": null, "operator": null, "wd_operato": null, "start_date": null}, "geometry": {"type": "Polygon", "coordinates": [[[6.189638150023285, 49.514768196332476], [6.189642843889061, 49.514791330385236], [6.189656674029295, 49.51481303951446], [6.189678634615603, 49.51483164733953], [6.189707216905418, 49.5148458965749], [6.189740660699101, 49.514854865211305], [6.189776451425644, 49.51485796651547], [6.189812242152186, 49.514854865211305], [6.18984568594584, 49.5148458965749], [6.189874268235684, 49.51483164733953], [6.189896228821994, 49.51481303951446], [6.189910058962226, 49.514791330385236], [6.189914752828002, 49.514768196332476], [6.189910058962226, 49.514744894641666], [6.189896228821994, 49.514723269331476], [6.189874268235684, 49.514704661506435], [6.18984568594584, 49.51469032845201], [6.189812242152186, 49.51468135981559], [6.189776451425644, 49.514678258511424], [6.189740660699101, 49.51468135981559], [6.189707216905418, 49.51469032845201], [6.189678634615603, 49.514704661506435], [6.189656674029295, 49.514723269331476], [6.189642843889061, 49.514744894641666], [6.189638150023285, 49.514768196332476]]]}}, {"id": "23", "type": "Feature", "properties": {"id": 206921952, "name": null, "name_en": null, "descriptio": null, "ref": null, "wikidata": null, "operator": null, "wd_operato": null, "start_date": null}, "geometry": {"type": "Polygon", "coordinates": [[[6.153716581963835, 49.59407575250351], [6.153747427367507, 49.594156889326236], [6.153857733213271, 49.59420013994662], [6.153982958846683, 49.594180191017074], [6.154049678795957, 49.59410852574492], [6.154018749573226, 49.59402747274124], [6.15390844372746, 49.59398413830183], [6.153783218094048, 49.59400417105043], [6.153716581963835, 49.59407575250351]]]}}, {"id": "24", "type": "Feature", "properties": {"id": 210272893, "name": null, "name_en": null, "descriptio": null, "ref": null, "wikidata": null, "operator": null, "wd_operato": null, "start_date": "1985"}, "geometry": {"type": "Polygon", "coordinates": [[[5.968285665893916, 49.935132458967686], [5.968293880159023, 49.935247961593426], [5.968462859326991, 49.935242932451516], [5.968454561242851, 49.93512742982579], [5.968285665893916, 49.935132458967686]]]}}, {"id": "25", "type": "Feature", "properties": {"id": 220940841, "name": null, "name_en": null, "descriptio": null, "ref": null, "wikidata": null, "operator": null, "wd_operato": null, "start_date": null}, "geometry": {"type": "Polygon", "coordinates": [[[6.093103771173902, 50.020469621005645], [6.09311156634385, 50.02048621717392], [6.093127491959904, 50.02050038259028], [6.093149871641374, 50.02051002177894], [6.093176023179267, 50.02051446418759], [6.093203096726512, 50.02051295544504], [6.0932262307792655, 50.02050633374153], [6.093245173880462, 50.02049535344838], [6.0932575790971555, 50.020481188032036], [6.093262440600995, 50.020465094777926], [6.093259087839726, 50.02044883388575], [6.093247939908508, 50.02043416555519], [6.093230254092788, 50.020422430890754], [6.093207622954226, 50.020414887177886], [6.093182561063743, 50.020412372606934], [6.093157499173259, 50.02041505481597], [6.093133526930188, 50.020423269081085], [6.093115422019309, 50.02043626103098], [6.09310519609744, 50.020452270466045], [6.093103771173902, 50.020469621005645]]]}}, {"id": "26", "type": "Feature", "properties": {"id": 234014136, "name": null, "name_en": null, "descriptio": null, "ref": null, "wikidata": null, "operator": null, "wd_operato": null, "start_date": null}, "geometry": {"type": "Polygon", "coordinates": [[[5.974154925953087, 49.58938708350632], [5.974164732779798, 49.5894245506135], [5.9742002720492735, 49.589454725464925], [5.974253329496349, 49.58947081871901], [5.974311918999548, 49.589469058519335], [5.974362545694704, 49.58944986396108], [5.974393558736438, 49.58941767745287], [5.974397917326087, 49.5893796236125], [5.9743746994543026, 49.5893448387143], [5.974328934262985, 49.58932095029024], [5.9742714344072, 49.58931357421548], [5.974215191836919, 49.58932438687057], [5.974173198502001, 49.589350957503605], [5.974154925953087, 49.58938708350632]]]}}, {"id": "27", "type": "Feature", "properties": {"id": 258519498, "name": null, "name_en": null, "descriptio": null, "ref": null, "wikidata": null, "operator": null, "wd_operato": null, "start_date": null}, "geometry": {"type": "Polygon", "coordinates": [[[5.998649445416079, 49.506301049203685], [5.998654558377012, 49.50632845802705], [5.998677440972699, 49.50635159207982], [5.998713566975368, 49.506366092772325], [5.998755727948321, 49.50636885880037], [5.998795625807445, 49.50635955488781], [5.998825381563705, 49.50633985741538], [5.998838960246843, 49.506313873515545], [5.998833847285909, 49.50628646469218], [5.998810964690251, 49.5062632468204], [5.9987748386875515, 49.50624882994693], [5.9987326777146, 49.5062460639189], [5.998692863674535, 49.5062553678314], [5.998663024099215, 49.50627506530386], [5.998649445416079, 49.506301049203685]]]}}, {"id": "28", "type": "Feature", "properties": {"id": 263807791, "name": null, "name_en": null, "descriptio": null, "ref": null, "wikidata": null, "operator": "Gemeinde Monnerich", "wd_operato": null, "start_date": null}, "geometry": {"type": "Polygon", "coordinates": [[[6.037659744794979, 49.53663783899766], [6.037662762280121, 49.53665259114724], [6.037671479459419, 49.53666625364942], [6.037685477237715, 49.53667807213291], [6.037703582148566, 49.53668704076929], [6.037724620725527, 49.53669274046345], [6.037747335683121, 49.536694668301166], [6.037770050640746, 49.53669274046345], [6.037791173036737, 49.53668704076929], [6.037809277947588, 49.53667807213291], [6.0378231919068535, 49.53666625364942], [6.037831992905184, 49.53665259114724], [6.037834926571293, 49.53663783899766], [6.037831992905184, 49.536623170667085], [6.0378231919068535, 49.53660942434589], [6.037809277947588, 49.53659768968145], [6.037791173036737, 49.536588637226025], [6.037770050640746, 49.53658293753186], [6.037747335683121, 49.536581093513185], [6.037724620725527, 49.53658293753186], [6.037703582148566, 49.536588637226025], [6.037685477237715, 49.53659768968145], [6.037671479459419, 49.53660942434589], [6.037662762280121, 49.536623170667085], [6.037659744794979, 49.53663783899766]]]}}, {"id": "29", "type": "Feature", "properties": {"id": 293769888, "name": null, "name_en": null, "descriptio": null, "ref": null, "wikidata": null, "operator": null, "wd_operato": null, "start_date": null}, "geometry": {"type": "Polygon", "coordinates": [[[5.928742948025444, 49.562730535938755], [5.928805141746977, 49.56308609627138], [5.92905953250829, 49.563067153170195], [5.929054335728324, 49.56303974434681], [5.928997757881915, 49.56271226338983], [5.928742948025444, 49.562730535938755]]]}}, {"id": "30", "type": "Feature", "properties": {"id": 298825215, "name": "Aquatower Berdorf", "name_en": null, "descriptio": null, "ref": null, "wikidata": "Q20572467", "operator": null, "wd_operato": null, "start_date": null}, "geometry": {"type": "Polygon", "coordinates": [[[6.340568146802639, 49.814530534802984], [6.340568565897797, 49.81455224393221], [6.340580132924174, 49.81457269577598], [6.340601674415325, 49.81458937576327], [6.340630424343202, 49.8146005236945], [6.3406634490417275, 49.81460496610316], [6.340696892835382, 49.81460203243708], [6.340726732410673, 49.81459214179133], [6.340749028273109, 49.81457722200369], [6.3407628584133695, 49.814558697997676], [6.340766881726893, 49.81453807851584], [6.340760595299515, 49.81451779431016], [6.340744585864429, 49.814499857037376], [6.340720529802326, 49.814486026897164], [6.340691193141225, 49.81447789645109], [6.34065917427111, 49.814476136251415], [6.3406279935912835, 49.814481081574286], [6.340599662758563, 49.81449273241969], [6.340578875638698, 49.81450999914023], [6.340568146802639, 49.814530534802984]]]}}, {"id": "31", "type": "Feature", "properties": {"id": 308462242, "name": null, "name_en": null, "descriptio": null, "ref": null, "wikidata": null, "operator": null, "wd_operato": null, "start_date": "1974"}, "geometry": {"type": "Polygon", "coordinates": [[[6.224575598831108, 49.649895539601715], [6.224578783954314, 49.64993065977603], [6.224599738712271, 49.649963181560324], [6.224636367629131, 49.649989249279194], [6.224681378449162, 49.65000534253328], [6.224731837506284, 49.65001154514163], [6.224782883296597, 49.65000701891393], [6.224829151402105, 49.6499924344024], [6.2248658641380255, 49.649969216530614], [6.2248894172859375, 49.6499395445934], [6.22489746391298, 49.64990668753294], [6.224889165828842, 49.64987383047249], [6.224863349567073, 49.64984273361173], [6.224823284069886, 49.6498190966448], [6.22477316028892, 49.64980526650456], [6.224718845556367, 49.64980317102878], [6.224666458661517, 49.64981264257935], [6.224622034574708, 49.6498330944231], [6.224590518618753, 49.64986176053194], [6.224575598831108, 49.649895539601715]]]}}, {"id": "32", "type": "Feature", "properties": {"id": 311979112, "name": null, "name_en": null, "descriptio": null, "ref": null, "wikidata": null, "operator": null, "wd_operato": null, "start_date": null}, "geometry": {"type": "Polygon", "coordinates": [[[5.959341169379371, 49.80402683666014], [5.959388191856192, 49.80407712807919], [5.959479135505632, 49.804075954612756], [5.959523140497282, 49.80402457354628], [5.959476118020489, 49.80397428212725], [5.959385174371051, 49.803975371774676], [5.959341169379371, 49.80402683666014]]]}}, {"id": "33", "type": "Feature", "properties": {"id": 406491242, "name": null, "name_en": null, "descriptio": null, "ref": null, "wikidata": null, "operator": null, "wd_operato": null, "start_date": null}, "geometry": {"type": "Polygon", "coordinates": [[[5.907709232563746, 49.649591192697486], [5.90771476461984, 49.64961793096864], [5.907737982491653, 49.64964047828813], [5.907774024675291, 49.6496541407903], [5.907815766553085, 49.649656152447065], [5.907854574764797, 49.64964609416328], [5.907889778758118, 49.64961533257864], [5.907892377148102, 49.64958473863207], [5.907871422390172, 49.64955732980868], [5.907838146234553, 49.64954165564973], [5.907792883957427, 49.64953704560299], [5.907750555346411, 49.64954668479166], [5.907722475970785, 49.64956546025474], [5.907709232563746, 49.649591192697486]]]}}, {"id": "34", "type": "Feature", "properties": {"id": 451741700, "name": null, "name_en": null, "descriptio": null, "ref": null, "wikidata": null, "operator": null, "wd_operato": null, "start_date": null}, "geometry": {"type": "Polygon", "coordinates": [[[5.9572158540107125, 49.748525478063506], [5.957229181236756, 49.74855875421908], [5.957274946428073, 49.74857627239675], [5.957326578951638, 49.748567639036445], [5.957353568679848, 49.74853805091826], [5.957340241453807, 49.74850469094364], [5.957294392443431, 49.74848725658502], [5.957242843738926, 49.74849588994529], [5.9572158540107125, 49.748525478063506]]]}}, {"id": "35", "type": "Feature", "properties": {"id": 469230960, "name": null, "name_en": null, "descriptio": null, "ref": null, "wikidata": null, "operator": null, "wd_operato": null, "start_date": null}, "geometry": {"type": "Polygon", "coordinates": [[[5.917278264683744, 49.67247881750309], [5.91729318447139, 49.67251921827637], [5.917341883328817, 49.67254629182363], [5.917405753431012, 49.67254956076588], [5.917460487258722, 49.67252793545568], [5.917485046235015, 49.67248963015819], [5.91747012644737, 49.67244922938488], [5.9174215952280065, 49.67242223965667], [5.917357557487747, 49.672418970714425], [5.917302823660037, 49.672440596024614], [5.917278264683744, 49.67247881750309]]]}}, {"id": "36", "type": "Feature", "properties": {"id": 475685649, "name": null, "name_en": null, "descriptio": null, "ref": null, "wikidata": null, "operator": null, "wd_operato": null, "start_date": null}, "geometry": {"type": "Polygon", "coordinates": [[[5.814435162591793, 49.891574893298156], [5.8144464781610745, 49.89159584805609], [5.814471540051557, 49.89161118693889], [5.814504816207176, 49.8916170542711], [5.814538595276957, 49.891612444224364], [5.814565165910011, 49.89159819498898], [5.814578241678959, 49.89157757550717], [5.814575140374786, 49.8915554472828], [5.814556364911681, 49.89153675563871], [5.814526273879295, 49.891525859164595], [5.814491740438228, 49.89152518861233], [5.814460727396465, 49.891534995439045], [5.814440359371758, 49.89155284889281], [5.814435162591793, 49.891574893298156]]]}}, {"id": "37", "type": "Feature", "properties": {"id": 479555592, "name": null, "name_en": null, "descriptio": null, "ref": null, "wikidata": null, "operator": null, "wd_operato": null, "start_date": null}, "geometry": {"type": "Polygon", "coordinates": [[[5.975330320235115, 49.67120686369652], [5.975355046849472, 49.67124609100335], [5.975408523391735, 49.67127048234159], [5.975473818417441, 49.671272242541285], [5.975530396263879, 49.671250868688155], [5.975560068201105, 49.67121315012388], [5.97555353031663, 49.67117107296997], [5.975512878086249, 49.6711378806334], [5.975450852002751, 49.67112413431218], [5.975387317176683, 49.67113436023404], [5.975342473994714, 49.67116512181872], [5.975330320235115, 49.67120686369652]]]}}, {"id": "38", "type": "Feature", "properties": {"id": 487433619, "name": null, "name_en": null, "descriptio": null, "ref": null, "wikidata": null, "operator": null, "wd_operato": null, "start_date": null}, "geometry": {"type": "Polygon", "coordinates": [[[6.0788129, 49.65038839999999], [6.0788204, 49.6504042], [6.078835, 49.65041769999999], [6.0788553, 49.650427600000015], [6.078879400000001, 49.65043289999999], [6.0789048, 49.65043320000001], [6.0789316, 49.650427500000006], [6.0789539, 49.650416199999995], [6.0789688, 49.6504007], [6.0789746, 49.650382799999974], [6.078970700000001, 49.65036470000001], [6.0789574, 49.6503486], [6.078936400000001, 49.65033640000001], [6.0789102, 49.6503296], [6.078882000000001, 49.650328900000005], [6.0788577, 49.65033379999999], [6.0788369, 49.650343200000016], [6.078821600000001, 49.65035639999997], [6.0788133, 49.65037200000001], [6.0788129, 49.65038839999999]]]}}, {"id": "39", "type": "Feature", "properties": {"id": 507335563, "name": null, "name_en": null, "descriptio": null, "ref": null, "wikidata": null, "operator": null, "wd_operato": null, "start_date": null}, "geometry": {"type": "Polygon", "coordinates": [[[5.974812600000001, 49.58963180000002], [5.975005400000001, 49.58986999999998], [5.975149799999999, 49.5898209], [5.974957000000001, 49.5895827], [5.974812600000001, 49.58963180000002]]]}}, {"id": "40", "type": "Feature", "properties": {"id": 514479288, "name": null, "name_en": null, "descriptio": null, "ref": null, "wikidata": null, "operator": null, "wd_operato": null, "start_date": null}, "geometry": {"type": "Polygon", "coordinates": [[[6.162896442319464, 49.70091643567598], [6.163153682927856, 49.700937893348126], [6.163176397885451, 49.700823480369806], [6.162919157277059, 49.70080202269766], [6.162896442319464, 49.70091643567598]]]}}, {"id": "41", "type": "Feature", "properties": {"id": 527141596, "name": null, "name_en": null, "descriptio": null, "ref": null, "wikidata": null, "operator": null, "wd_operato": null, "start_date": null}, "geometry": {"type": "Polygon", "coordinates": [[[5.944535124156602, 49.59860055529368], [5.944572088349587, 49.59861639709066], [5.944605196867116, 49.59860508152138], [5.944612070027716, 49.598577169783816], [5.944580134976633, 49.59856199853908], [5.944539398927219, 49.59857113481355], [5.944535124156602, 49.59860055529368]]]}}, {"id": "42", "type": "Feature", "properties": {"id": 546816250, "name": null, "name_en": null, "descriptio": null, "ref": null, "wikidata": null, "operator": null, "wd_operato": null, "start_date": null}, "geometry": {"type": "Polygon", "coordinates": [[[6.053790885090449, 49.51032603910761], [6.053815695523866, 49.51035939908225], [6.053862718000658, 49.51038001856406], [6.05391954730419, 49.5103827845921], [6.053970760732568, 49.51036677515704], [6.054002779602683, 49.51033618121045], [6.054006970554268, 49.51029921701744], [6.053982160120882, 49.510265940861856], [6.053935053825057, 49.510245153742], [6.053878224521526, 49.51024247153299], [6.05382709491218, 49.510258564787065], [6.053795076042036, 49.510289158733634], [6.053790885090449, 49.51032603910761]]]}}, {"id": "43", "type": "Feature", "properties": {"id": 569762323, "name": null, "name_en": null, "descriptio": null, "ref": null, "wikidata": null, "operator": null, "wd_operato": null, "start_date": null}, "geometry": {"type": "Polygon", "coordinates": [[[6.014093856384563, 49.56261453039883], [6.014096873869704, 49.56262743852971], [6.014098634069369, 49.562633222042884], [6.014113553857044, 49.56264948293505], [6.014136687909797, 49.562660966142396], [6.01416468346639, 49.56266616292236], [6.0141984625361715, 49.56266339689431], [6.014227128645018, 49.56265149459182], [6.014245317374928, 49.56263271912869], [6.014249424507484, 49.56261084236144], [6.014238863309487, 49.56258988760351], [6.014220087846355, 49.56257597364424], [6.0141949421368395, 49.56256742410296], [6.014166778942183, 49.56256524480816], [6.0141392862997805, 49.56256977103586], [6.014116068427995, 49.56258049987194], [6.014099975173877, 49.562596174030894], [6.014093856384563, 49.56261453039883]]]}}, {"id": "44", "type": "Feature", "properties": {"id": 599979059, "name": null, "name_en": null, "descriptio": null, "ref": null, "wikidata": null, "operator": null, "wd_operato": null, "start_date": null}, "geometry": {"type": "Polygon", "coordinates": [[[5.95129806273215, 49.67431948344], [5.951305019711782, 49.67434454533046], [5.951324046631982, 49.67436684119292], [5.951353131835987, 49.674383940275376], [5.951389257838685, 49.674394166197295], [5.9514334304683985, 49.67439584257792], [5.951475591441351, 49.67438712539859], [5.951510041063414, 49.67436918812579], [5.951532085468756, 49.67434437769243], [5.951538790991293, 49.67431596304066], [5.951530073811996, 49.67428922476954], [5.951507694130498, 49.67426617453579], [5.951474250336844, 49.67424949454848], [5.9514340172016205, 49.67424128028336], [5.9513919400477, 49.674242537568844], [5.951353048016955, 49.674253182585886], [5.951322286432315, 49.67427179041092], [5.951304097702432, 49.67429433773047], [5.95129806273215, 49.67431948344]]]}}, {"id": "45", "type": "Feature", "properties": {"id": 602162645, "name": null, "name_en": null, "descriptio": null, "ref": null, "wikidata": null, "operator": null, "wd_operato": null, "start_date": null}, "geometry": {"type": "Polygon", "coordinates": [[[6.146456847987196, 49.5782902818949], [6.146466319537779, 49.57831702016601], [6.146491129971166, 49.57833965130458], [6.146527255973837, 49.578354151997075], [6.146569165489722, 49.578358762043806], [6.146610739729453, 49.578352475616434], [6.146645356989551, 49.57833655000043], [6.146667820490052, 49.57831308067153], [6.146674945107747, 49.57828583948624], [6.146665389738133, 49.57825893357705], [6.146640663123777, 49.578236470076526], [6.146604453302074, 49.57822188556499], [6.146562543786217, 49.57821727551825], [6.14652105336549, 49.5782234781266], [6.14648635228636, 49.578239571380664], [6.14646388878586, 49.57826304070959], [6.146456847987196, 49.5782902818949]]]}}, {"id": "46", "type": "Feature", "properties": {"id": 610603635, "name": null, "name_en": null, "descriptio": null, "ref": null, "wikidata": null, "operator": null, "wd_operato": null, "start_date": null}, "geometry": {"type": "Polygon", "coordinates": [[[5.862530774458519, 49.95373072864325], [5.86254401786553, 49.95374816300188], [5.862568576841824, 49.953759394752154], [5.862592968180053, 49.95376207696116], [5.862617024242184, 49.95375838892377], [5.862636973171732, 49.95374883355414], [5.862649378388426, 49.95373508723292], [5.862652395873567, 49.95371924543591], [5.862643846332332, 49.95370214635346], [5.862624567955038, 49.95368923822257], [5.862598332598083, 49.953683119433265], [5.8625706723176165, 49.95368504727098], [5.8625471191697045, 49.95369468645963], [5.862531864105932, 49.953711366446946], [5.862530774458519, 49.95373072864325]]]}}, {"id": "47", "type": "Feature", "properties": {"id": 627439841, "name": "Waassertuerm", "name_en": null, "descriptio": null, "ref": null, "wikidata": null, "operator": null, "wd_operato": null, "start_date": null}, "geometry": {"type": "Polygon", "coordinates": [[[6.122710748658562, 49.62379898698516], [6.122797082261257, 49.62380837471672], [6.1228077272782855, 49.623767051934074], [6.122721561313654, 49.62375766420254], [6.122710748658562, 49.62379898698516]]]}}, {"id": "48", "type": "Feature", "properties": {"id": 679820185, "name": null, "name_en": null, "descriptio": null, "ref": null, "wikidata": null, "operator": null, "wd_operato": null, "start_date": null}, "geometry": {"type": "Polygon", "coordinates": [[[5.882689670685978, 49.93719206021549], [5.882702578816862, 49.93720915929794], [5.882721941013187, 49.93721896612466], [5.882745745618195, 49.9372229894382], [5.8827700531374205, 49.93722055868628], [5.882790756438254, 49.937211925326], [5.882804418940424, 49.93719884955704], [5.882808777530073, 49.937181834293604], [5.8828012338172195, 49.93716532194437], [5.882783380363464, 49.937152665270595], [5.882758737568139, 49.9371460435671], [5.882732083116024, 49.937147049395456], [5.882706434492319, 49.9371566885841], [5.882691179428548, 49.93717294947626], [5.882689670685978, 49.93719206021549]]]}}, {"id": "49", "type": "Feature", "properties": {"id": 680976004, "name": null, "name_en": null, "descriptio": null, "ref": null, "wikidata": null, "operator": null, "wd_operato": null, "start_date": null}, "geometry": {"type": "Polygon", "coordinates": [[[5.998224063830036, 49.50482273294099], [5.998256334157246, 49.504865983561366], [5.998326239229726, 49.50488174153931], [5.998392959178971, 49.5048608706004], [5.99841726669817, 49.504815440685206], [5.99838499637096, 49.50477219006485], [5.998315091298508, 49.50475634826783], [5.998248371349234, 49.50477721920674], [5.998224063830036, 49.50482273294099]]]}}, {"id": "50", "type": "Feature", "properties": {"id": 686743577, "name": null, "name_en": null, "descriptio": null, "ref": null, "wikidata": null, "operator": null, "wd_operato": null, "start_date": null}, "geometry": {"type": "Polygon", "coordinates": [[[5.970437048981438, 50.09702137505127], [5.970443251589785, 50.09704073724757], [5.970461859414855, 50.09705657904461], [5.970489352057257, 50.09706554768099], [5.97052028127996, 50.0970660505952], [5.970548444474616, 50.09705783633008], [5.97056822576613, 50.097042665085326], [5.9705758532980155, 50.097023470527056], [5.970569734508699, 50.09700402451169], [5.9705510428646, 50.09698826653375], [5.970523550222198, 50.09697929789734], [5.970492620999494, 50.096978794983144], [5.970464457804837, 50.09698684161018], [5.970444676513323, 50.097002096673954], [5.970437048981438, 50.09702137505127]]]}}, {"id": "51", "type": "Feature", "properties": {"id": 693637627, "name": null, "name_en": null, "descriptio": null, "ref": null, "wikidata": null, "operator": null, "wd_operato": null, "start_date": null}, "geometry": {"type": "Polygon", "coordinates": [[[6.058243771151383, 49.910955697454014], [6.058244860798794, 49.910968773222976], [6.058258523300964, 49.91097849623064], [6.058278639868604, 49.910980675525465], [6.058296241865264, 49.910974389098094], [6.058304037035214, 49.910962486795576], [6.058298756436215, 49.91094999775986], [6.058282663182126, 49.91094228640896], [6.058266486109005, 49.910941783494756], [6.058252153054553, 49.910946728817635], [6.058243771151383, 49.910955697454014]]]}}, {"id": "52", "type": "Feature", "properties": {"id": 753113322, "name": null, "name_en": null, "descriptio": null, "ref": null, "wikidata": null, "operator": null, "wd_operato": null, "start_date": null}, "geometry": {"type": "Polygon", "coordinates": [[[6.2137231296972, 49.59697857321058], [6.213734948180672, 49.597018219612565], [6.213770655088212, 49.5970513281301], [6.213823963992383, 49.597072199069], [6.213885822437818, 49.597077144391896], [6.2139454177693665, 49.5970653259084], [6.213992440246187, 49.59703892291341], [6.214018843241178, 49.59700237781556], [6.214020016707622, 49.59696197704229], [6.213995793007457, 49.596924761392174], [6.213950279273206, 49.59689726874978], [6.21389135449391, 49.596884025342774], [6.213829328410411, 49.596887461923075], [6.213774762220766, 49.59690707557649], [6.21373729511356, 49.596939262084675], [6.2137231296972, 49.59697857321058]]]}}, {"id": "53", "type": "Feature", "properties": {"id": 754037801, "name": null, "name_en": null, "descriptio": null, "ref": null, "wikidata": null, "operator": null, "wd_operato": null, "start_date": null}, "geometry": {"type": "Polygon", "coordinates": [[[6.023524419464138, 50.161653727508046], [6.023536154128579, 50.16166898257182], [6.02355819853392, 50.161678454122416], [6.023584685347942, 50.16167962758886], [6.023608489952949, 50.161672167695016], [6.023623242102531, 50.16165791845964], [6.0236250861212275, 50.161641070834264], [6.023613351456788, 50.161625731951474], [6.023591390870479, 50.16161626040087], [6.023564820237425, 50.16161517075345], [6.023540931813385, 50.16162263064728], [6.023526263482836, 50.16163679606366], [6.023524419464138, 50.161653727508046]]]}}, {"id": "54", "type": "Feature", "properties": {"id": 808447831, "name": null, "name_en": null, "descriptio": null, "ref": null, "wikidata": null, "operator": null, "wd_operato": null, "start_date": null}, "geometry": {"type": "Polygon", "coordinates": [[[6.3340563, 49.752967899999994], [6.3341318, 49.75301629999999], [6.334264899999999, 49.75292989999999], [6.334189399999999, 49.75288139999998], [6.3340563, 49.752967899999994]]]}}, {"id": "55", "type": "Feature", "properties": {"id": 833448622, "name": null, "name_en": null, "descriptio": null, "ref": null, "wikidata": null, "operator": null, "wd_operato": null, "start_date": null}, "geometry": {"type": "Polygon", "coordinates": [[[6.0811329, 49.95173349999999], [6.0811877, 49.95180229999998], [6.081294599999999, 49.95176699999998], [6.0812518, 49.951713299999994], [6.081248900000001, 49.95170969999999], [6.081239699999999, 49.95169819999998], [6.0811329, 49.95173349999999]]]}}, {"id": "56", "type": "Feature", "properties": {"id": 833538006, "name": null, "name_en": null, "descriptio": null, "ref": null, "wikidata": null, "operator": null, "wd_operato": null, "start_date": null}, "geometry": {"type": "Polygon", "coordinates": [[[6.109444626686809, 49.95814044790288], [6.109470023853419, 49.958174143153634], [6.109504976389643, 49.95820691639502], [6.109586029393342, 49.95817548425813], [6.109555267808701, 49.95814229192158], [6.109529032451774, 49.958108596670826], [6.109444626686809, 49.95814044790288]]]}}, {"id": "57", "type": "Feature", "properties": {"id": 855355382, "name": null, "name_en": null, "descriptio": null, "ref": null, "wikidata": null, "operator": null, "wd_operato": null, "start_date": null}, "geometry": {"type": "Polygon", "coordinates": [[[6.2777385740804155, 49.84824439338559], [6.278001682021029, 49.84861361622037], [6.278220449693862, 49.84854848883268], [6.277959353410011, 49.84817842780758], [6.2777385740804155, 49.84824439338559]]]}}, {"id": "58", "type": "Feature", "properties": {"id": 870744525, "name": null, "name_en": null, "descriptio": null, "ref": null, "wikidata": null, "operator": null, "wd_operato": null, "start_date": null}, "geometry": {"type": "Polygon", "coordinates": [[[5.756860037330995, 49.810790361968905], [5.756862551901946, 49.81080947270812], [5.756878477517972, 49.81082564978127], [5.756904126141677, 49.81083528896995], [5.756933798078904, 49.81083629479831], [5.756960117254892, 49.8108285834474], [5.7569783898038045, 49.81081399893584], [5.756984424774089, 49.81079564256791], [5.756977132518329, 49.81077753765704], [5.756957937960066, 49.81076353987875], [5.756931199688921, 49.81075658289913], [5.756906892169723, 49.81075733727041], [5.756884763945351, 49.810764042792925], [5.756868335415134, 49.8107755260003], [5.756860037330995, 49.810790361968905]]]}}, {"id": "59", "type": "Feature", "properties": {"id": 901369261, "name": null, "name_en": null, "descriptio": null, "ref": null, "wikidata": null, "operator": null, "wd_operato": null, "start_date": null}, "geometry": {"type": "Polygon", "coordinates": [[[5.881065090212901, 49.82608356340415], [5.881066263679344, 49.82609613625891], [5.881077076334436, 49.826106697456886], [5.881094594512064, 49.826112145693955], [5.881123092982847, 49.8261082900185], [5.881138599503715, 49.82609236440248], [5.881131726343113, 49.826074175672595], [5.88110666445263, 49.82606453648393], [5.881088224265654, 49.826065961407494], [5.8810731368399445, 49.826072834568095], [5.881065090212901, 49.82608356340415]]]}}, {"id": "60", "type": "Feature", "properties": {"id": 908709851, "name": null, "name_en": null, "descriptio": null, "ref": null, "wikidata": null, "operator": null, "wd_operato": null, "start_date": null}, "geometry": {"type": "Polygon", "coordinates": [[[5.900355369814464, 50.04832486454605], [5.900358219661541, 50.04833785649597], [5.900367691212153, 50.04834942352236], [5.900382527180767, 50.04835847597778], [5.900401135005808, 50.04836375657678], [5.900420748659229, 50.04836484622418], [5.900439943217492, 50.04836182873904], [5.9004566232048035, 50.0483551232165], [5.900469028421497, 50.04834523257077], [5.900475985401131, 50.048333497906334], [5.900476572134351, 50.048320757413464], [5.900470872440195, 50.04830868747291], [5.90045938923285, 50.04829837773202], [5.900443379797793, 50.04829083401917], [5.900424520515657, 50.04828714598176], [5.900404152490949, 50.04828756507692], [5.90038512557075, 50.048292258942695], [5.900369619049883, 50.048300724664884], [5.900359393127985, 50.04831204023417], [5.900355369814464, 50.04832486454605]]]}}, {"id": "61", "type": "Feature", "properties": {"id": 1204774504, "name": null, "name_en": null, "descriptio": null, "ref": null, "wikidata": null, "operator": null, "wd_operato": null, "start_date": null}, "geometry": {"type": "Polygon", "coordinates": [[[6.277721726455042, 49.84761021859147], [6.277722480826327, 49.84761373899081], [6.277724743940183, 49.847616840294975], [6.277728599615643, 49.84761943868497], [6.277733377300449, 49.847621031246554], [6.27773874171848, 49.8476216179798], [6.277744441412636, 49.847621198884646], [6.277749554373571, 49.84761935486594], [6.277753493868063, 49.847616672656905], [6.277755756981918, 49.847613236076626], [6.277756176077077, 49.84760946422018], [6.277754667334506, 49.847605860001806], [6.277751398392269, 49.84760284251665], [6.277746788345524, 49.847600663221826], [6.2777411724703995, 49.847599573574435], [6.277735388957211, 49.847599657393445], [6.277730024539182, 49.84760108231698], [6.277725665949533, 49.847603596887936], [6.277722732283423, 49.84760678201114], [6.277721726455042, 49.84761021859147]]]}}, {"id": "62", "type": "Feature", "properties": {"id": 1286207415, "name": null, "name_en": null, "descriptio": null, "ref": null, "wikidata": null, "operator": null, "wd_operato": null, "start_date": null}, "geometry": {"type": "Polygon", "coordinates": [[[6.180268188103667, 49.658518254853426], [6.180271540864937, 49.65865538278934], [6.180482178091694, 49.65865328731352], [6.1804787415113935, 49.65851607555857], [6.180268188103667, 49.658518254853426]]]}}, {"id": "63", "type": "Feature", "properties": {"id": 1361923853, "name": null, "name_en": null, "descriptio": null, "ref": null, "wikidata": null, "operator": null, "wd_operato": null, "start_date": null}, "geometry": {"type": "Polygon", "coordinates": [[[6.166198, 49.6380259], [6.166208000000001, 49.6380413], [6.166226499999999, 49.6380578], [6.166258099999999, 49.63806779999999], [6.1662912, 49.63807179999999], [6.1663251, 49.63806429999999], [6.166316600000001, 49.638073800000015], [6.166311200000001, 49.63809520000001], [6.1663128, 49.6381167], [6.166320500000001, 49.6381321], [6.1663328, 49.63814009999998], [6.166350499999999, 49.638152100000006], [6.166384399999999, 49.63815709999999], [6.1664291, 49.638156099999996], [6.166463, 49.6381466], [6.166488400000001, 49.6381266], [6.1664984, 49.63810369999997], [6.1664922, 49.638079699999984], [6.1664799, 49.63806230000001], [6.1664537, 49.638046799999984], [6.1664221, 49.63803880000001], [6.166389, 49.638034300000015], [6.1663651, 49.63803880000001], [6.166372099999999, 49.638024400000006], [6.166369, 49.638009399999994], [6.1663628, 49.63799240000001], [6.1663451, 49.63797799999998], [6.1663212, 49.63796500000001], [6.1662889, 49.63796049999997], [6.1662573, 49.63796350000001], [6.166226499999999, 49.63797499999997], [6.1662103, 49.637989], [6.166199500000001, 49.638004899999984], [6.166198, 49.6380259]]]}}, {"id": "64", "type": "Feature", "properties": {"id": 1393073308, "name": "Ale Waassertuem", "name_en": null, "descriptio": null, "ref": null, "wikidata": null, "operator": null, "wd_operato": null, "start_date": null}, "geometry": {"type": "Polygon", "coordinates": [[[6.2260835000000005, 49.65265579999998], [6.2261253, 49.6526753], [6.2261724, 49.65266170000001], [6.2261777, 49.652628499999985], [6.2261359, 49.65260889999999], [6.2260888, 49.65262250000001], [6.2260835000000005, 49.65265579999998]]]}}, {"id": "65", "type": "Feature", "properties": {"id": 1421201363, "name": "Ch\u00e2teau d'eau de Holtz", "name_en": null, "descriptio": null, "ref": null, "wikidata": null, "operator": null, "wd_operato": null, "start_date": null}, "geometry": {"type": "Polygon", "coordinates": [[[5.7962728, 49.8065429], [5.796282800000001, 49.80656349999999], [5.796308500000001, 49.806577399999995], [5.7963418, 49.80658009999999], [5.796371999999999, 49.80657070000002], [5.7963896, 49.80655229999997], [5.7963890000000005, 49.8065307], [5.796370400000001, 49.806512699999985], [5.7963396, 49.80650409999997], [5.796306599999999, 49.806507599999996], [5.7962816, 49.806521999999994], [5.7962728, 49.8065429]]]}}, {"id": "66", "type": "Feature", "properties": {"id": 1455840338, "name": null, "name_en": null, "descriptio": null, "ref": null, "wikidata": null, "operator": null, "wd_operato": null, "start_date": null}, "geometry": {"type": "Polygon", "coordinates": [[[6.312887400000001, 49.5112585], [6.312906299999999, 49.511276899999984], [6.312938999999999, 49.511283], [6.3129701, 49.511274100000016], [6.3129851, 49.51125429999999], [6.312976900000001, 49.511232800000016], [6.3129495, 49.511219799999985], [6.3129155, 49.51122129999998], [6.312891, 49.51123659999999], [6.312887400000001, 49.5112585]]]}}]}