{"type": "FeatureCollection", "features": [{"id": "0", "type": "Feature", "properties": {"id": 361945705, "name": null, "name_en": null, "descriptio": null, "wikidata": null, "ref": null, "operator": "Creos", "wd_operato": "Q21036415", "start_date": null}, "geometry": {"type": "Polygon", "coordinates": [[[5.9147379612889495, 49.552071521130074], [5.914829324033518, 49.552120555263656], [5.9149802821096955, 49.5520021189718], [5.914888919365098, 49.55195316865726], [5.9147379612889495, 49.552071521130074]]]}}, {"id": "1", "type": "Feature", "properties": {"id": 460847990, "name": null, "name_en": null, "descriptio": null, "wikidata": null, "ref": null, "operator": "Creos", "wd_operato": "Q21036415", "start_date": null}, "geometry": {"type": "Polygon", "coordinates": [[[5.9311860213434215, 49.53222518607195], [5.931213262528729, 49.53225946805595], [5.931246371046285, 49.532303389228595], [5.931522638574875, 49.532252930171474], [5.931467569471011, 49.532174475557746], [5.9311860213434215, 49.53222518607195]]]}}, {"id": "2", "type": "Feature", "properties": {"id": 460958982, "name": "Creos", "name_en": null, "descriptio": null, "wikidata": null, "ref": null, "operator": null, "wd_operato": null, "start_date": null}, "geometry": {"type": "Polygon", "coordinates": [[[5.966836937749405, 49.513986835318676], [5.966937520587464, 49.514102170306316], [5.9671985330523105, 49.51436603261822], [5.967640091711474, 49.51419923274506], [5.96816362538371, 49.513956157553004], [5.967998669529237, 49.513916092055844], [5.967941840225734, 49.51394802710694], [5.967909234622368, 49.5139291678248], [5.967880149418362, 49.51391232019944], [5.967905798042068, 49.51389379619344], [5.967734052846056, 49.5137941353647], [5.967615532735181, 49.51374828635435], [5.966981274122048, 49.51387594273965], [5.966836937749405, 49.513986835318676]]]}}, {"id": "3", "type": "Feature", "properties": {"id": 568247736, "name": "Creos", "name_en": null, "descriptio": null, "wikidata": null, "ref": null, "operator": "Creos", "wd_operato": "Q21036415", "start_date": null}, "geometry": {"type": "Polygon", "coordinates": [[[6.07511218365002, 49.55464158028116], [6.075125175599936, 49.5547233876561], [6.0751336413221395, 49.55477736711254], [6.075130959113125, 49.554893037376345], [6.0756808957803505, 49.554863449258164], [6.075774689276869, 49.55474166020504], [6.075768570487555, 49.554655158964266], [6.075620462258457, 49.55466597161939], [6.075619121153948, 49.55457117229448], [6.075452740375966, 49.55458382896826], [6.075389624645084, 49.55457687198862], [6.07511218365002, 49.55464158028116]]]}}, {"id": "4", "type": "Feature", "properties": {"id": 680230932, "name": null, "name_en": null, "descriptio": null, "wikidata": null, "ref": null, "operator": "Creos", "wd_operato": "Q21036415", "start_date": null}, "geometry": {"type": "Polygon", "coordinates": [[[5.9613953223901035, 49.88574729129773], [5.96149833598011, 49.88575969651443], [5.961517446719341, 49.88569373093644], [5.9616919579434295, 49.88571476951341], [5.961809472225922, 49.885728851110755], [5.961830762259978, 49.88565534181993], [5.9617951391715, 49.8856510670493], [5.961487020410829, 49.88561393521824], [5.961435723163419, 49.885607816428916], [5.9613953223901035, 49.88574729129773]]]}}, {"id": "5", "type": "Feature", "properties": {"id": 892793193, "name": null, "name_en": null, "descriptio": null, "wikidata": null, "ref": null, "operator": "Creos", "wd_operato": null, "start_date": null}, "geometry": {"type": "Polygon", "coordinates": [[[6.096627690906132, 49.83652347526387], [6.096676222125495, 49.83652389435903], [6.096675383935178, 49.836566474427144], [6.0967590353288585, 49.83656714497939], [6.096836735571259, 49.83656789935067], [6.09683874722802, 49.83647217801642], [6.096755263472432, 49.836471339826126], [6.096756520757907, 49.83641249886585], [6.096630037839021, 49.836411325399396], [6.096627690906132, 49.83652347526387]]]}}, {"id": "6", "type": "Feature", "properties": {"id": 900445608, "name": null, "name_en": null, "descriptio": null, "wikidata": null, "ref": null, "operator": "Creos", "wd_operato": "Q21036415", "start_date": null}, "geometry": {"type": "Polygon", "coordinates": [[[6.129135896536213, 49.67043698589002], [6.129147631200651, 49.670512087742445], [6.129307557913222, 49.67050077217315], [6.129294817420374, 49.67042567032074], [6.129135896536213, 49.67043698589002]]]}}, {"id": "7", "type": "Feature", "properties": {"id": 938319445, "name": null, "name_en": null, "descriptio": null, "wikidata": null, "ref": null, "operator": "Creos", "wd_operato": "Q21036415", "start_date": null}, "geometry": {"type": "Polygon", "coordinates": [[[6.197941850040195, 49.53586645244859], [6.197950064305303, 49.53603576689268], [6.198223649624879, 49.5360302348366], [6.198215435359772, 49.535860920392516], [6.197941850040195, 49.53586645244859]]]}}, {"id": "8", "type": "Feature", "properties": {"id": 944238650, "name": "Shell Luxembourgeoise", "name_en": null, "descriptio": null, "wikidata": null, "ref": null, "operator": null, "wd_operato": null, "start_date": null}, "geometry": {"type": "Polygon", "coordinates": [[[6.0616233545109415, 49.61291458280016], [6.061750759439178, 49.61305003435548], [6.06170247967691, 49.613127986054984], [6.061811360599137, 49.61330794551609], [6.061808426933026, 49.61333946147204], [6.062371690826297, 49.613466279667044], [6.062889357166284, 49.613488072615326], [6.063039560871148, 49.61347415865603], [6.063231338815769, 49.613430656578586], [6.063285066815098, 49.61355948643034], [6.063702066497995, 49.61345412590743], [6.064072127523105, 49.61330392220259], [6.064360548811294, 49.61316386060059], [6.064438332872755, 49.61326469489575], [6.065208294498262, 49.6131048520022], [6.065225561218797, 49.61310191833609], [6.065242576482234, 49.613097727384506], [6.06537836331367, 49.613069228913744], [6.06517837110394, 49.6126745250933], [6.0658998853291175, 49.61250537828724], [6.065685979160122, 49.612033728595684], [6.066093674930471, 49.61191193954258], [6.066156371566223, 49.611609352838], [6.066176320495771, 49.61151899592179], [6.065811623888693, 49.611531065862344], [6.065424044685955, 49.61154321962193], [6.06538523647427, 49.611480020072044], [6.0652462645196294, 49.61124189020289], [6.065198655309614, 49.611177349548406], [6.064966392772675, 49.611273992892], [6.064704542117539, 49.611416820522074], [6.0646888679586075, 49.61142654352978], [6.064088220777194, 49.61180046023036], [6.063623779522344, 49.61201973081735], [6.063051630811714, 49.61228979573761], [6.06288717787146, 49.61242927060645], [6.062837724642719, 49.61244938717405], [6.0627510557639255, 49.612446118231816], [6.062686850385602, 49.61244435803215], [6.0616233545109415, 49.61291458280016]]]}}, {"id": "9", "type": "Feature", "properties": {"id": 955811035, "name": null, "name_en": null, "descriptio": null, "wikidata": null, "ref": null, "operator": "Fluxys", "wd_operato": null, "start_date": null}, "geometry": {"type": "Polygon", "coordinates": [[[5.837050040268139, 49.982418127530764], [5.837379281424774, 49.982703363695734], [5.837548260592769, 49.98263211751879], [5.838018150084679, 49.98245106841023], [5.838115296342437, 49.982422067025254], [5.8379539447063555, 49.9821430334686], [5.83784799745024, 49.98203004541384], [5.8374067740672055, 49.98224562796346], [5.837050040268139, 49.982418127530764]]]}}, {"id": "10", "type": "Feature", "properties": {"id": 975110776, "name": null, "name_en": null, "descriptio": "Building related to gas network.", "wikidata": null, "ref": null, "operator": null, "wd_operato": null, "start_date": null}, "geometry": {"type": "Polygon", "coordinates": [[[6.131588860499931, 49.64028484942297], [6.131670584055883, 49.64030789965671], [6.131717271256548, 49.64024637648739], [6.131625321778757, 49.64022424826304], [6.131588860499931, 49.64028484942297]]]}}, {"id": "11", "type": "Feature", "properties": {"id": 980222395, "name": null, "name_en": null, "descriptio": null, "wikidata": null, "ref": null, "operator": "Creos", "wd_operato": "Q21036415", "start_date": null}, "geometry": {"type": "Polygon", "coordinates": [[[5.92999729983535, 49.53457765101664], [5.930138786360913, 49.534603048183264], [5.930203159377299, 49.53446633934247], [5.930110623166256, 49.53444722860325], [5.930078520477109, 49.53444119363298], [5.92999729983535, 49.53457765101664]]]}}, {"id": "12", "type": "Feature", "properties": {"id": 1027683079, "name": null, "name_en": null, "descriptio": null, "wikidata": null, "ref": null, "operator": "Creos", "wd_operato": "Q21036415", "start_date": null}, "geometry": {"type": "Polygon", "coordinates": [[[5.961394987113976, 49.511674268233094], [5.961420468099647, 49.511830339270176], [5.961581065364441, 49.511819442796046], [5.9616055405217026, 49.5118180178725], [5.961633284621201, 49.51181642531092], [5.961610150568448, 49.51165876171219], [5.961394987113976, 49.511674268233094]]]}}, {"id": "13", "type": "Feature", "properties": {"id": 1030351576, "name": null, "name_en": null, "descriptio": null, "wikidata": null, "ref": null, "operator": "Creos", "wd_operato": null, "start_date": null}, "geometry": {"type": "Polygon", "coordinates": [[[6.1190390559733885, 49.72464585501732], [6.119365195825878, 49.724679885544184], [6.119477597147437, 49.72422919061057], [6.119431664318057, 49.72422432910674], [6.119151457294947, 49.72419516008368], [6.1190390559733885, 49.72464585501732]]]}}, {"id": "14", "type": "Feature", "properties": {"id": 1042729981, "name": "Creos", "name_en": null, "descriptio": null, "wikidata": null, "ref": null, "operator": "Creos", "wd_operato": "Q21036415", "start_date": null}, "geometry": {"type": "Polygon", "coordinates": [[[6.065221537905273, 49.559960987492154], [6.065247689443169, 49.56009886979934], [6.065232266741333, 49.56009794779003], [6.065228997799096, 49.56015494473157], [6.065251796575723, 49.5601531845319], [6.065249617280899, 49.560186293049455], [6.065404095756406, 49.560193250029094], [6.065413651126022, 49.56014253951488], [6.065341985853878, 49.55994732498998], [6.065221537905273, 49.559960987492154]]]}}, {"id": "15", "type": "Feature", "properties": {"id": 1053024135, "name": null, "name_en": null, "descriptio": null, "wikidata": null, "ref": null, "operator": "Creos", "wd_operato": "Q21036415", "start_date": null}, "geometry": {"type": "Polygon", "coordinates": [[[5.895739455736816, 49.561504598780594], [5.895801146544186, 49.56155371673319], [5.8959637554657425, 49.56162001758727], [5.895951685525176, 49.56163175225174], [5.896212195075805, 49.56168765954589], [5.896278579748952, 49.561622280701165], [5.895899717725484, 49.561461599617296], [5.895739455736816, 49.561504598780594]]]}}, {"id": "16", "type": "Feature", "properties": {"id": 1053137706, "name": null, "name_en": null, "descriptio": null, "wikidata": null, "ref": null, "operator": "Creos", "wd_operato": "Q21036415", "start_date": null}, "geometry": {"type": "Polygon", "coordinates": [[[6.036941667150103, 49.605591146359416], [6.036941667150103, 49.605732465246916], [6.037271830316116, 49.605734225446575], [6.037302424262691, 49.60573288434207], [6.037303765367199, 49.60559206836876], [6.036941667150103, 49.605591146359416]]]}}, {"id": "17", "type": "Feature", "properties": {"id": 1256502803, "name": null, "name_en": null, "descriptio": null, "wikidata": null, "ref": null, "operator": null, "wd_operato": null, "start_date": null}, "geometry": {"type": "Polygon", "coordinates": [[[6.225346650104059, 49.61678769261861], [6.225353020350468, 49.616802696225264], [6.22536827541424, 49.61679984637819], [6.225361821348798, 49.616784926590555], [6.225346650104059, 49.61678769261861]]]}}, {"id": "18", "type": "Feature", "properties": {"id": 1451770478, "name": null, "name_en": null, "descriptio": null, "wikidata": null, "ref": null, "operator": "Creos", "wd_operato": "Q21036415", "start_date": null}, "geometry": {"type": "Polygon", "coordinates": [[[6.09864881921834, 49.79999866163302], [6.098696679885478, 49.8000147548871], [6.0990508991135925, 49.79999547650983], [6.099093898276863, 49.79993051676019], [6.09922482360443, 49.79992355978058], [6.099206467236486, 49.79971258727769], [6.0990388291730255, 49.799728848169885], [6.099068333472189, 49.79986907740996], [6.098664661015335, 49.799867317210285], [6.09864881921834, 49.79999866163302]]]}}, {"id": "19", "type": "Feature", "properties": {"id": 1470853436, "name": null, "name_en": null, "descriptio": null, "wikidata": null, "ref": null, "operator": "Creos", "wd_operato": "Q21036415", "start_date": null}, "geometry": {"type": "Polygon", "coordinates": [[[5.860655491261497, 49.96139488944805], [5.860848945586753, 49.96144015172519], [5.860923795982103, 49.961307717655025], [5.860730257837815, 49.96126245537792], [5.860655491261497, 49.96139488944805]]]}}, {"id": "20", "type": "Feature", "properties": {"id": 1471587949, "name": "Creos", "name_en": null, "descriptio": null, "wikidata": null, "ref": null, "operator": "Creos", "wd_operato": "Q21036415", "start_date": null}, "geometry": {"type": "Polygon", "coordinates": [[[6.091396800000001, 49.83445479999998], [6.0915404, 49.83445840000001], [6.0915424, 49.83442439999997], [6.0914896, 49.83442300000001], [6.0914904, 49.83440929999999], [6.0913997, 49.83440699999999], [6.091396800000001, 49.83445479999998]]]}}, {"id": "21", "type": "Feature", "properties": {"id": 1473575387, "name": null, "name_en": null, "descriptio": null, "wikidata": null, "ref": null, "operator": "Creos", "wd_operato": "Q21036415", "start_date": null}, "geometry": {"type": "Polygon", "coordinates": [[[6.085728199295403, 49.646290818322925], [6.0857330607992415, 49.646416463051494], [6.085948643348871, 49.64641294265218], [6.085943865664064, 49.6462873817426], [6.085728199295403, 49.646290818322925]]]}}, {"id": "22", "type": "Feature", "properties": {"id": 1473626783, "name": null, "name_en": null, "descriptio": null, "wikidata": null, "ref": null, "operator": "Creos", "wd_operato": "Q21036415", "start_date": null}, "geometry": {"type": "Polygon", "coordinates": [[[6.0418932000000005, 49.6215526], [6.041939, 49.62160679999998], [6.0419635, 49.62161009999999], [6.0419982999999995, 49.621599800000006], [6.0419525, 49.621536299999995], [6.0418932000000005, 49.6215526]]]}}, {"id": "23", "type": "Feature", "properties": {"id": 1473626785, "name": null, "name_en": null, "descriptio": null, "wikidata": null, "ref": null, "operator": "Creos", "wd_operato": "Q21036415", "start_date": null}, "geometry": {"type": "Polygon", "coordinates": [[[6.03849877330265, 49.621406540362344], [6.038645624246243, 49.621510895056865], [6.03870949434841, 49.62147317649261], [6.038753499340088, 49.621504440991416], [6.038885299999999, 49.621456800000004], [6.038850400000001, 49.621413899999986], [6.038949971150458, 49.621380137367375], [6.038945277284682, 49.621367983607755], [6.038948294769825, 49.62135147125852], [6.0389593588820105, 49.621334036899924], [6.038958688329756, 49.62131869801708], [6.038945947836936, 49.62129715652593], [6.038848047207893, 49.62122767054866], [6.038667417194489, 49.62133437217603], [6.038646294798498, 49.62131936856938], [6.03849877330265, 49.621406540362344]]]}}, {"id": "24", "type": "Feature", "properties": {"id": 1473626786, "name": null, "name_en": null, "descriptio": null, "wikidata": null, "ref": null, "operator": "Creos", "wd_operato": "Q21036415", "start_date": null}, "geometry": {"type": "Polygon", "coordinates": [[[6.0328218, 49.605119900000005], [6.0329877, 49.60513969999999], [6.0329367000000005, 49.605040200000005], [6.032843899999999, 49.6050607], [6.0328218, 49.605119900000005]]]}}, {"id": "25", "type": "Feature", "properties": {"id": 1473682284, "name": null, "name_en": null, "descriptio": null, "wikidata": null, "ref": null, "operator": "Creos", "wd_operato": "Q21036415", "start_date": null}, "geometry": {"type": "Polygon", "coordinates": [[[6.02381, 49.53755989999999], [6.0239311, 49.53763449999998], [6.0241636000000005, 49.5374751], [6.0240295, 49.53739379999996], [6.02381, 49.53755989999999]]]}}, {"id": "26", "type": "Feature", "properties": {"id": 1473836757, "name": null, "name_en": null, "descriptio": null, "wikidata": null, "ref": null, "operator": "Creos", "wd_operato": "Q21036415", "start_date": null}, "geometry": {"type": "Polygon", "coordinates": [[[5.923509455321947, 49.533070584826035], [5.923627137242506, 49.53320016904911], [5.923813886045224, 49.53313696949917], [5.9237072682368535, 49.53300135030581], [5.923509455321947, 49.533070584826035]]]}}, {"id": "27", "type": "Feature", "properties": {"id": 1473920932, "name": null, "name_en": null, "descriptio": null, "wikidata": null, "ref": null, "operator": "Creos", "wd_operato": "Q21036415", "start_date": null}, "geometry": {"type": "Polygon", "coordinates": [[[5.951410200000001, 49.506706], [5.951449300000001, 49.50677990000001], [5.9514892999999995, 49.50685570000002], [5.9515183, 49.5069105], [5.9515931, 49.50689389999999], [5.951568600000001, 49.50684749999999], [5.9516789999999995, 49.50682290000001], [5.9515954, 49.50666469999997], [5.951410200000001, 49.506706]]]}}, {"id": "28", "type": "Feature", "properties": {"id": 1473927946, "name": null, "name_en": null, "descriptio": null, "wikidata": null, "ref": null, "operator": "Creos", "wd_operato": "Q21036415", "start_date": null}, "geometry": {"type": "Polygon", "coordinates": [[[5.998144351930847, 49.51555383211694], [5.9983309, 49.51563819999999], [5.998424894230055, 49.51562667085549], [5.998433695228414, 49.515614517095905], [5.998570320250138, 49.51548468141576], [5.998327496515202, 49.51537823124544], [5.998144351930847, 49.51555383211694]]]}}, {"id": "29", "type": "Feature", "properties": {"id": 1473938867, "name": null, "name_en": null, "descriptio": null, "wikidata": null, "ref": null, "operator": "Creos", "wd_operato": "Q21036415", "start_date": null}, "geometry": {"type": "Polygon", "coordinates": [[[5.9820468, 49.512933299999986], [5.9821561, 49.5129478], [5.982169953224712, 49.51297572633882], [5.982739838821458, 49.51307236968242], [5.982764062521653, 49.51297488814849], [5.982161822778636, 49.51287648460522], [5.9820606, 49.5128721], [5.9820468, 49.512933299999986]]]}}, {"id": "30", "type": "Feature", "properties": {"id": 1473964515, "name": null, "name_en": null, "descriptio": null, "wikidata": null, "ref": null, "operator": "Creos", "wd_operato": "Q21036415", "start_date": null}, "geometry": {"type": "Polygon", "coordinates": [[[5.9712618, 49.49389869999997], [5.9713626, 49.493918399999984], [5.971515599999999, 49.49374360000003], [5.971410700000001, 49.49370479999999], [5.9712618, 49.49389869999997]]]}}]}