{"type": "FeatureCollection", "features": [{"id": "0", "type": "Feature", "properties": {"id": -19474133, "name": "Wandpark Miersch", "name_en": null, "descriptio": null, "ref": null, "ref_us_eia": null, "ref_gb_rep": null, "ref_eu_eic": null, "wikidata": null, "operator": null, "wd_operato": null, "constructi": 0, "source": null, "method": "wind_turbine", "output": null, "start_date": null}, "geometry": {"type": "Polygon", "coordinates": [[[6.142673467087456, 49.73680147544481], [6.142656115307349, 49.73680341756292], [6.142639683179419, 49.736807510194446], [6.1426248021811265, 49.73681359606136], [6.142612044180889, 49.73682144128651], [6.142601899461502, 49.7368307443815], [6.142594757878843, 49.73684114783291], [6.142590893879927, 49.73685225184134], [6.142590455956066, 49.73686362968566], [6.14259346093643, 49.736874844121644], [6.142599793341307, 49.73688546418508], [6.14260920981993, 49.736895081753396], [6.142621348502304, 49.73690332722951], [6.142635742905674, 49.73690988374521], [6.142651839861193, 49.73691449933798], [6.142669020771885, 49.73691699663373], [6.142686625384989, 49.73691727966316], [6.148775910402499, 49.73662827198658], [6.148793262182605, 49.73662632986145], [6.148809694310536, 49.73662223721464], [6.148824575308828, 49.73661615132373], [6.148837333309065, 49.73660830606539], [6.148847478028452, 49.736599002927754], [6.148854619611112, 49.73658859942444], [6.148858483610027, 49.736577495355675], [6.148858921533888, 49.73656611744427], [6.148855916553524, 49.73655490293694], [6.148849584148647, 49.73654428280116], [6.148840167670025, 49.736534665163326], [6.14882802898765, 49.73652641962456], [6.14881363458428, 49.73651986305706], [6.148797537628762, 49.73651524742676], [6.148780356718069, 49.73651275011032], [6.1487627521049655, 49.73651246707853], [6.142673467087456, 49.73680147544481]]]}}, {"id": "1", "type": "Feature", "properties": {"id": -18588019, "name": "Parc \u00e9olien de Sterpenich", "name_en": null, "descriptio": null, "ref": null, "ref_us_eia": null, "ref_gb_rep": null, "ref_eu_eic": null, "wikidata": null, "operator": null, "wd_operato": null, "constructi": 0, "source": "wind", "method": null, "output": 6000.0, "start_date": null}, "geometry": {"type": "Polygon", "coordinates": [[[5.893319366206141, 49.63814146867121], [5.893302541992979, 49.63814469863909], [5.893287008386901, 49.63814998517337], [5.893273358129924, 49.6381571265462], [5.893262112097933, 49.63816585025143], [5.8932536994247435, 49.63817582340317], [5.893248441126922, 49.63818666543839], [5.893246537854209, 49.63819796263884], [5.893248062232993, 49.63820928391801], [5.8932529560949805, 49.638220197270876], [5.893261032696823, 49.63823028625864], [5.893271983845998, 49.63823916589938], [5.8932853916610295, 49.63824649735842], [5.893300744517296, 49.63825200087768], [5.893317456569962, 49.638255466450694], [5.893334890109036, 49.638256761836224], [5.893352379893552, 49.63825583760423], [5.90316918107136, 49.637103914005216], [5.90318605759321, 49.637100805889986], [5.903201679311831, 49.63709563250812], [5.90321545027705, 49.63708859121746], [5.903226845142753, 49.63707995063418], [5.903235429208229, 49.637070040385616], [5.903240875001484, 49.637059238535436], [5.903242974771915, 49.63704795716105], [5.903241648415755, 49.63703662663345], [5.903236946531927, 49.63702567919902], [5.903229048491766, 49.6370155324899], [5.903218255596206, 49.6370065735917], [5.903204979581507, 49.63699914427659], [5.903189726912001, 49.63699352796496], [5.903173079459077, 49.63698993891313], [5.903155672303463, 49.636988514039665], [5.903138169507656, 49.63698930770199], [5.89830767870876, 49.63751896078737], [5.898305676585052, 49.63751919544964], [5.893319366206141, 49.63814146867121]]]}}, {"id": "2", "type": "Feature", "properties": {"id": -18471429, "name": null, "name_en": null, "descriptio": null, "ref": null, "ref_us_eia": null, "ref_gb_rep": null, "ref_eu_eic": null, "wikidata": null, "operator": null, "wd_operato": null, "constructi": 0, "source": "wind", "method": "wind_turbine", "output": null, "start_date": null}, "geometry": {"type": "Polygon", "coordinates": [[[5.943139517112069, 50.121392835047715], [5.933851472799111, 50.124351967746215], [5.933836223678925, 50.1243581193631], [5.933823195945678, 50.12436609816788], [5.933812913635067, 50.12437558321528], [5.933805790349188, 50.124386192972075], [5.933802112619554, 50.12439750066413], [5.933802028381461, 50.124409051443465], [5.933805541023355, 50.124420380684285], [5.933812509250532, 50.12443103267243], [5.933822652768657, 50.12444057893624], [5.933835563558511, 50.12444863548159], [5.933850722288399, 50.12445487823779], [5.933867519204084, 50.124459056093066], [5.933885278655915, 50.124461000995275], [5.933903286276585, 50.12446063471176], [5.933920817716287, 50.124457971976064], [5.950332751768119, 50.12081771556708], [5.950348565633835, 50.120813064784066], [5.950362684682319, 50.12080654671402], [5.950374579311272, 50.12079840584757], [5.95848306480326, 50.114040752828735], [5.958495302366104, 50.11402697449031], [5.960640399026274, 50.1105794992521], [5.9606452620384545, 50.11056874941867], [5.960646791880124, 50.110557599412445], [5.960644930800867, 50.11054647013796], [5.960639749055076, 50.110535781717395], [5.960631442249897, 50.11052593763131], [5.960620323961203, 50.11051730948744], [5.960606813896329, 50.11051022299271], [5.960591422050427, 50.11050494565787], [5.960574729454519, 50.110501676699116], [5.9605573662419955, 50.11050053951769], [5.960539987861539, 50.11050157704152], [5.960523250334408, 50.11050475010468], [5.960507785490117, 50.11050993892595], [5.960494177115321, 50.110516947630465], [5.943139517112069, 50.121392835047715]]]}}, {"id": "3", "type": "Feature", "properties": {"id": -18422136, "name": "Wandpark Rulljen\u2013G\u00ebisdref", "name_en": null, "descriptio": null, "ref": null, "ref_us_eia": null, "ref_gb_rep": null, "ref_eu_eic": null, "wikidata": null, "operator": null, "wd_operato": null, "constructi": 0, "source": "wind", "method": "wind_turbine", "output": 12000.0, "start_date": "2016"}, "geometry": {"type": "Polygon", "coordinates": [[[5.954700725560638, 49.930460967071774], [5.9546855552296405, 49.93045687040963], [5.954669478710463, 49.9304546233013], [5.954653035174753, 49.93045430111021], [5.954636776103096, 49.930455914641996], [5.954621246789552, 49.93045940978209], [5.954606968053674, 49.930464669310666], [5.916063205405413, 49.94785571056006], [5.916049799779369, 49.94786312490037], [5.916038910004785, 49.94787208492323], [5.916030957750464, 49.94788224368203], [5.916026250939908, 49.94789320781342], [5.916024971828055, 49.94790455276897], [5.916027169944079, 49.94791583925447], [5.916032760173551, 49.94792663024004], [5.916041526054199, 49.94793650788263], [5.9160531281576585, 49.94794508970541], [5.916067117232658, 49.947952043407774], [5.9160829516007265, 49.947957099732456], [5.916100018130805, 49.94796006289141], [5.916117655980631, 49.94796081814697], [5.938475544505654, 49.94749880819824], [5.938477708218053, 49.94749874667703], [5.997829796951643, 49.9453495454595], [5.9978474913677235, 49.9453477536901], [5.997864281603953, 49.94534373838262], [5.997879500094128, 49.945337659181895], [5.9978925417634015, 49.94532975779133], [5.997902888085556, 49.945320348362976], [5.997910127699198, 49.945309805007334], [5.997913972763149, 49.94529854691911], [5.997914270400778, 49.94528702171041], [5.997911008778257, 49.945275687614206], [5.9979043175750535, 49.945264995265255], [5.997894462827992, 49.94525536978327], [5.997881836353841, 49.94524719387036], [5.99786694017099, 49.94524079259503], [5.954700725560638, 49.930460967071774]]]}}, {"id": "4", "type": "Feature", "properties": {"id": -18422122, "name": "Wandpark Esch-Sauer", "name_en": null, "descriptio": null, "ref": null, "ref_us_eia": null, "ref_gb_rep": null, "ref_eu_eic": null, "wikidata": null, "operator": "Soler", "wd_operato": null, "constructi": 0, "source": "wind", "method": "wind_turbine", "output": 4200.0, "start_date": "2004"}, "geometry": {"type": "Polygon", "coordinates": [[[5.989108889293277, 49.894366067054925], [5.989107163205648, 49.894354777300244], [5.9891020512753395, 49.89434392140201], [5.989093749950965, 49.89433391654675], [5.9890825782477695, 49.89432514721605], [5.989068965488038, 49.89431795041115], [5.989053434802492, 49.89431260270198], [5.98903658302667, 49.89430930959863], [5.989019057764865, 49.894308197653665], [5.989001532503059, 49.89430930959863], [5.988984680727237, 49.89431260270198], [5.988969150041692, 49.89431795041115], [5.98895553728196, 49.89432514721605], [5.988944365578764, 49.89433391654675], [5.98893606425439, 49.89434392140201], [5.988930952324082, 49.894354777300244], [5.988929226236452, 49.894366067054925], [5.988930952324082, 49.89437735680696], [5.98893606425439, 49.89438821269767], [5.988944365578764, 49.894398217541685], [5.98895553728196, 49.8944069868591], [5.988969150041692, 49.894414183650724], [5.988984680727237, 49.894419531348646], [5.989001532503059, 49.89442282444446], [5.989019057764865, 49.894423936386794], [5.98903658302667, 49.89442282444446], [5.989053434802492, 49.894419531348646], [5.989068965488038, 49.894414183650724], [5.9890825782477695, 49.8944069868591], [5.989093749950965, 49.894398217541685], [5.9891020512753395, 49.89438821269767], [5.989107163205648, 49.89437735680696], [5.989108889293277, 49.894366067054925]]]}}, {"id": "5", "type": "Feature", "properties": {"id": -18422089, "name": "Wandpark Tandel-Veianen", "name_en": null, "descriptio": null, "ref": null, "ref_us_eia": null, "ref_gb_rep": null, "ref_eu_eic": null, "wikidata": null, "operator": "Soler", "wd_operato": null, "constructi": 0, "source": "wind", "method": "wind_turbine", "output": 4200.0, "start_date": "2022-12"}, "geometry": {"type": "Polygon", "coordinates": [[[6.152887002533133, 49.92299672045796], [6.152885276445504, 49.92298543740283], [6.152880164515196, 49.92297458794668], [6.152871863190821, 49.92296458902846], [6.152860691487626, 49.92295582490165], [6.152847078727893, 49.92294863236747], [6.152831548042348, 49.922943287831714], [6.152814696266526, 49.92293999668256], [6.152797171004721, 49.922938885397436], [6.152779645742916, 49.92293999668256], [6.152762793967093, 49.922943287831714], [6.152747263281548, 49.92294863236747], [6.1527336505218155, 49.92295582490165], [6.15272247881862, 49.92296458902846], [6.1527141774942455, 49.92297458794668], [6.152709065563937, 49.92298543740283], [6.152707339476309, 49.92299672045796], [6.152709065563937, 49.92300800351045], [6.1527141774942455, 49.923018852959075], [6.15272247881862, 49.92302885186603], [6.1527336505218155, 49.92303761597956], [6.152747263281548, 49.92304480850047], [6.152762793967093, 49.92305015302496], [6.152779645742916, 49.923053444166605], [6.152797171004721, 49.92305455544909], [6.152814696266526, 49.923053444166605], [6.152831548042348, 49.92305015302496], [6.152847078727893, 49.92304480850047], [6.152860691487626, 49.92303761597956], [6.152871863190821, 49.92302885186603], [6.152880164515196, 49.923018852959075], [6.152885276445504, 49.92300800351045], [6.152887002533133, 49.92299672045796]]]}}, {"id": "6", "type": "Feature", "properties": {"id": -18422085, "name": "Wandpark Housen-P\u00ebtschent", "name_en": null, "descriptio": null, "ref": null, "ref_us_eia": null, "ref_gb_rep": null, "ref_eu_eic": null, "wikidata": null, "operator": "Wandpark Housen-P\u00ebtschent S.A.", "wd_operato": null, "constructi": 0, "source": "wind", "method": "wind_turbine", "output": 16700.0, "start_date": "2016"}, "geometry": {"type": "Polygon", "coordinates": [[[6.070039722669233, 49.996197755531995], [6.070038641335607, 49.99620699237099], [6.070198148952991, 50.016016530751074], [6.070200044602635, 50.0160280315442], [6.07020547011176, 50.01603905868057], [6.070214207690457, 50.016049169511156], [6.070225906596264, 50.01605795816933], [6.070240097213599, 50.01606507186302], [6.070256209905008, 50.016070225036266], [6.07027359787745, 50.01607321083189], [6.070291563145758, 50.01607390939499], [6.070309384551048, 50.01607229268404], [6.070326346709363, 50.016068425596586], [6.0703417687284995, 50.01606246336409], [6.07035503154027, 50.01605464532078], [6.070365602751038, 50.0160452852965], [6.110494550927468, 49.97175575479385], [6.11050174731155, 49.97174570305784], [6.110505832055456, 49.97173495326118], [6.110506655309212, 49.97172389976283], [6.110504186871523, 49.971712948063384], [6.110498517297716, 49.971702499929236], [6.110489854577695, 49.97169293865353], [6.110478516505765, 49.971684614994984], [6.11046491902227, 49.97167783431005], [6.110449560954698, 49.97167284535074], [6.078101617313287, 49.963559992195165], [6.0780844654235056, 49.96355690898906], [6.0780667050667745, 49.963556062952335], [6.078049034270633, 49.96355748733651], [6.078032147542654, 49.963561126159426], [6.078016708574531, 49.96356683640553], [6.078003324157278, 49.96357439364688], [6.077992520332798, 49.96358350086367], [6.077984721719082, 49.963593800118204], [6.077980234821637, 49.96360488662275], [6.070039722669233, 49.996197755531995]]]}}, {"id": "7", "type": "Feature", "properties": {"id": -18422051, "name": "Wandpark B\u00ebnzelt", "name_en": null, "descriptio": null, "ref": null, "ref_us_eia": null, "ref_gb_rep": null, "ref_eu_eic": null, "wikidata": null, "operator": "Wandpark B\u00ebnzelt S.A.", "wd_operato": null, "constructi": 0, "source": "wind", "method": "wind_turbine", "output": 11500.0, "start_date": "2012"}, "geometry": {"type": "Polygon", "coordinates": [[[6.02073715454466, 50.10571619917088], [6.016713344429817, 50.11631084749476], [6.016710875650723, 50.116322006294666], [6.016711842691051, 50.11633325975233], [6.016716208529933, 50.1163441770556], [6.0167238060314645, 50.11635434026151], [6.016734344343127, 50.11636336029614], [6.016747420030378, 50.11637089184938], [6.016762532521204, 50.11637664659413], [6.016779103269349, 50.11638040422415], [6.016796497902591, 50.116382020887905], [6.016814050508202, 50.1163814346954], [6.016831089125854, 50.116378668087556], [6.01684696147204, 50.116373826977124], [6.01686105991122, 50.11636709669406], [6.016872844717725, 50.11635873489073], [6.027373039619883, 50.10725559833748], [6.033538621332022, 50.10724053721473], [6.033556108235568, 50.107239391497075], [6.033572912477817, 50.10723608367781], [6.0335883906366155, 50.10723074041046], [6.033601950064573, 50.1072235662842], [6.033613071581102, 50.107214835990334], [6.033621329351464, 50.10720488380468], [6.033626407191664, 50.10719409078851], [6.033628110674916, 50.10718287019813], [6.033626374576086, 50.10717165166155], [6.033621265369131, 50.10716086472853], [6.033612978681854, 50.10715092242327], [6.033601831805453, 50.107142205429994], [6.0335882515456785, 50.10713504751678], [6.033572757880754, 50.1071297227556], [6.016328919938977, 50.10253266285388], [6.016312276269874, 50.102529396810596], [6.016294963067722, 50.10252825075812], [6.016277630276119, 50.10252926771982], [6.016260928574055, 50.10253240951846], [6.016245484949201, 50.102537558209434], [6.016231879160577, 50.1025445205085], [6.016220621974192, 50.10255303504782], [6.016212135988717, 50.102562782187896], [6.016206739770981, 50.1025733960171], [6.016204635896864, 50.10258447808816], [6.016205903346529, 50.102595612376135], [6.016210494539476, 50.1026063808961], [6.016218237120735, 50.10261637939447], [6.016228840431127, 50.10262523252476], [6.02073715454466, 50.10571619917088]]]}}, {"id": "8", "type": "Feature", "properties": {"id": -18419420, "name": "Wandpark Garnich", "name_en": null, "descriptio": null, "ref": null, "ref_us_eia": null, "ref_gb_rep": null, "ref_eu_eic": null, "wikidata": null, "operator": "Windpark Garnich S.A.", "wd_operato": null, "constructi": 0, "source": "wind", "method": "wind_turbine", "output": 6400.0, "start_date": "2021"}, "geometry": {"type": "Polygon", "coordinates": [[[5.9263048015481194, 49.61558953226168], [5.9263223663194635, 49.615590350015616], [5.926339839819184, 49.61558893184336], [5.926356550550486, 49.61558533224427], [5.926371856329337, 49.61557968954848], [5.926385168963239, 49.61557222060094], [5.926395976855137, 49.61556321242836], [5.926403864663806, 49.615553011209], [5.926408529265183, 49.615542008969406], [5.9264097914012535, 49.61553062851905], [5.926407602568836, 49.61551930720218], [5.926402046883532, 49.615508480090824], [5.9263933378472125, 49.61549856326526], [5.926381810143259, 49.61548993782421], [5.92636790677487, 49.61548293523929], [5.926352162040695, 49.615477824616654], [5.926335181002039, 49.6154748023553], [5.911928365827387, 49.61387335404996], [5.911910801056043, 49.6138725362672], [5.911893327556321, 49.6138739544894], [5.911876616825019, 49.61387755421489], [5.911861311046168, 49.613883197107754], [5.911847998412267, 49.61389066631414], [5.911837190520369, 49.613899674795874], [5.9118293027117, 49.613909876361284], [5.911824638110323, 49.613920878969346], [5.911823375974253, 49.61393225979559], [5.91182556480667, 49.61394358148113], [5.911831120491973, 49.613954408940145], [5.911839829528293, 49.6139643260799], [5.911851357232247, 49.61397295179096], [5.911865260600636, 49.61397995459284], [5.911881005334811, 49.61398506537254], [5.911897986373467, 49.61398808772629], [5.9263048015481194, 49.61558953226168]]]}}, {"id": "9", "type": "Feature", "properties": {"id": -18419417, "name": "Wandpark Sudwand", "name_en": null, "descriptio": null, "ref": null, "ref_us_eia": null, "ref_gb_rep": null, "ref_eu_eic": null, "wikidata": null, "operator": "Soler", "wd_operato": null, "constructi": 0, "source": "wind", "method": "wind_turbine", "output": 8400.0, "start_date": "2023"}, "geometry": {"type": "Polygon", "coordinates": [[[6.1311928269326295, 49.51518747955912], [6.13120716029964, 49.51518083726376], [6.131219222329711, 49.51517250710821], [6.131228549485791, 49.51516280921487], [6.131234783330503, 49.51515211626768], [6.131237684300688, 49.51514083919005], [6.131237140913692, 49.51512941135354], [6.131233174051571, 49.51511827192352], [6.131225936158613, 49.5151078489824], [6.131215705382985, 49.51509854307853], [6.131202874887655, 49.515090711833295], [6.131187937741364, 49.515084656197835], [6.131171467970267, 49.51508060888753], [6.131154098498433, 49.51507872543874], [6.131136496824921, 49.51507907823161], [6.131119339372175, 49.51508165370845], [6.13110328549148, 49.5150863528948], [6.058617592675307, 49.54213285456488], [6.058603259308296, 49.542139493199166], [6.058591197278226, 49.54214781876078], [6.058581870122146, 49.54215751130235], [6.058575636277435, 49.54216819834418], [6.058572735307249, 49.54217946918878], [6.058573278694245, 49.542190890703644], [6.058577245556365, 49.54220202396641], [6.058584483449323, 49.54221244113237], [6.058594714224952, 49.54222174187626], [6.0586075447202825, 49.54222956877644], [6.058622481866573, 49.5422356210503], [6.058638951637669, 49.54223966611303], [6.058656321109504, 49.54224154851566], [6.058673922783015, 49.54224119591877], [6.058691080235762, 49.54223862187239], [6.058707134116458, 49.54223392529536], [6.1311928269326295, 49.51518747955912]]]}}, {"id": "10", "type": "Feature", "properties": {"id": -18419379, "name": "Wandpark Duelem", "name_en": null, "descriptio": null, "ref": null, "ref_us_eia": null, "ref_gb_rep": null, "ref_eu_eic": null, "wikidata": null, "operator": "Soler", "wd_operato": null, "constructi": 0, "source": "wind", "method": "wind_turbine", "output": 21000.0, "start_date": "2023"}, "geometry": {"type": "Polygon", "coordinates": [[[6.2355392110613534, 49.54741668211709], [6.23552684736919, 49.547424736914806], [6.235517128660699, 49.547434195630856], [6.235510424648476, 49.547444698442405], [6.235506990362064, 49.547455845808], [6.2341103976552805, 49.5565215457181], [6.2341103925514405, 49.556533102771816], [6.234113903437372, 49.556544433192], [6.23412079222093, 49.5565550913245], [6.234130787948611, 49.55656465795822], [6.234143497462829, 49.55657275681369], [6.234158420865824, 49.55657906934295], [6.234174971181917, 49.55658334725881], [6.234192497444768, 49.556585422300415], [6.234210310301552, 49.55658521285133], [6.246737902784691, 49.55562632426452], [6.246757382037936, 49.55562337875599], [6.246775373750266, 49.5556177101947], [6.246790985976971, 49.555609599600466], [6.286218955590995, 49.529953621426586], [6.286230027316164, 49.529944854522206], [6.286238276134383, 49.52993486279723], [6.286243390245615, 49.529924023931834], [6.286245176339734, 49.52991274762774], [6.286243566903528, 49.52990146012189], [6.286238622772655, 49.52989058807488], [6.286230530832089, 49.529880542443514], [6.2862195969519945, 49.52987170294687], [6.286206234426029, 49.52986440371295], [6.286190948349102, 49.52985892064889], [6.286174316525121, 49.529855461011614], [6.286156967626365, 49.52985415557364], [6.286139557430081, 49.52985505367984], [6.26345167337711, 49.532484040697156], [6.263436852351395, 49.53248662216994], [6.263422924548742, 49.53249080315419], [6.263410296398761, 49.53249646164347], [6.2355392110613534, 49.54741668211709]]]}}, {"id": "11", "type": "Feature", "properties": {"id": -18419378, "name": "Wandpark Burer Bierg", "name_en": null, "descriptio": null, "ref": null, "ref_us_eia": null, "ref_gb_rep": null, "ref_eu_eic": null, "wikidata": null, "operator": "Wandpark Burer Bierg S.A.", "wd_operato": null, "constructi": 0, "source": "wind", "method": "wind_turbine", "output": 8000.0, "start_date": "2008"}, "geometry": {"type": "Polygon", "coordinates": [[[6.489758421131536, 49.75773622054214], [6.489760134017213, 49.75774797490691], [6.492015871799248, 49.76509613625137], [6.492020702789034, 49.765106594986605], [6.492028480505703, 49.765116284345616], [6.4920389297631536, 49.765124861506386], [6.492051680852573, 49.76513202299806], [6.492066282623224, 49.76513751543808], [6.49208221844478, 49.76514114449712], [6.492098924486391, 49.7651427817746], [6.4921158096657825, 49.76514236934164], [6.492132276562547, 49.76513992179061], [6.497191174222923, 49.76405572384678], [6.497207746673453, 49.76405092242208], [6.497222485130423, 49.764044065822794], [6.497234787067089, 49.76403543435457], [6.4972441495647395, 49.76402538088189], [6.4972501898726405, 49.76401431640268], [6.497252661055375, 49.76400269324628], [6.49725146208787, 49.7639909865818], [6.497246641985432, 49.76397967499258], [6.490004174729326, 49.75191190849675], [6.489996179181752, 49.75190170253129], [6.489985240837681, 49.75189270795478], [6.489971784575627, 49.75188527414465], [6.489956333077688, 49.75187968985344], [6.489939486526988, 49.751876171992656], [6.4899218992947345, 49.751874857207156], [6.48990425452246, 49.75187579656738], [6.489887237586724, 49.75187895358559], [6.48987150947701, 49.75188420563321], [6.48985768112088, 49.7518913487041], [6.489846289653699, 49.75190010533893], [6.4898377775546585, 49.751910135402625], [6.489832475459546, 49.75192104929638], [6.489830589317844, 49.751932423090935], [6.489758421131536, 49.75773622054214]]]}}, {"id": "12", "type": "Feature", "properties": {"id": -18419360, "name": "Wandpark Windpower", "name_en": null, "descriptio": null, "ref": null, "ref_us_eia": null, "ref_gb_rep": null, "ref_eu_eic": null, "wikidata": null, "operator": "Wandpark Windpower S.A.", "wd_operato": null, "constructi": 0, "source": "wind", "method": "wind_turbine", "output": 3200.0, "start_date": "2020"}, "geometry": {"type": "Polygon", "coordinates": [[[6.447715249881524, 49.75919513788921], [6.447713523793896, 49.75918381654276], [6.447708411863586, 49.75917293026681], [6.4477001105392135, 49.75916289741527], [6.447688938836017, 49.75915410354565], [6.4476753260762845, 49.75914688660216], [6.44765979539074, 49.759141523928676], [6.447642943614918, 49.75913822161035], [6.4476254183531125, 49.75913710655385], [6.447607893091306, 49.75913822161035], [6.447591041315485, 49.759141523928676], [6.447575510629941, 49.75914688660216], [6.447561897870207, 49.75915410354565], [6.4475507261670115, 49.75916289741527], [6.447542424842638, 49.75917293026681], [6.4475373129123295, 49.75918381654276], [6.4475355868247, 49.75919513788921], [6.4475373129123295, 49.759206459233006], [6.447542424842638, 49.75921734550143], [6.4475507261670115, 49.759227378341706], [6.447561897870207, 49.759236172198044], [6.447575510629941, 49.75924338912823], [6.447591041315485, 49.75924875179047], [6.447607893091306, 49.75925205410126], [6.4476254183531125, 49.75925316915511], [6.447642943614918, 49.75925205410126], [6.44765979539074, 49.75924875179047], [6.4476753260762845, 49.75924338912823], [6.447688938836017, 49.759236172198044], [6.4477001105392135, 49.759227378341706], [6.447708411863586, 49.75921734550143], [6.447713523793896, 49.759206459233006], [6.447715249881524, 49.75919513788921]]]}}, {"id": "13", "type": "Feature", "properties": {"id": -18419357, "name": "Wandpark Aerenzdall", "name_en": null, "descriptio": null, "ref": null, "ref_us_eia": null, "ref_gb_rep": null, "ref_eu_eic": null, "wikidata": null, "operator": null, "wd_operato": null, "constructi": 0, "source": "wind", "method": "wind_turbine", "output": 12600.0, "start_date": "2023"}, "geometry": {"type": "Polygon", "coordinates": [[[6.236902451834959, 49.82933139808929], [6.236885209280023, 49.829333234640565], [6.236868844261191, 49.829337189991726], [6.236853976140168, 49.8293431144453], [6.23684116762604, 49.82935078377975], [6.236830903478599, 49.829359907735395], [6.2368235721617955, 49.82937014100007], [6.236819451141663, 49.82938109627806], [6.236818696385151, 49.829392358948056], [6.23682133645729, 49.829403502755305], [6.236827271440105, 49.829414105943826], [6.236836276714171, 49.829423767218614], [6.236848011459724, 49.829432120933106], [6.236862031555549, 49.82943885092765], [6.236877806387502, 49.82944370249498], [6.252030862401659, 49.83298362767466], [6.252047002089328, 49.832986335992146], [6.252063639784882, 49.83298707332988], [6.252080202075661, 49.83298581427582], [6.252096118147812, 49.832982602222714], [6.252110839459186, 49.8329775478725], [6.252123858644668, 49.83297082542117], [6.252134727002351, 49.832962666555126], [6.252143069957892, 49.83295335246632], [6.252148599974099, 49.83294320416119], [6.253799583442195, 49.82868444421555], [6.2538021218543545, 49.828673677981], [6.253801492828983, 49.82866279549465], [6.253797718581226, 49.82865218109088], [6.253790932405344, 49.82864220963649], [6.253781373967185, 49.82863323329159], [6.253769380839963, 49.8286255690724], [6.253755376582259, 49.82861948765507], [6.253739855779294, 49.8286152038163], [6.2537233665757785, 49.82861286884795], [6.253706491317212, 49.82861256521385], [6.236902451834959, 49.82933139808929]]]}}, {"id": "14", "type": "Feature", "properties": {"id": -18419338, "name": "Wandpark Kehmen Heischent", "name_en": null, "descriptio": null, "ref": null, "ref_us_eia": null, "ref_gb_rep": null, "ref_eu_eic": null, "wikidata": null, "operator": "Wandpark Kehmen Heischent S.A.", "wd_operato": null, "constructi": 0, "source": "wind", "method": "wind_turbine", "output": 19500.0, "start_date": "2004"}, "geometry": {"type": "Polygon", "coordinates": [[[6.0204438176498964, 49.885601597182685], [6.020445035750951, 49.88559906965634], [6.023678438719171, 49.87830446936447], [6.023681568477583, 49.8782934867045], [6.023681367883081, 49.878282321137625], [6.023677844399326, 49.87827138810909], [6.023671129127096, 49.87826109441219], [6.02366147192632, 49.87825182305237], [6.023649232119366, 49.878243918996425], [6.023634865121471, 49.87823767633695], [6.023618905495788, 49.8782333273497], [6.023601947063506, 49.87823103385108], [6.023584620809129, 49.878230881177245], [6.023567571402975, 49.87823287500884], [6.023551433214477, 49.878236941159685], [6.02353680670874, 49.87824292833713], [6.023524236104608, 49.87825061377129], [6.023514189125528, 49.87825971150403], [6.023507039596625, 49.87826988302879], [6.011860971870266, 49.90026769350882], [6.011856985209402, 49.900278558248004], [6.011856312040403, 49.900289713898545], [6.01185897742313, 49.900300745172366], [6.011864882134187, 49.90031124141181], [6.011873806360694, 49.900320811877044], [6.011885417883187, 49.900329100291934], [6.011899284443048, 49.90033579810688], [6.011914889834072, 49.90034065598508], [6.011931653119116, 49.90034349308439], [6.011948950256467, 49.900344203789274], [6.011966137330854, 49.9003427616427], [6.01198257452429, 49.900339220330764], [6.011997649934372, 49.90033371168441], [6.012010802353398, 49.90032644077171], [6.012021542160265, 49.90031767826397], [6.012029469547448, 49.90030775035969], [6.016848728596094, 49.89249950809887], [6.016850411940402, 49.892496548101555], [6.0204438176498964, 49.885601597182685]]]}}, {"id": "15", "type": "Feature", "properties": {"id": -18419178, "name": "Beidweiler solar project", "name_en": null, "descriptio": null, "ref": null, "ref_us_eia": null, "ref_gb_rep": null, "ref_eu_eic": null, "wikidata": null, "operator": "Enovos", "wd_operato": null, "constructi": 0, "source": "solar", "method": "photovoltaic", "output": 4900.0, "start_date": null}, "geometry": {"type": "MultiPolygon", "coordinates": [[[[6.320006583946707, 49.73345942620428], [6.322143550160803, 49.734726937602176], [6.322203145492381, 49.73468351934371], [6.322150758597531, 49.73458654072402], [6.322279588449305, 49.734585283438534], [6.3226321312967855, 49.73423936229456], [6.322761128786625, 49.734303567672846], [6.322896328884809, 49.734304070587044], [6.322894317228048, 49.73453088488692], [6.3238228644616195, 49.73453088488692], [6.326811851133301, 49.734228046725285], [6.326941267718297, 49.73365849640463], [6.326830375139309, 49.73365447309113], [6.326803217773033, 49.73338382143766], [6.323483984116308, 49.73296732466894], [6.323197658303912, 49.73297696385758], [6.323074025232103, 49.73295332689065], [6.322739084381283, 49.73293555725591], [6.322774539831698, 49.73243431944617], [6.322642189580591, 49.73243423562713], [6.320208923089325, 49.732431721056166], [6.320931275504819, 49.73283639934137], [6.32007715957144, 49.73341307427973], [6.320006583946707, 49.73345942620428]]], [[[6.323049466255809, 49.73485342052106], [6.323058099616077, 49.73493573081019], [6.324901280123925, 49.735005971158806], [6.326641782317892, 49.73506606940454], [6.326747142840787, 49.73453474056238], [6.3261277201962685, 49.73452887323017], [6.323049466255809, 49.73485342052106]]]]}}, {"id": "16", "type": "Feature", "properties": {"id": -6750291, "name": "Centrale de Vianden", "name_en": null, "descriptio": null, "ref": null, "ref_us_eia": null, "ref_gb_rep": null, "ref_eu_eic": null, "wikidata": "Q328955", "operator": "Soci\u00e9t\u00e9 \u00c9lectrique de l'Our", "wd_operato": "Q13105066", "constructi": 0, "source": "hydro", "method": "water-pumped-storage", "output": 1290000.0, "start_date": null}, "geometry": {"type": "MultiPolygon", "coordinates": [[[[6.17480293577745, 49.949150353835066], [6.175972043632072, 49.95048827321963], [6.176136580391386, 49.95067653076493], [6.1768165203768035, 49.951454790474564], [6.177121454014269, 49.951344484628834], [6.175107869414887, 49.94904004798929], [6.17480293577745, 49.949150353835066]]], [[[6.177807680427094, 49.9479343911417], [6.177938186659503, 49.94823479855146], [6.178487871869606, 49.94813589209398], [6.178357365637198, 49.94783548468425], [6.177807680427094, 49.9479343911417]]], [[[6.193463985907784, 49.94529677385106], [6.193928762438759, 49.94555418209754], [6.194127497363013, 49.945405487135226], [6.193662553193974, 49.9451481627078], [6.193463985907784, 49.94529677385106]]]]}}, {"id": "17", "type": "Feature", "properties": {"id": 121078956, "name": "Barrage de Rosport", "name_en": null, "descriptio": null, "ref": null, "ref_us_eia": null, "ref_gb_rep": null, "ref_eu_eic": null, "wikidata": "Q13105103", "operator": "Soler", "wd_operato": null, "constructi": 0, "source": "hydro", "method": "run-of-the-river", "output": 7000.0, "start_date": null}, "geometry": {"type": "Polygon", "coordinates": [[[6.507915525870857, 49.792999437207015], [6.507977887230481, 49.79323237029622], [6.508512233557781, 49.79317277496462], [6.508484238001189, 49.79306825263204], [6.5081402446949435, 49.79310655792956], [6.508105878891939, 49.79297814717296], [6.507915525870857, 49.792999437207015]]]}}, {"id": "18", "type": "Feature", "properties": {"id": 121078957, "name": "Centrale au fil de l'eau Ettelbruck", "name_en": null, "descriptio": null, "ref": null, "ref_us_eia": null, "ref_gb_rep": null, "ref_eu_eic": null, "wikidata": null, "operator": "SEO", "wd_operato": null, "constructi": 0, "source": "hydro", "method": "run-of-the-river", "output": 200.0, "start_date": null}, "geometry": {"type": "Polygon", "coordinates": [[[6.095780783409481, 49.84569839029661], [6.095879438409811, 49.84580333172436], [6.096047830844582, 49.84573208554737], [6.096092674026551, 49.84569771974437], [6.0961112818515915, 49.8456444946592], [6.096119160840574, 49.845527231833806], [6.095931741485629, 49.84552756710993], [6.095926460886631, 49.84561423598877], [6.095898046234879, 49.84562437809159], [6.095897543320689, 49.845648434153695], [6.095780783409481, 49.84569839029661]]]}}, {"id": "19", "type": "Feature", "properties": {"id": 130862375, "name": null, "name_en": null, "descriptio": null, "ref": null, "ref_us_eia": null, "ref_gb_rep": null, "ref_eu_eic": null, "wikidata": null, "operator": null, "wd_operato": null, "constructi": 0, "source": "solar", "method": "photovoltaic", "output": null, "start_date": null}, "geometry": {"type": "Polygon", "coordinates": [[[6.425090839309205, 49.67746546315811], [6.427366693658882, 49.677883720126445], [6.427624185724369, 49.677781377088735], [6.4276855, 49.6774512], [6.4275364, 49.67744599999998], [6.4273285, 49.67742859999997], [6.4270985000000005, 49.67740390000001], [6.4269443, 49.677389999999995], [6.426768599999999, 49.67735959999998], [6.4264125, 49.677291899999986], [6.4257483, 49.677166], [6.425756, 49.67714009999999], [6.425419493732619, 49.677073944460865], [6.425281276149292, 49.67704804438008], [6.425174742159954, 49.6772816480215], [6.425090839309205, 49.67746546315811]]]}}, {"id": "20", "type": "Feature", "properties": {"id": 198645038, "name": "Naturgas Kielen", "name_en": null, "descriptio": null, "ref": null, "ref_us_eia": null, "ref_gb_rep": null, "ref_eu_eic": null, "wikidata": null, "operator": null, "wd_operato": null, "constructi": 0, "source": "biomass", "method": "anaerobic_digestion", "output": null, "start_date": null}, "geometry": {"type": "Polygon", "coordinates": [[[6.053850396602996, 49.67086873772247], [6.054909785345103, 49.67191379341017], [6.054862846687314, 49.6719395258529], [6.053966653600014, 49.67245132486067], [6.0540139275339016, 49.672466579924475], [6.05452974985522, 49.67235526825032], [6.054184331625436, 49.672495916585554], [6.055277247980229, 49.67230606647867], [6.055754681184993, 49.67223138372143], [6.055426026761552, 49.67221922996179], [6.055367018163224, 49.67220623801187], [6.0553167267441665, 49.67217539260818], [6.055271296828977, 49.67211378561991], [6.05528998847305, 49.67209903347029], [6.055462990954538, 49.67207866544558], [6.055519652620006, 49.672112444515385], [6.0556125241071745, 49.67208553860619], [6.056610222041911, 49.67195193106961], [6.056865199536446, 49.67170885587756], [6.0569898384366345, 49.67170801768724], [6.057248755425661, 49.67110988507679], [6.055690475806671, 49.670636223728465], [6.055534823864747, 49.67081475826603], [6.054610719039857, 49.66994781802083], [6.054197323575352, 49.67014579857377], [6.05466033990666, 49.67053119848167], [6.054607366278589, 49.67055416489637], [6.054570150628507, 49.670569252322096], [6.054491276919634, 49.67059255401292], [6.0545463460235, 49.67062834473945], [6.054488678529651, 49.67067779796821], [6.053850396602996, 49.67086873772247]]]}}, {"id": "21", "type": "Feature", "properties": {"id": 456709829, "name": "Kompensationswehr 4", "name_en": null, "descriptio": null, "ref": null, "ref_us_eia": null, "ref_gb_rep": null, "ref_eu_eic": null, "wikidata": null, "operator": "SEO", "wd_operato": null, "constructi": 0, "source": "hydro", "method": "water-storage", "output": 600.0, "start_date": null}, "geometry": {"type": "Polygon", "coordinates": [[[5.948184856255437, 49.90101836450859], [5.948210169603016, 49.90107024848926], [5.948270854582005, 49.901072176326956], [5.948419381906234, 49.90104258820874], [5.948521222029796, 49.901020879079525], [5.94848953843578, 49.9009575957106], [5.948453580071174, 49.90096312776668], [5.948416196783029, 49.90087863818268], [5.948324582581336, 49.900889786113915], [5.94821327090719, 49.90090328097802], [5.948257024441772, 49.90100193597835], [5.948184856255437, 49.90101836450859]]]}}, {"id": "22", "type": "Feature", "properties": {"id": 456709830, "name": "Wehr 3", "name_en": null, "descriptio": null, "ref": null, "ref_us_eia": null, "ref_gb_rep": null, "ref_eu_eic": null, "wikidata": null, "operator": "SEO", "wd_operato": null, "constructi": 0, "source": "hydro", "method": "water-storage", "output": 500.0, "start_date": null}, "geometry": {"type": "Polygon", "coordinates": [[[5.943687797564791, 49.907128017550804], [5.943693161982822, 49.90716523320086], [5.943702046800184, 49.90722742692244], [5.943762564141083, 49.90722382270408], [5.943830876651958, 49.90721979939055], [5.94385049030538, 49.90721854210507], [5.943836073431925, 49.90711913273343], [5.943687797564791, 49.907128017550804]]]}}, {"id": "23", "type": "Feature", "properties": {"id": 456709831, "name": "Wehr 2", "name_en": null, "descriptio": null, "ref": null, "ref_us_eia": null, "ref_gb_rep": null, "ref_eu_eic": null, "wikidata": null, "operator": "SEO", "wd_operato": null, "constructi": 0, "source": "hydro", "method": "water-storage", "output": 500.0, "start_date": null}, "geometry": {"type": "Polygon", "coordinates": [[[5.9360928712802385, 49.912148861370795], [5.936195130498959, 49.9122115580065], [5.936293617861224, 49.91214492187627], [5.93631691955207, 49.9121291638983], [5.936330665873271, 49.91211985998578], [5.936396296175103, 49.91207543589897], [5.936293953137351, 49.91201282308224], [5.9360928712802385, 49.912148861370795]]]}}, {"id": "24", "type": "Feature", "properties": {"id": 456709833, "name": "Wehr 1", "name_en": null, "descriptio": null, "ref": null, "ref_us_eia": null, "ref_gb_rep": null, "ref_eu_eic": null, "wikidata": null, "operator": "SEO", "wd_operato": null, "constructi": 0, "source": "hydro", "method": "water-storage", "output": 500.0, "start_date": null}, "geometry": {"type": "Polygon", "coordinates": [[[5.929100184738701, 49.90708552130171], [5.929244269654248, 49.90708602421591], [5.929342840835574, 49.907086359492034], [5.9293440981210495, 49.90705056876547], [5.929346361234907, 49.906978819674315], [5.929106638804144, 49.90696574390535], [5.929102364033525, 49.907045791080655], [5.929100184738701, 49.90708552130171]]]}}, {"id": "25", "type": "Feature", "properties": {"id": 456709834, "name": "Centrale \u00e0 accumulation d'Esch-sur-S\u00fbre", "name_en": null, "descriptio": null, "ref": null, "ref_us_eia": null, "ref_gb_rep": null, "ref_eu_eic": null, "wikidata": "Q1366851", "operator": "SEO", "wd_operato": null, "constructi": 0, "source": "hydro", "method": "water-storage", "output": 11000.0, "start_date": null}, "geometry": {"type": "Polygon", "coordinates": [[[5.922591050191244, 49.91152684033623], [5.922609155102094, 49.91155282423608], [5.922671516461691, 49.91161275484379], [5.922766734881748, 49.91167922333597], [5.92286421641566, 49.91173412480174], [5.9230356263355475, 49.91180495188357], [5.9231349518881595, 49.91171266712961], [5.923138053192331, 49.91169338875232], [5.922975360451744, 49.91163329050656], [5.9228075547502215, 49.91156162523444], [5.92263337880226, 49.91148719393425], [5.922591050191244, 49.91152684033623]]]}}, {"id": "26", "type": "Feature", "properties": {"id": 535578932, "name": "L\u00ebnster Energie", "name_en": null, "descriptio": null, "ref": null, "ref_us_eia": null, "ref_gb_rep": null, "ref_eu_eic": null, "wikidata": null, "operator": null, "wd_operato": null, "constructi": 0, "source": "biomass", "method": "anaerobic_digestion", "output": 1274.0, "start_date": null}, "geometry": {"type": "Polygon", "coordinates": [[[6.259091689366414, 49.69624545249451], [6.260600431937661, 49.69735144461823], [6.260742421377415, 49.69733342352642], [6.260765220154042, 49.69735437828435], [6.260825653675937, 49.69739243212473], [6.260781816322321, 49.69751103605465], [6.26135337829973, 49.69793708819298], [6.261773563105834, 49.6976709627672], [6.261896357987325, 49.69763399857421], [6.262744941864611, 49.69640563066414], [6.262121579725601, 49.69634595151352], [6.261709357727511, 49.696346370608694], [6.260987089131049, 49.6964636334341], [6.260559276793089, 49.69645667645445], [6.259851592708145, 49.696317620680816], [6.259127899188143, 49.69620547081635], [6.259091689366414, 49.69624545249451]]]}}, {"id": "27", "type": "Feature", "properties": {"id": 550513867, "name": "Laufwasserkraftwerk Grevenmacher", "name_en": null, "descriptio": null, "ref": null, "ref_us_eia": null, "ref_gb_rep": null, "ref_eu_eic": null, "wikidata": null, "operator": "Soci\u00e9t\u00e9 Electrique de l'Our S.A.", "wd_operato": null, "constructi": 0, "source": "hydro", "method": null, "output": 7800.0, "start_date": "1964"}, "geometry": {"type": "Polygon", "coordinates": [[[6.438905975938809, 49.67222199598988], [6.439076966763566, 49.672305982659665], [6.439272935659743, 49.67214194881455], [6.439098927349875, 49.672057962144734], [6.438905975938809, 49.67222199598988]]]}}, {"id": "28", "type": "Feature", "properties": {"id": 848175866, "name": null, "name_en": null, "descriptio": null, "ref": null, "ref_us_eia": null, "ref_gb_rep": null, "ref_eu_eic": null, "wikidata": null, "operator": null, "wd_operato": null, "constructi": 0, "source": "solar", "method": "photovoltaic", "output": null, "start_date": null}, "geometry": {"type": "Polygon", "coordinates": [[[6.1740817568284, 49.90716414355347], [6.174273953868153, 49.90730671972644], [6.176157367511252, 49.90727319211377], [6.176147979779699, 49.90717939861725], [6.176141944809416, 49.90712047383795], [6.176145046113589, 49.90705509499317], [6.17607807470722, 49.90693707779649], [6.175920075832408, 49.90694529206161], [6.175672222955569, 49.90695325486961], [6.175049363730751, 49.90696482189601], [6.174237241132261, 49.906997930413546], [6.17420446789086, 49.907002372822234], [6.174209077937604, 49.907161461344465], [6.1740817568284, 49.90716414355347]]]}}, {"id": "29", "type": "Feature", "properties": {"id": 849005334, "name": null, "name_en": null, "descriptio": null, "ref": null, "ref_us_eia": null, "ref_gb_rep": null, "ref_eu_eic": null, "wikidata": null, "operator": null, "wd_operato": null, "constructi": 0, "source": "solar", "method": "photovoltaic", "output": null, "start_date": null}, "geometry": {"type": "Polygon", "coordinates": [[[6.202747865681801, 49.841423032944896], [6.203152963062195, 49.84160969792858], [6.203189591979054, 49.84159972346381], [6.203188586150675, 49.841633837809724], [6.202953138490528, 49.841846486693235], [6.20319671659675, 49.8419586365577], [6.203309620832498, 49.84185461713931], [6.203795771216562, 49.8414066882337], [6.203121447106241, 49.841085577523124], [6.2030129852792015, 49.841183645790274], [6.202747865681801, 49.841423032944896]]]}}, {"id": "30", "type": "Feature", "properties": {"id": 852738473, "name": null, "name_en": null, "descriptio": "Only panel stands, has never been completed.", "ref": null, "ref_us_eia": null, "ref_gb_rep": null, "ref_eu_eic": null, "wikidata": null, "operator": null, "wd_operato": null, "constructi": 0, "source": "solar", "method": "photovoltaic", "output": null, "start_date": null}, "geometry": {"type": "Polygon", "coordinates": [[[6.203597874482625, 49.83830932355402], [6.203865927746136, 49.838354166736], [6.2058118703868965, 49.838334972177734], [6.205050542121626, 49.83802752396931], [6.204931435277529, 49.83798058531156], [6.20412375508775, 49.83765821731549], [6.2040008763872265, 49.83762209131282], [6.203597874482625, 49.83830932355402]]]}}, {"id": "31", "type": "Feature", "properties": {"id": 955631034, "name": "Junglinster solar project", "name_en": null, "descriptio": null, "ref": null, "ref_us_eia": null, "ref_gb_rep": null, "ref_eu_eic": null, "wikidata": null, "operator": "BCE & Enovos", "wd_operato": null, "constructi": 0, "source": "solar", "method": "photovoltaic", "output": 5000.0, "start_date": null}, "geometry": {"type": "Polygon", "coordinates": [[[6.258630517053831, 49.717028129956134], [6.25907098606558, 49.717199623695045], [6.259127563912017, 49.71722175191945], [6.259384720701377, 49.71732199948137], [6.260545865748013, 49.7177826688798], [6.260696153271908, 49.71783513959367], [6.261274839867014, 49.71805742766582], [6.26250236958677, 49.71675932232137], [6.262542099807804, 49.71654482941915], [6.261701143462404, 49.71652203064253], [6.261647834558232, 49.7166039218365], [6.261623527039006, 49.716689836344045], [6.2591586607727825, 49.7164034267126], [6.258792539242165, 49.71643645141112], [6.258728166225779, 49.716582045069224], [6.258630517053831, 49.717028129956134]]]}}, {"id": "32", "type": "Feature", "properties": {"id": 959169546, "name": null, "name_en": null, "descriptio": null, "ref": null, "ref_us_eia": null, "ref_gb_rep": null, "ref_eu_eic": null, "wikidata": null, "operator": null, "wd_operato": null, "constructi": 0, "source": "solar", "method": "photovoltaic", "output": null, "start_date": null}, "geometry": {"type": "Polygon", "coordinates": [[[6.0858818, 49.49817759999997], [6.085922400000001, 49.49839939999996], [6.0867077, 49.498338700000005], [6.0866671, 49.49811699999999], [6.0858818, 49.49817759999997]]]}}, {"id": "33", "type": "Feature", "properties": {"id": 959169547, "name": null, "name_en": null, "descriptio": null, "ref": null, "ref_us_eia": null, "ref_gb_rep": null, "ref_eu_eic": null, "wikidata": null, "operator": null, "wd_operato": null, "constructi": 0, "source": "solar", "method": "photovoltaic", "output": null, "start_date": null}, "geometry": {"type": "Polygon", "coordinates": [[[6.0841992, 49.4981113], [6.0842714, 49.498458800000016], [6.0852186, 49.49837589999998], [6.0851464, 49.49802829999998], [6.0841992, 49.4981113]]]}}, {"id": "34", "type": "Feature", "properties": {"id": 1005511334, "name": "Differdange Floating Solar Power Plant", "name_en": null, "descriptio": "Swimming photovoltaic plant with 25000 solar modules", "ref": null, "ref_us_eia": null, "ref_gb_rep": null, "ref_eu_eic": null, "wikidata": null, "operator": "Enovos", "wd_operato": null, "constructi": 0, "source": "solar", "method": "photovoltaic", "output": 3000.0, "start_date": "2021-11-23"}, "geometry": {"type": "Polygon", "coordinates": [[[5.90075275584394, 49.53389921977377], [5.901552557044739, 49.536340449073066], [5.90276919029037, 49.53617197281928], [5.90196679069959, 49.53373158171031], [5.90075275584394, 49.53389921977377]]]}}, {"id": "35", "type": "Feature", "properties": {"id": 1029399525, "name": null, "name_en": null, "descriptio": null, "ref": null, "ref_us_eia": null, "ref_gb_rep": null, "ref_eu_eic": null, "wikidata": null, "operator": null, "wd_operato": null, "constructi": 0, "source": "solar", "method": "photovoltaic", "output": null, "start_date": null}, "geometry": {"type": "Polygon", "coordinates": [[[6.084369, 49.497766500000004], [6.084402399999999, 49.49788960000001], [6.0855506, 49.49775819999997], [6.085517100000001, 49.497634900000016], [6.084369, 49.497766500000004]]]}}, {"id": "36", "type": "Feature", "properties": {"id": 1130886004, "name": null, "name_en": null, "descriptio": null, "ref": null, "ref_us_eia": null, "ref_gb_rep": null, "ref_eu_eic": null, "wikidata": null, "operator": null, "wd_operato": null, "constructi": 0, "source": "solar", "method": null, "output": null, "start_date": null}, "geometry": {"type": "Polygon", "coordinates": [[[6.007430662456784, 49.73626811813865], [6.007505093756976, 49.736572884138056], [6.008062993232186, 49.73650138650397], [6.00802208954471, 49.73635562520779], [6.00778203183782, 49.73628027189831], [6.007668624687882, 49.73625738930261], [6.007430662456784, 49.73626811813865]]]}}, {"id": "37", "type": "Feature", "properties": {"id": 1131095807, "name": null, "name_en": null, "descriptio": null, "ref": null, "ref_us_eia": null, "ref_gb_rep": null, "ref_eu_eic": null, "wikidata": null, "operator": null, "wd_operato": null, "constructi": 0, "source": "solar", "method": "photovoltaic", "output": null, "start_date": null}, "geometry": {"type": "Polygon", "coordinates": [[[5.917662574944246, 49.61495482185165], [5.9190852353698915, 49.61521474466906], [5.919202665833352, 49.6149449312059], [5.917779837769643, 49.61468517602656], [5.917662574944246, 49.61495482185165]]]}}, {"id": "38", "type": "Feature", "properties": {"id": 1268470876, "name": null, "name_en": null, "descriptio": null, "ref": null, "ref_us_eia": null, "ref_gb_rep": null, "ref_eu_eic": null, "wikidata": null, "operator": null, "wd_operato": null, "constructi": 0, "source": "solar", "method": "photovoltaic", "output": null, "start_date": null}, "geometry": {"type": "Polygon", "coordinates": [[[6.225115728671625, 49.91399749011569], [6.225439940686357, 49.914004195638206], [6.2254489931418115, 49.91382473909127], [6.22512478112705, 49.913818033568724], [6.225115728671625, 49.91399749011569]]]}}, {"id": "39", "type": "Feature", "properties": {"id": 1279579965, "name": null, "name_en": null, "descriptio": null, "ref": null, "ref_us_eia": null, "ref_gb_rep": null, "ref_eu_eic": null, "wikidata": null, "operator": null, "wd_operato": null, "constructi": 0, "source": "solar", "method": "photovoltaic", "output": null, "start_date": null}, "geometry": {"type": "Polygon", "coordinates": [[[6.288435642729497, 49.659989278860365], [6.289915467734772, 49.66057592826348], [6.290022085543143, 49.66046327548482], [6.289103261317251, 49.660099081791955], [6.2890398941292736, 49.66016605319829], [6.288478893349861, 49.65994359748807], [6.288435642729497, 49.659989278860365]]]}}, {"id": "40", "type": "Feature", "properties": {"id": 1279579966, "name": null, "name_en": null, "descriptio": null, "ref": null, "ref_us_eia": null, "ref_gb_rep": null, "ref_eu_eic": null, "wikidata": null, "operator": null, "wd_operato": null, "constructi": 0, "source": "solar", "method": "photovoltaic", "output": null, "start_date": null}, "geometry": {"type": "Polygon", "coordinates": [[[6.286978616500846, 49.659580996356794], [6.287080624262443, 49.659620726577835], [6.287023543501847, 49.65968208210907], [6.287500725249515, 49.65986832799757], [6.287554285610782, 49.65981099577987], [6.287858045781803, 49.65992959970978], [6.287909343029213, 49.65987444678688], [6.287669033865228, 49.65978056947135], [6.287729048291966, 49.65971619645498], [6.28741489456101, 49.65959348539252], [6.28747113713132, 49.65953305187062], [6.287237030575683, 49.659441689126034], [6.28712739528217, 49.65955937104661], [6.287033098871461, 49.65952257449166], [6.286978616500846, 49.659580996356794]]]}}, {"id": "41", "type": "Feature", "properties": {"id": 1321632337, "name": null, "name_en": null, "descriptio": null, "ref": null, "ref_us_eia": null, "ref_gb_rep": null, "ref_eu_eic": null, "wikidata": null, "operator": null, "wd_operato": null, "constructi": 0, "source": "solar", "method": null, "output": null, "start_date": null}, "geometry": {"type": "Polygon", "coordinates": [[[5.932436500000001, 49.513920199999994], [5.932559100000001, 49.513999799999986], [5.9325752, 49.5139894], [5.9324525, 49.513909799999986], [5.932436500000001, 49.513920199999994]]]}}, {"id": "42", "type": "Feature", "properties": {"id": 1321632338, "name": null, "name_en": null, "descriptio": null, "ref": null, "ref_us_eia": null, "ref_gb_rep": null, "ref_eu_eic": null, "wikidata": null, "operator": null, "wd_operato": null, "constructi": 0, "source": "solar", "method": null, "output": null, "start_date": null}, "geometry": {"type": "Polygon", "coordinates": [[[5.932459700000001, 49.513902599999994], [5.9325823, 49.51398219999999], [5.9325984, 49.51397180000001], [5.9324757, 49.51389219999999], [5.932459700000001, 49.513902599999994]]]}}, {"id": "43", "type": "Feature", "properties": {"id": 1321632339, "name": null, "name_en": null, "descriptio": null, "ref": null, "ref_us_eia": null, "ref_gb_rep": null, "ref_eu_eic": null, "wikidata": null, "operator": null, "wd_operato": null, "constructi": 0, "source": "solar", "method": null, "output": null, "start_date": null}, "geometry": {"type": "Polygon", "coordinates": [[[5.9324839, 49.513885200000004], [5.9326065, 49.51396479999998], [5.9326226, 49.51395439999997], [5.9324999, 49.513874799999996], [5.9324839, 49.513885200000004]]]}}, {"id": "44", "type": "Feature", "properties": {"id": 1321632340, "name": null, "name_en": null, "descriptio": null, "ref": null, "ref_us_eia": null, "ref_gb_rep": null, "ref_eu_eic": null, "wikidata": null, "operator": null, "wd_operato": null, "constructi": 0, "source": "solar", "method": null, "output": null, "start_date": null}, "geometry": {"type": "Polygon", "coordinates": [[[5.9325088, 49.513870300000015], [5.9326314, 49.51394999999999], [5.932647399999999, 49.5139396], [5.9325248, 49.513859999999994], [5.9325088, 49.513870300000015]]]}}, {"id": "45", "type": "Feature", "properties": {"id": 1321652509, "name": null, "name_en": null, "descriptio": null, "ref": null, "ref_us_eia": null, "ref_gb_rep": null, "ref_eu_eic": null, "wikidata": null, "operator": null, "wd_operato": null, "constructi": 0, "source": "solar", "method": "photovoltaic", "output": null, "start_date": null}, "geometry": {"type": "Polygon", "coordinates": [[[5.9379178, 49.515683499999994], [5.9379536, 49.51568359999998], [5.937954200000001, 49.51561730000002], [5.937918399999999, 49.51561709999999], [5.9379178, 49.515683499999994]]]}}, {"id": "46", "type": "Feature", "properties": {"id": 1321652510, "name": null, "name_en": null, "descriptio": null, "ref": null, "ref_us_eia": null, "ref_gb_rep": null, "ref_eu_eic": null, "wikidata": null, "operator": null, "wd_operato": null, "constructi": 0, "source": "solar", "method": "photovoltaic", "output": null, "start_date": null}, "geometry": {"type": "Polygon", "coordinates": [[[5.937934, 49.51554709999999], [5.9379698, 49.51554720000002], [5.937970400000001, 49.51548089999999], [5.937934599999999, 49.51548069999999], [5.937934, 49.51554709999999]]]}}, {"id": "47", "type": "Feature", "properties": {"id": 1321652511, "name": null, "name_en": null, "descriptio": null, "ref": null, "ref_us_eia": null, "ref_gb_rep": null, "ref_eu_eic": null, "wikidata": null, "operator": null, "wd_operato": null, "constructi": 0, "source": "solar", "method": "photovoltaic", "output": null, "start_date": null}, "geometry": {"type": "Polygon", "coordinates": [[[5.9385243, 49.51553430000002], [5.9385243999999995, 49.5155575], [5.9386266, 49.5155573], [5.9386265, 49.515533999999995], [5.9385243, 49.51553430000002]]]}}, {"id": "48", "type": "Feature", "properties": {"id": 1321652512, "name": null, "name_en": null, "descriptio": null, "ref": null, "ref_us_eia": null, "ref_gb_rep": null, "ref_eu_eic": null, "wikidata": null, "operator": null, "wd_operato": null, "constructi": 0, "source": "solar", "method": "photovoltaic", "output": null, "start_date": null}, "geometry": {"type": "Polygon", "coordinates": [[[5.93873, 49.51554629999998], [5.9387301, 49.51556959999999], [5.9388323000000005, 49.515569299999996], [5.9388321, 49.51554609999999], [5.93873, 49.51554629999998]]]}}, {"id": "49", "type": "Feature", "properties": {"id": 1381618860, "name": "Biogas Our S\u00e4rl", "name_en": null, "descriptio": null, "ref": null, "ref_us_eia": null, "ref_gb_rep": null, "ref_eu_eic": null, "wikidata": null, "operator": null, "wd_operato": null, "constructi": 0, "source": "biomass", "method": null, "output": null, "start_date": null}, "geometry": {"type": "Polygon", "coordinates": [[[6.0861478811873155, 49.99934244732355], [6.087448249645632, 49.999766823081245], [6.0881545926260685, 50.000010652644555], [6.088776697479601, 50.000225480822884], [6.089412716292429, 50.000445170505074], [6.089630981051073, 50.00052043999555], [6.089796942733898, 50.00004937703721], [6.089691079296813, 49.99990705232132], [6.089715135358914, 49.9998493848275], [6.0898908200494475, 49.99978216196404], [6.08998335626049, 49.99953129160205], [6.089763498940243, 49.99943389388717], [6.088787174858595, 49.999013122347876], [6.088217121623757, 49.9987881520667], [6.0877960986273365, 49.998678684411246], [6.087707669548877, 49.998667536480056], [6.087377087287706, 49.99862328003126], [6.08712839622055, 49.99859947542626], [6.086401685215406, 49.998528648344475], [6.086421550325924, 49.99858564528601], [6.086492461226783, 49.99879762361727], [6.08646438185113, 49.99887959863032], [6.0862229830397325, 49.999092498970924], [6.086203500000001, 49.99913250000001], [6.0862018, 49.999138699999996], [6.0861719, 49.99924369999998], [6.0861478811873155, 49.99934244732355]]]}}, {"id": "50", "type": "Feature", "properties": {"id": 1420397866, "name": null, "name_en": null, "descriptio": null, "ref": null, "ref_us_eia": null, "ref_gb_rep": null, "ref_eu_eic": null, "wikidata": null, "operator": null, "wd_operato": null, "constructi": 0, "source": "solar", "method": null, "output": null, "start_date": null}, "geometry": {"type": "Polygon", "coordinates": [[[6.3026228, 49.58629800000001], [6.3029286, 49.5864889], [6.306143099999999, 49.58649500000002], [6.3067669, 49.5864962], [6.3068245, 49.58649629999999], [6.307198, 49.58643030000002], [6.305765900000001, 49.58501430000001], [6.3042402, 49.58520499999999], [6.303628999999999, 49.585160199999976], [6.3029339, 49.585249699999984], [6.3026228, 49.58629800000001]]]}}, {"id": "51", "type": "Feature", "properties": {"id": 1428109186, "name": null, "name_en": null, "descriptio": null, "ref": null, "ref_us_eia": null, "ref_gb_rep": null, "ref_eu_eic": null, "wikidata": null, "operator": null, "wd_operato": null, "constructi": 0, "source": "solar", "method": null, "output": null, "start_date": null}, "geometry": {"type": "Polygon", "coordinates": [[[6.434576471492591, 49.67228259714981], [6.437318359658719, 49.67353887679743], [6.438073317677549, 49.67389074909266], [6.438286637113322, 49.67370249154739], [6.437799899996037, 49.673468133534655], [6.437841390416737, 49.673425134371385], [6.436751072451926, 49.67291576611551], [6.435796876594651, 49.67257596376085], [6.435642649576266, 49.67250605868841], [6.434772943302989, 49.6721024700506], [6.434576471492591, 49.67228259714981]]]}}, {"id": "52", "type": "Feature", "properties": {"id": 1488899162, "name": null, "name_en": null, "descriptio": null, "ref": null, "ref_us_eia": null, "ref_gb_rep": null, "ref_eu_eic": null, "wikidata": null, "operator": null, "wd_operato": null, "constructi": 0, "source": "solar", "method": null, "output": null, "start_date": null}, "geometry": {"type": "Polygon", "coordinates": [[[6.1466681557661795, 49.768860980990816], [6.146748622036654, 49.76892074396045], [6.147697788752027, 49.7692499851171], [6.147978400000001, 49.768868000000005], [6.148027281365785, 49.76886114862891], [6.1497567194475655, 49.76947076444669], [6.1502596336379725, 49.768929461139734], [6.150574793197307, 49.76864615281249], [6.150753160096826, 49.76852662687324], [6.15095969019103, 49.76840366435368], [6.151209135629472, 49.76831003849523], [6.1512574992107725, 49.76823476900469], [6.150661964990321, 49.76806662802707], [6.150848629973979, 49.76794433605976], [6.150112028323093, 49.76766479958893], [6.148416956044315, 49.76689383213502], [6.148219897500695, 49.76684362453503], [6.147893925286297, 49.767254170152455], [6.146717776632983, 49.768783029291306], [6.1466681557661795, 49.768860980990816]]]}}]}