{"type": "FeatureCollection", "features": [{"id": "0", "type": "Feature", "properties": {"id": 219396507, "name": null, "name_en": null, "descriptio": null, "substance": null, "ref": null, "wikidata": null, "operator": null, "wd_operato": null, "start_date": null}, "geometry": {"type": "Polygon", "coordinates": [[[6.131852974268951, 49.64678115965858], [6.131885160777132, 49.6469930541708], [6.132152040574169, 49.64697788292604], [6.132107784125424, 49.64676548549963], [6.131852974268951, 49.64678115965858]]]}}, {"id": "1", "type": "Feature", "properties": {"id": 493975235, "name": null, "name_en": null, "descriptio": null, "substance": null, "ref": null, "wikidata": null, "operator": null, "wd_operato": null, "start_date": null}, "geometry": {"type": "Polygon", "coordinates": [[[6.474485059434585, 49.70301853317287], [6.47453912271007, 49.70304434943465], [6.474572734141787, 49.703014845135485], [6.474518670866303, 49.702989028873716], [6.474485059434585, 49.70301853317287]]]}}, {"id": "2", "type": "Feature", "properties": {"id": 909529972, "name": null, "name_en": null, "descriptio": null, "substance": "water", "ref": null, "wikidata": null, "operator": null, "wd_operato": null, "start_date": null}, "geometry": {"type": "Polygon", "coordinates": [[[6.225371041442287, 49.921002581873914], [6.2254543575598404, 49.92107005619448], [6.22549341722862, 49.92110173978846], [6.225633981744836, 49.921029990697285], [6.22551152213947, 49.92093066514467], [6.225371041442287, 49.921002581873914]]]}}, {"id": "3", "type": "Feature", "properties": {"id": 909579157, "name": null, "name_en": null, "descriptio": null, "substance": "water", "ref": null, "wikidata": null, "operator": null, "wd_operato": null, "start_date": null}, "geometry": {"type": "Polygon", "coordinates": [[[6.1405480253450255, 50.00020016747532], [6.140559592371402, 50.00022749247967], [6.140570824121654, 50.00025406311271], [6.140941639518047, 50.00026822852907], [6.14094616574576, 50.00023294071672], [6.14095303890636, 50.000179045079285], [6.140696217393127, 50.00017552467997], [6.140698229049889, 50.000142332343415], [6.1405527192108025, 50.00013721938246], [6.1405480253450255, 50.00020016747532]]]}}, {"id": "4", "type": "Feature", "properties": {"id": 979828846, "name": null, "name_en": null, "descriptio": "Underground pumping station.", "substance": null, "ref": null, "wikidata": null, "operator": null, "wd_operato": null, "start_date": null}, "geometry": {"type": "Polygon", "coordinates": [[[6.145356052643422, 49.637932971211505], [6.145734830847828, 49.63810949409234], [6.145948317921636, 49.637961050587116], [6.145744218579381, 49.637874130251255], [6.1456387742374545, 49.63779785493236], [6.145526875830087, 49.637632982896925], [6.145501394844444, 49.637752760293296], [6.145398129797343, 49.63774069035271], [6.145356052643422, 49.637932971211505]]]}}]}