{"type": "FeatureCollection", "features": [{"id": "0", "type": "Feature", "properties": {"id": 1069296520, "ref": null, "descriptio": null, "operator": null, "wd_operato": null}, "geometry": {"type": "Point", "coordinates": [6.018661993614131, 49.520721694518585]}}, {"id": "1", "type": "Feature", "properties": {"id": 5292686390, "ref": null, "descriptio": null, "operator": null, "wd_operato": null}, "geometry": {"type": "Point", "coordinates": [6.14049924266854, 49.668416779587126]}}, {"id": "2", "type": "Feature", "properties": {"id": 5292686413, "ref": null, "descriptio": null, "operator": null, "wd_operato": null}, "geometry": {"type": "Point", "coordinates": [6.140529417519986, 49.66852272684325]}}, {"id": "3", "type": "Feature", "properties": {"id": 6100151807, "ref": null, "descriptio": null, "operator": null, "wd_operato": null}, "geometry": {"type": "Point", "coordinates": [6.036074726904872, 49.60544219994002]}}, {"id": "4", "type": "Feature", "properties": {"id": 6100151808, "ref": null, "descriptio": null, "operator": null, "wd_operato": null}, "geometry": {"type": "Point", "coordinates": [6.036071374143603, 49.605325356209775]}}, {"id": "5", "type": "Feature", "properties": {"id": 6100151809, "ref": null, "descriptio": null, "operator": null, "wd_operato": null}, "geometry": {"type": "Point", "coordinates": [6.036062740783308, 49.60503349834126]}}, {"id": "6", "type": "Feature", "properties": {"id": 6100151810, "ref": null, "descriptio": null, "operator": null, "wd_operato": null}, "geometry": {"type": "Point", "coordinates": [6.0360610644026735, 49.604975076476144]}}, {"id": "7", "type": "Feature", "properties": {"id": 6100151811, "ref": null, "descriptio": null, "operator": null, "wd_operato": null}, "geometry": {"type": "Point", "coordinates": [6.036057627822373, 49.60485831656495]}}, {"id": "8", "type": "Feature", "properties": {"id": 6100151812, "ref": null, "descriptio": null, "operator": null, "wd_operato": null}, "geometry": {"type": "Point", "coordinates": [6.036054275061105, 49.60474155665374]}}, {"id": "9", "type": "Feature", "properties": {"id": 6100151813, "ref": null, "descriptio": null, "operator": null, "wd_operato": null}, "geometry": {"type": "Point", "coordinates": [6.0360507546617725, 49.60462488056158]}}, {"id": "10", "type": "Feature", "properties": {"id": 6100151814, "ref": null, "descriptio": null, "operator": null, "wd_operato": null}, "geometry": {"type": "Point", "coordinates": [6.036049078281138, 49.60456645869647]}}, {"id": "11", "type": "Feature", "properties": {"id": 6100151815, "ref": null, "descriptio": null, "operator": null, "wd_operato": null}, "geometry": {"type": "Point", "coordinates": [6.035984621445749, 49.605443289587456]}}, {"id": "12", "type": "Feature", "properties": {"id": 6100151816, "ref": null, "descriptio": null, "operator": null, "wd_operato": null}, "geometry": {"type": "Point", "coordinates": [6.0359812686844805, 49.60532644585721]}}, {"id": "13", "type": "Feature", "properties": {"id": 6100151817, "ref": null, "descriptio": null, "operator": null, "wd_operato": null}, "geometry": {"type": "Point", "coordinates": [6.035972635324213, 49.60503458798868]}}, {"id": "14", "type": "Feature", "properties": {"id": 6100151818, "ref": null, "descriptio": null, "operator": null, "wd_operato": null}, "geometry": {"type": "Point", "coordinates": [6.0359709589435795, 49.60497624994259]}}, {"id": "15", "type": "Feature", "properties": {"id": 6100151819, "ref": null, "descriptio": null, "operator": null, "wd_operato": null}, "geometry": {"type": "Point", "coordinates": [6.035967522363279, 49.60485949003138]}}, {"id": "16", "type": "Feature", "properties": {"id": 6100151820, "ref": null, "descriptio": null, "operator": null, "wd_operato": null}, "geometry": {"type": "Point", "coordinates": [6.0359641696020105, 49.60474264630117]}}, {"id": "17", "type": "Feature", "properties": {"id": 6100151821, "ref": null, "descriptio": null, "operator": null, "wd_operato": null}, "geometry": {"type": "Point", "coordinates": [6.03596073302171, 49.60462597020898]}}, {"id": "18", "type": "Feature", "properties": {"id": 6100151822, "ref": null, "descriptio": null, "operator": null, "wd_operato": null}, "geometry": {"type": "Point", "coordinates": [6.035959056641077, 49.604567548343866]}}, {"id": "19", "type": "Feature", "properties": {"id": 6100151823, "ref": null, "descriptio": null, "operator": null, "wd_operato": null}, "geometry": {"type": "Point", "coordinates": [6.035572231809596, 49.605565162459555]}}, {"id": "20", "type": "Feature", "properties": {"id": 6100151824, "ref": null, "descriptio": null, "operator": null, "wd_operato": null}, "geometry": {"type": "Point", "coordinates": [6.0355705554289605, 49.60550674059446]}}, {"id": "21", "type": "Feature", "properties": {"id": 6100151825, "ref": null, "descriptio": null, "operator": null, "wd_operato": null}, "geometry": {"type": "Point", "coordinates": [6.035567118848661, 49.60538998068321]}}, {"id": "22", "type": "Feature", "properties": {"id": 6100151826, "ref": null, "descriptio": null, "operator": null, "wd_operato": null}, "geometry": {"type": "Point", "coordinates": [6.035563766087393, 49.60527322077202]}}, {"id": "23", "type": "Feature", "properties": {"id": 6100151827, "ref": null, "descriptio": null, "operator": null, "wd_operato": null}, "geometry": {"type": "Point", "coordinates": [6.035562089706758, 49.605214882725946]}}, {"id": "24", "type": "Feature", "properties": {"id": 6100151828, "ref": null, "descriptio": null, "operator": null, "wd_operato": null}, "geometry": {"type": "Point", "coordinates": [6.035550019766191, 49.60480618112723]}}, {"id": "25", "type": "Feature", "properties": {"id": 6100151829, "ref": null, "descriptio": null, "operator": null, "wd_operato": null}, "geometry": {"type": "Point", "coordinates": [6.035546667004922, 49.604689421216015]}}, {"id": "26", "type": "Feature", "properties": {"id": 6100151830, "ref": null, "descriptio": null, "operator": null, "wd_operato": null}, "geometry": {"type": "Point", "coordinates": [6.035541554043988, 49.604514239439695]}}, {"id": "27", "type": "Feature", "properties": {"id": 6100151831, "ref": null, "descriptio": null, "operator": null, "wd_operato": null}, "geometry": {"type": "Point", "coordinates": [6.035539877663354, 49.60445581757458]}}, {"id": "28", "type": "Feature", "properties": {"id": 6100151832, "ref": null, "descriptio": null, "operator": null, "wd_operato": null}, "geometry": {"type": "Point", "coordinates": [6.035655464108117, 49.6055641566312]}}, {"id": "29", "type": "Feature", "properties": {"id": 6100151833, "ref": null, "descriptio": null, "operator": null, "wd_operato": null}, "geometry": {"type": "Point", "coordinates": [6.035653787727482, 49.60550573476607]}}, {"id": "30", "type": "Feature", "properties": {"id": 6100151834, "ref": null, "descriptio": null, "operator": null, "wd_operato": null}, "geometry": {"type": "Point", "coordinates": [6.035650351147183, 49.60538897485487]}}, {"id": "31", "type": "Feature", "properties": {"id": 6100151835, "ref": null, "descriptio": null, "operator": null, "wd_operato": null}, "geometry": {"type": "Point", "coordinates": [6.035646830747851, 49.60527229876268]}}, {"id": "32", "type": "Feature", "properties": {"id": 6100151836, "ref": null, "descriptio": null, "operator": null, "wd_operato": null}, "geometry": {"type": "Point", "coordinates": [6.0356451543672165, 49.605213876897565]}}, {"id": "33", "type": "Feature", "properties": {"id": 6100151837, "ref": null, "descriptio": null, "operator": null, "wd_operato": null}, "geometry": {"type": "Point", "coordinates": [6.035633252064713, 49.60480517529884]}}, {"id": "34", "type": "Feature", "properties": {"id": 6100151838, "ref": null, "descriptio": null, "operator": null, "wd_operato": null}, "geometry": {"type": "Point", "coordinates": [6.035629731665381, 49.60468833156861]}}, {"id": "35", "type": "Feature", "properties": {"id": 6100151839, "ref": null, "descriptio": null, "operator": null, "wd_operato": null}, "geometry": {"type": "Point", "coordinates": [6.035624618704446, 49.60451323361128]}}, {"id": "36", "type": "Feature", "properties": {"id": 6100151840, "ref": null, "descriptio": null, "operator": null, "wd_operato": null}, "geometry": {"type": "Point", "coordinates": [6.035622942323811, 49.60445489556522]}}, {"id": "37", "type": "Feature", "properties": {"id": 6100153650, "ref": null, "descriptio": null, "operator": null, "wd_operato": null}, "geometry": {"type": "Point", "coordinates": [6.0347566726308335, 49.604933669874484]}}, {"id": "38", "type": "Feature", "properties": {"id": 6100153652, "ref": null, "descriptio": null, "operator": null, "wd_operato": null}, "geometry": {"type": "Point", "coordinates": [6.034278485054785, 49.604938363740274]}}, {"id": "39", "type": "Feature", "properties": {"id": 6100153653, "ref": null, "descriptio": null, "operator": null, "wd_operato": null}, "geometry": {"type": "Point", "coordinates": [6.034195336575294, 49.60493928574964]}}, {"id": "40", "type": "Feature", "properties": {"id": 6100153655, "ref": null, "descriptio": null, "operator": null, "wd_operato": null}, "geometry": {"type": "Point", "coordinates": [6.034077570835706, 49.60494037539703]}}, {"id": "41", "type": "Feature", "properties": {"id": 6100153656, "ref": null, "descriptio": null, "operator": null, "wd_operato": null}, "geometry": {"type": "Point", "coordinates": [6.03497544030364, 49.60480492384175]}}, {"id": "42", "type": "Feature", "properties": {"id": 6100153660, "ref": null, "descriptio": null, "operator": null, "wd_operato": null}, "geometry": {"type": "Point", "coordinates": [6.034275467569643, 49.604811880821394]}}, {"id": "43", "type": "Feature", "properties": {"id": 6100153662, "ref": null, "descriptio": null, "operator": null, "wd_operato": null}, "geometry": {"type": "Point", "coordinates": [6.034074553350564, 49.60481389247816]}}, {"id": "44", "type": "Feature", "properties": {"id": 6100153663, "ref": null, "descriptio": null, "operator": null, "wd_operato": null}, "geometry": {"type": "Point", "coordinates": [6.034972422818498, 49.60467844092285]}}, {"id": "45", "type": "Feature", "properties": {"id": 6100153667, "ref": null, "descriptio": null, "operator": null, "wd_operato": null}, "geometry": {"type": "Point", "coordinates": [6.034272450084502, 49.60468548172151]}}, {"id": "46", "type": "Feature", "properties": {"id": 6100153668, "ref": null, "descriptio": null, "operator": null, "wd_operato": null}, "geometry": {"type": "Point", "coordinates": [6.0341893854240425, 49.604686236092796]}}, {"id": "47", "type": "Feature", "properties": {"id": 6100153670, "ref": null, "descriptio": null, "operator": null, "wd_operato": null}, "geometry": {"type": "Point", "coordinates": [6.034071535865423, 49.60468749337827]}}, {"id": "48", "type": "Feature", "properties": {"id": 6100153673, "ref": null, "descriptio": null, "operator": null, "wd_operato": null}, "geometry": {"type": "Point", "coordinates": [6.034747620175408, 49.6045541372988]}}, {"id": "49", "type": "Feature", "properties": {"id": 6100153675, "ref": null, "descriptio": null, "operator": null, "wd_operato": null}, "geometry": {"type": "Point", "coordinates": [6.034269432599359, 49.60455899880264]}}, {"id": "50", "type": "Feature", "properties": {"id": 6100153678, "ref": null, "descriptio": null, "operator": null, "wd_operato": null}, "geometry": {"type": "Point", "coordinates": [6.0340685183802805, 49.60456092664035]}}, {"id": "51", "type": "Feature", "properties": {"id": 6100153679, "ref": null, "descriptio": null, "operator": null, "wd_operato": null}, "geometry": {"type": "Point", "coordinates": [6.03495741921182, 49.60404594250937]}}, {"id": "52", "type": "Feature", "properties": {"id": 6100153683, "ref": null, "descriptio": null, "operator": null, "wd_operato": null}, "geometry": {"type": "Point", "coordinates": [6.034257446477824, 49.60405298330803]}}, {"id": "53", "type": "Feature", "properties": {"id": 6100153684, "ref": null, "descriptio": null, "operator": null, "wd_operato": null}, "geometry": {"type": "Point", "coordinates": [6.0341743818173645, 49.604053737679315]}}, {"id": "54", "type": "Feature", "properties": {"id": 6100153986, "ref": null, "descriptio": null, "operator": null, "wd_operato": null}, "geometry": {"type": "Point", "coordinates": [6.034056532258745, 49.60405499496479]}}, {"id": "55", "type": "Feature", "properties": {"id": 6100153987, "ref": null, "descriptio": null, "operator": null, "wd_operato": null}, "geometry": {"type": "Point", "coordinates": [6.03495448554571, 49.60391945959048]}}, {"id": "56", "type": "Feature", "properties": {"id": 6100153989, "ref": null, "descriptio": null, "operator": null, "wd_operato": null}, "geometry": {"type": "Point", "coordinates": [6.034732616568704, 49.60392163888529]}}, {"id": "57", "type": "Feature", "properties": {"id": 6100153991, "ref": null, "descriptio": null, "operator": null, "wd_operato": null}, "geometry": {"type": "Point", "coordinates": [6.0342544289926545, 49.60392641657012]}}, {"id": "58", "type": "Feature", "properties": {"id": 6100153997, "ref": null, "descriptio": null, "operator": null, "wd_operato": null}, "geometry": {"type": "Point", "coordinates": [6.034726497779389, 49.60365936913501]}}, {"id": "59", "type": "Feature", "properties": {"id": 6100153999, "ref": null, "descriptio": null, "operator": null, "wd_operato": null}, "geometry": {"type": "Point", "coordinates": [6.034248226384307, 49.60366406300078]}}, {"id": "60", "type": "Feature", "properties": {"id": 6100154000, "ref": null, "descriptio": null, "operator": null, "wd_operato": null}, "geometry": {"type": "Point", "coordinates": [6.034165161723878, 49.60366498501015]}}, {"id": "61", "type": "Feature", "properties": {"id": 6100154002, "ref": null, "descriptio": null, "operator": null, "wd_operato": null}, "geometry": {"type": "Point", "coordinates": [6.034047395984288, 49.60366607465754]}}, {"id": "62", "type": "Feature", "properties": {"id": 6100154005, "ref": null, "descriptio": null, "operator": null, "wd_operato": null}, "geometry": {"type": "Point", "coordinates": [6.034729682902594, 49.60379515596641]}}, {"id": "63", "type": "Feature", "properties": {"id": 6100154009, "ref": null, "descriptio": null, "operator": null, "wd_operato": null}, "geometry": {"type": "Point", "coordinates": [6.033918147037354, 49.60494196795862]}}, {"id": "64", "type": "Feature", "properties": {"id": 6100154010, "ref": null, "descriptio": null, "operator": null, "wd_operato": null}, "geometry": {"type": "Point", "coordinates": [6.033915129552213, 49.60481548503975]}}, {"id": "65", "type": "Feature", "properties": {"id": 6100154011, "ref": null, "descriptio": null, "operator": null, "wd_operato": null}, "geometry": {"type": "Point", "coordinates": [6.033912195886103, 49.60468891830183]}}, {"id": "66", "type": "Feature", "properties": {"id": 6100154012, "ref": null, "descriptio": null, "operator": null, "wd_operato": null}, "geometry": {"type": "Point", "coordinates": [6.033909178400961, 49.60456251920198]}}, {"id": "67", "type": "Feature", "properties": {"id": 6100154013, "ref": null, "descriptio": null, "operator": null, "wd_operato": null}, "geometry": {"type": "Point", "coordinates": [6.033897192279425, 49.6040565875264]}}, {"id": "68", "type": "Feature", "properties": {"id": 6100154014, "ref": null, "descriptio": null, "operator": null, "wd_operato": null}, "geometry": {"type": "Point", "coordinates": [6.033894174794284, 49.60393002078849]}}, {"id": "69", "type": "Feature", "properties": {"id": 6100154015, "ref": null, "descriptio": null, "operator": null, "wd_operato": null}, "geometry": {"type": "Point", "coordinates": [6.033887972185908, 49.603667667219135]}}, {"id": "70", "type": "Feature", "properties": {"id": 6100552538, "ref": null, "descriptio": null, "operator": null, "wd_operato": null}, "geometry": {"type": "Point", "coordinates": [6.140124487777655, 49.66954137953592]}}, {"id": "71", "type": "Feature", "properties": {"id": 6100552539, "ref": null, "descriptio": null, "operator": null, "wd_operato": null}, "geometry": {"type": "Point", "coordinates": [6.140115686779325, 49.66951045031321]}}, {"id": "72", "type": "Feature", "properties": {"id": 6100552540, "ref": null, "descriptio": null, "operator": null, "wd_operato": null}, "geometry": {"type": "Point", "coordinates": [6.140106885780995, 49.66947943727148]}}, {"id": "73", "type": "Feature", "properties": {"id": 6100552541, "ref": null, "descriptio": null, "operator": null, "wd_operato": null}, "geometry": {"type": "Point", "coordinates": [6.140086853032415, 49.6694092807419]}}, {"id": "74", "type": "Feature", "properties": {"id": 6100552542, "ref": null, "descriptio": null, "operator": null, "wd_operato": null}, "geometry": {"type": "Point", "coordinates": [6.1400780520340845, 49.66937835151922]}}, {"id": "75", "type": "Feature", "properties": {"id": 6100552543, "ref": null, "descriptio": null, "operator": null, "wd_operato": null}, "geometry": {"type": "Point", "coordinates": [6.140069251035754, 49.66934733847747]}}, {"id": "76", "type": "Feature", "properties": {"id": 6100552544, "ref": null, "descriptio": null, "operator": null, "wd_operato": null}, "geometry": {"type": "Point", "coordinates": [6.140062964608376, 49.669548671791674]}}, {"id": "77", "type": "Feature", "properties": {"id": 6100552545, "ref": null, "descriptio": null, "operator": null, "wd_operato": null}, "geometry": {"type": "Point", "coordinates": [6.140054163610046, 49.669517742569]}}, {"id": "78", "type": "Feature", "properties": {"id": 6100552546, "ref": null, "descriptio": null, "operator": null, "wd_operato": null}, "geometry": {"type": "Point", "coordinates": [6.1400453626117155, 49.66948672952725]}}, {"id": "79", "type": "Feature", "properties": {"id": 6100552547, "ref": null, "descriptio": null, "operator": null, "wd_operato": null}, "geometry": {"type": "Point", "coordinates": [6.1400254975011705, 49.669416572997655]}}, {"id": "80", "type": "Feature", "properties": {"id": 6100552548, "ref": null, "descriptio": null, "operator": null, "wd_operato": null}, "geometry": {"type": "Point", "coordinates": [6.14001669650284, 49.66938564377497]}}, {"id": "81", "type": "Feature", "properties": {"id": 6100552549, "ref": null, "descriptio": null, "operator": null, "wd_operato": null}, "geometry": {"type": "Point", "coordinates": [6.14000789550451, 49.669354630733224]}}, {"id": "82", "type": "Feature", "properties": {"id": 6100552550, "ref": null, "descriptio": null, "operator": null, "wd_operato": null}, "geometry": {"type": "Point", "coordinates": [6.139028889213847, 49.66953517692757]}}, {"id": "83", "type": "Feature", "properties": {"id": 6100552551, "ref": null, "descriptio": null, "operator": null, "wd_operato": null}, "geometry": {"type": "Point", "coordinates": [6.139020172034549, 49.669504247704886]}}, {"id": "84", "type": "Feature", "properties": {"id": 6100552552, "ref": null, "descriptio": null, "operator": null, "wd_operato": null}, "geometry": {"type": "Point", "coordinates": [6.139011371036219, 49.669473318482154]}}, {"id": "85", "type": "Feature", "properties": {"id": 6100552553, "ref": null, "descriptio": null, "operator": null, "wd_operato": null}, "geometry": {"type": "Point", "coordinates": [6.138991338287639, 49.66940307813355]}}, {"id": "86", "type": "Feature", "properties": {"id": 6100552554, "ref": null, "descriptio": null, "operator": null, "wd_operato": null}, "geometry": {"type": "Point", "coordinates": [6.1389825372893085, 49.66937214891087]}}, {"id": "87", "type": "Feature", "properties": {"id": 6100552555, "ref": null, "descriptio": null, "operator": null, "wd_operato": null}, "geometry": {"type": "Point", "coordinates": [6.138973736290978, 49.669341219688164]}}, {"id": "88", "type": "Feature", "properties": {"id": 6100552556, "ref": null, "descriptio": null, "operator": null, "wd_operato": null}, "geometry": {"type": "Point", "coordinates": [6.138953787361401, 49.66927097933955]}}, {"id": "89", "type": "Feature", "properties": {"id": 6100552557, "ref": null, "descriptio": null, "operator": null, "wd_operato": null}, "geometry": {"type": "Point", "coordinates": [6.138945070182103, 49.669240050116855]}}, {"id": "90", "type": "Feature", "properties": {"id": 6100552558, "ref": null, "descriptio": null, "operator": null, "wd_operato": null}, "geometry": {"type": "Point", "coordinates": [6.138936269183773, 49.66920912089414]}}, {"id": "91", "type": "Feature", "properties": {"id": 6100552559, "ref": null, "descriptio": null, "operator": null, "wd_operato": null}, "geometry": {"type": "Point", "coordinates": [6.138916236435193, 49.66913888054554]}}, {"id": "92", "type": "Feature", "properties": {"id": 6100552560, "ref": null, "descriptio": null, "operator": null, "wd_operato": null}, "geometry": {"type": "Point", "coordinates": [6.138907435436863, 49.66910795132286]}}, {"id": "93", "type": "Feature", "properties": {"id": 6100552561, "ref": null, "descriptio": null, "operator": null, "wd_operato": null}, "geometry": {"type": "Point", "coordinates": [6.138898634438533, 49.6690770221001]}}, {"id": "94", "type": "Feature", "properties": {"id": 6100552562, "ref": null, "descriptio": null, "operator": null, "wd_operato": null}, "geometry": {"type": "Point", "coordinates": [6.139090328564122, 49.669527884671815]}}, {"id": "95", "type": "Feature", "properties": {"id": 6100552563, "ref": null, "descriptio": null, "operator": null, "wd_operato": null}, "geometry": {"type": "Point", "coordinates": [6.139081527565792, 49.66949695544911]}}, {"id": "96", "type": "Feature", "properties": {"id": 6100552564, "ref": null, "descriptio": null, "operator": null, "wd_operato": null}, "geometry": {"type": "Point", "coordinates": [6.139072726567434, 49.6694660262264]}}, {"id": "97", "type": "Feature", "properties": {"id": 6100552565, "ref": null, "descriptio": null, "operator": null, "wd_operato": null}, "geometry": {"type": "Point", "coordinates": [6.139052777637887, 49.669395785877796]}}, {"id": "98", "type": "Feature", "properties": {"id": 6100552566, "ref": null, "descriptio": null, "operator": null, "wd_operato": null}, "geometry": {"type": "Point", "coordinates": [6.139043976639556, 49.669364856655115]}}, {"id": "99", "type": "Feature", "properties": {"id": 6100552567, "ref": null, "descriptio": null, "operator": null, "wd_operato": null}, "geometry": {"type": "Point", "coordinates": [6.139035175641226, 49.66933392743238]}}, {"id": "100", "type": "Feature", "properties": {"id": 6100552568, "ref": null, "descriptio": null, "operator": null, "wd_operato": null}, "geometry": {"type": "Point", "coordinates": [6.1390152267116775, 49.66926368708379]}}, {"id": "101", "type": "Feature", "properties": {"id": 6100552569, "ref": null, "descriptio": null, "operator": null, "wd_operato": null}, "geometry": {"type": "Point", "coordinates": [6.139006425713347, 49.66923275786109]}}, {"id": "102", "type": "Feature", "properties": {"id": 6100552570, "ref": null, "descriptio": null, "operator": null, "wd_operato": null}, "geometry": {"type": "Point", "coordinates": [6.138997624715017, 49.66920182863833]}}, {"id": "103", "type": "Feature", "properties": {"id": 6100552571, "ref": null, "descriptio": null, "operator": null, "wd_operato": null}, "geometry": {"type": "Point", "coordinates": [6.138977675785468, 49.66913158828979]}}, {"id": "104", "type": "Feature", "properties": {"id": 6100552572, "ref": null, "descriptio": null, "operator": null, "wd_operato": null}, "geometry": {"type": "Point", "coordinates": [6.138968874787138, 49.66910065906707]}}, {"id": "105", "type": "Feature", "properties": {"id": 6100552573, "ref": null, "descriptio": null, "operator": null, "wd_operato": null}, "geometry": {"type": "Point", "coordinates": [6.138960073788808, 49.669069729844345]}}, {"id": "106", "type": "Feature", "properties": {"id": 6100552583, "ref": null, "descriptio": null, "operator": null, "wd_operato": null}, "geometry": {"type": "Point", "coordinates": [6.140918170189167, 49.669517742569]}}, {"id": "107", "type": "Feature", "properties": {"id": 6100552584, "ref": null, "descriptio": null, "operator": null, "wd_operato": null}, "geometry": {"type": "Point", "coordinates": [6.1408277294539175, 49.669199649343525]}}, {"id": "108", "type": "Feature", "properties": {"id": 6100552585, "ref": null, "descriptio": null, "operator": null, "wd_operato": null}, "geometry": {"type": "Point", "coordinates": [6.1407975546025, 49.66909361826841]}}, {"id": "109", "type": "Feature", "properties": {"id": 6100552586, "ref": null, "descriptio": null, "operator": null, "wd_operato": null}, "geometry": {"type": "Point", "coordinates": [6.140752376144376, 49.66893469738421]}}, {"id": "110", "type": "Feature", "properties": {"id": 6100552587, "ref": null, "descriptio": null, "operator": null, "wd_operato": null}, "geometry": {"type": "Point", "coordinates": [6.140737288718667, 49.668881639937155]}}, {"id": "111", "type": "Feature", "properties": {"id": 6100552588, "ref": null, "descriptio": null, "operator": null, "wd_operato": null}, "geometry": {"type": "Point", "coordinates": [6.140677022834864, 49.66866957778686]}}, {"id": "112", "type": "Feature", "properties": {"id": 6100552589, "ref": null, "descriptio": null, "operator": null, "wd_operato": null}, "geometry": {"type": "Point", "coordinates": [6.140661935409156, 49.66861652033977]}}, {"id": "113", "type": "Feature", "properties": {"id": 6100552590, "ref": null, "descriptio": null, "operator": null, "wd_operato": null}, "geometry": {"type": "Point", "coordinates": [6.140631844376742, 49.66851057308366]}}, {"id": "114", "type": "Feature", "properties": {"id": 6100552591, "ref": null, "descriptio": null, "operator": null, "wd_operato": null}, "geometry": {"type": "Point", "coordinates": [6.140616756951033, 49.668457599455586]}}, {"id": "115", "type": "Feature", "properties": {"id": 6100552595, "ref": null, "descriptio": null, "operator": null, "wd_operato": null}, "geometry": {"type": "Point", "coordinates": [6.140390361746313, 49.66910107816226]}}, {"id": "116", "type": "Feature", "properties": {"id": 6100552599, "ref": null, "descriptio": null, "operator": null, "wd_operato": null}, "geometry": {"type": "Point", "coordinates": [6.141061416914397, 49.66950064348651]}}, {"id": "117", "type": "Feature", "properties": {"id": 6100552600, "ref": null, "descriptio": null, "operator": null, "wd_operato": null}, "geometry": {"type": "Point", "coordinates": [6.140971059998179, 49.66918263408011]}}, {"id": "118", "type": "Feature", "properties": {"id": 6100552601, "ref": null, "descriptio": null, "operator": null, "wd_operato": null}, "geometry": {"type": "Point", "coordinates": [6.140940885146763, 49.6690765191859]}}, {"id": "119", "type": "Feature", "properties": {"id": 6100552602, "ref": null, "descriptio": null, "operator": null, "wd_operato": null}, "geometry": {"type": "Point", "coordinates": [6.140895622869635, 49.668917598301746]}}, {"id": "120", "type": "Feature", "properties": {"id": 6100552603, "ref": null, "descriptio": null, "operator": null, "wd_operato": null}, "geometry": {"type": "Point", "coordinates": [6.140880619262931, 49.66886454085467]}}, {"id": "121", "type": "Feature", "properties": {"id": 6100552604, "ref": null, "descriptio": null, "operator": null, "wd_operato": null}, "geometry": {"type": "Point", "coordinates": [6.140820353379127, 49.668652562523405]}}, {"id": "122", "type": "Feature", "properties": {"id": 6100552605, "ref": null, "descriptio": null, "operator": null, "wd_operato": null}, "geometry": {"type": "Point", "coordinates": [6.140805265953418, 49.668599421257284]}}, {"id": "123", "type": "Feature", "properties": {"id": 6100552606, "ref": null, "descriptio": null, "operator": null, "wd_operato": null}, "geometry": {"type": "Point", "coordinates": [6.140775174921032, 49.66849347400119]}}, {"id": "124", "type": "Feature", "properties": {"id": 6100552607, "ref": null, "descriptio": null, "operator": null, "wd_operato": null}, "geometry": {"type": "Point", "coordinates": [6.140760087495296, 49.668440416554084]}}, {"id": "125", "type": "Feature", "properties": {"id": 6100552627, "ref": null, "descriptio": null, "operator": null, "wd_operato": null}, "geometry": {"type": "Point", "coordinates": [6.140533021738349, 49.669453956285835]}}, {"id": "126", "type": "Feature", "properties": {"id": 6100552628, "ref": null, "descriptio": null, "operator": null, "wd_operato": null}, "geometry": {"type": "Point", "coordinates": [6.140502930705936, 49.66934792521067]}}, {"id": "127", "type": "Feature", "properties": {"id": 6100552629, "ref": null, "descriptio": null, "operator": null, "wd_operato": null}, "geometry": {"type": "Point", "coordinates": [6.140457752247841, 49.669188920507466]}}, {"id": "128", "type": "Feature", "properties": {"id": 6100552630, "ref": null, "descriptio": null, "operator": null, "wd_operato": null}, "geometry": {"type": "Point", "coordinates": [6.140427577396424, 49.66908297325135]}}, {"id": "129", "type": "Feature", "properties": {"id": 6100552631, "ref": null, "descriptio": null, "operator": null, "wd_operato": null}, "geometry": {"type": "Point", "coordinates": [6.140412573789746, 49.669029831985235]}}, {"id": "130", "type": "Feature", "properties": {"id": 6100552632, "ref": null, "descriptio": null, "operator": null, "wd_operato": null}, "geometry": {"type": "Point", "coordinates": [6.140367395331623, 49.66887082728206]}}, {"id": "131", "type": "Feature", "properties": {"id": 6100552633, "ref": null, "descriptio": null, "operator": null, "wd_operato": null}, "geometry": {"type": "Point", "coordinates": [6.140337136661174, 49.66876488002593]}}, {"id": "132", "type": "Feature", "properties": {"id": 6100552634, "ref": null, "descriptio": null, "operator": null, "wd_operato": null}, "geometry": {"type": "Point", "coordinates": [6.140246779744956, 49.6684467868005]}}, {"id": "133", "type": "Feature", "properties": {"id": 6100552658, "ref": null, "descriptio": null, "operator": null, "wd_operato": null}, "geometry": {"type": "Point", "coordinates": [6.140815743332382, 49.66952998014763]}}, {"id": "134", "type": "Feature", "properties": {"id": 6100552662, "ref": null, "descriptio": null, "operator": null, "wd_operato": null}, "geometry": {"type": "Point", "coordinates": [6.140785568480964, 49.66942394907245]}}, {"id": "135", "type": "Feature", "properties": {"id": 6100552666, "ref": null, "descriptio": null, "operator": null, "wd_operato": null}, "geometry": {"type": "Point", "coordinates": [6.14075547744855, 49.66931783417829]}}, {"id": "136", "type": "Feature", "properties": {"id": 6100552668, "ref": null, "descriptio": null, "operator": null, "wd_operato": null}, "geometry": {"type": "Point", "coordinates": [6.140740390022842, 49.669264860550236]}}, {"id": "137", "type": "Feature", "properties": {"id": 6100552670, "ref": null, "descriptio": null, "operator": null, "wd_operato": null}, "geometry": {"type": "Point", "coordinates": [6.1407253864161655, 49.66921188692219]}}, {"id": "138", "type": "Feature", "properties": {"id": 6100552672, "ref": null, "descriptio": null, "operator": null, "wd_operato": null}, "geometry": {"type": "Point", "coordinates": [6.140710298990456, 49.669158829475094]}}, {"id": "139", "type": "Feature", "properties": {"id": 6100552674, "ref": null, "descriptio": null, "operator": null, "wd_operato": null}, "geometry": {"type": "Point", "coordinates": [6.140695127745716, 49.66910585584704]}}, {"id": "140", "type": "Feature", "properties": {"id": 6100552676, "ref": null, "descriptio": null, "operator": null, "wd_operato": null}, "geometry": {"type": "Point", "coordinates": [6.140680124139038, 49.669052882218985]}}, {"id": "141", "type": "Feature", "properties": {"id": 6100552678, "ref": null, "descriptio": null, "operator": null, "wd_operato": null}, "geometry": {"type": "Point", "coordinates": [6.14066503671333, 49.668999824771895]}}, {"id": "142", "type": "Feature", "properties": {"id": 6100552680, "ref": null, "descriptio": null, "operator": null, "wd_operato": null}, "geometry": {"type": "Point", "coordinates": [6.140649949287621, 49.66894685114383]}}, {"id": "143", "type": "Feature", "properties": {"id": 6100552682, "ref": null, "descriptio": null, "operator": null, "wd_operato": null}, "geometry": {"type": "Point", "coordinates": [6.140634945680915, 49.66889387751578]}}, {"id": "144", "type": "Feature", "properties": {"id": 6100552684, "ref": null, "descriptio": null, "operator": null, "wd_operato": null}, "geometry": {"type": "Point", "coordinates": [6.140619858255206, 49.668840736249656]}}, {"id": "145", "type": "Feature", "properties": {"id": 6100552788, "ref": null, "descriptio": null, "operator": null, "wd_operato": null}, "geometry": {"type": "Point", "coordinates": [6.140589767222821, 49.66873478899358]}}, {"id": "146", "type": "Feature", "properties": {"id": 6100552790, "ref": null, "descriptio": null, "operator": null, "wd_operato": null}, "geometry": {"type": "Point", "coordinates": [6.140574679797112, 49.668681731546464]}}, {"id": "147", "type": "Feature", "properties": {"id": 6100552792, "ref": null, "descriptio": null, "operator": null, "wd_operato": null}, "geometry": {"type": "Point", "coordinates": [6.140559592371402, 49.6686287579184]}}, {"id": "148", "type": "Feature", "properties": {"id": 6100552794, "ref": null, "descriptio": null, "operator": null, "wd_operato": null}, "geometry": {"type": "Point", "coordinates": [6.1405444211266635, 49.66857578429032]}}, {"id": "149", "type": "Feature", "properties": {"id": 6100552796, "ref": null, "descriptio": null, "operator": null, "wd_operato": null}, "geometry": {"type": "Point", "coordinates": [6.140514330094248, 49.66846975321518]}}, {"id": "150", "type": "Feature", "properties": {"id": 6100552812, "ref": null, "descriptio": null, "operator": null, "wd_operato": null}, "geometry": {"type": "Point", "coordinates": [6.140439563517958, 49.668752642447295]}}, {"id": "151", "type": "Feature", "properties": {"id": 6100552813, "ref": null, "descriptio": null, "operator": null, "wd_operato": null}, "geometry": {"type": "Point", "coordinates": [6.1404244760922495, 49.66869966881923]}}, {"id": "152", "type": "Feature", "properties": {"id": 6100552814, "ref": null, "descriptio": null, "operator": null, "wd_operato": null}, "geometry": {"type": "Point", "coordinates": [6.1404094724855725, 49.66864669519118]}}, {"id": "153", "type": "Feature", "properties": {"id": 6100552815, "ref": null, "descriptio": null, "operator": null, "wd_operato": null}, "geometry": {"type": "Point", "coordinates": [6.140394385059836, 49.6685936377441]}}, {"id": "154", "type": "Feature", "properties": {"id": 6100552816, "ref": null, "descriptio": null, "operator": null, "wd_operato": null}, "geometry": {"type": "Point", "coordinates": [6.140379297634127, 49.668540664116044]}}, {"id": "155", "type": "Feature", "properties": {"id": 6100552817, "ref": null, "descriptio": null, "operator": null, "wd_operato": null}, "geometry": {"type": "Point", "coordinates": [6.140364294027449, 49.66848752284994]}}, {"id": "156", "type": "Feature", "properties": {"id": 6100552818, "ref": null, "descriptio": null, "operator": null, "wd_operato": null}, "geometry": {"type": "Point", "coordinates": [6.140349122782709, 49.668434549221864]}}, {"id": "157", "type": "Feature", "properties": {"id": 6100552819, "ref": null, "descriptio": null, "operator": null, "wd_operato": null}, "geometry": {"type": "Point", "coordinates": [6.14066553962752, 49.66954774978233]}}, {"id": "158", "type": "Feature", "properties": {"id": 6100552821, "ref": null, "descriptio": null, "operator": null, "wd_operato": null}, "geometry": {"type": "Point", "coordinates": [6.140575182711303, 49.66922974037595]}}, {"id": "159", "type": "Feature", "properties": {"id": 6100552822, "ref": null, "descriptio": null, "operator": null, "wd_operato": null}, "geometry": {"type": "Point", "coordinates": [6.140545091678916, 49.66912379311984]}}, {"id": "160", "type": "Feature", "properties": {"id": 6100552823, "ref": null, "descriptio": null, "operator": null, "wd_operato": null}, "geometry": {"type": "Point", "coordinates": [6.140469654550344, 49.66885867352245]}}, {"id": "161", "type": "Feature", "properties": {"id": 6100552832, "ref": null, "descriptio": null, "operator": null, "wd_operato": null}, "geometry": {"type": "Point", "coordinates": [6.1406354485951065, 49.669441718707176]}}, {"id": "162", "type": "Feature", "properties": {"id": 6100552834, "ref": null, "descriptio": null, "operator": null, "wd_operato": null}, "geometry": {"type": "Point", "coordinates": [6.140605273743689, 49.669335771451095]}}, {"id": "163", "type": "Feature", "properties": {"id": 6100552835, "ref": null, "descriptio": null, "operator": null, "wd_operato": null}, "geometry": {"type": "Point", "coordinates": [6.140590270137011, 49.66928279782302]}}, {"id": "164", "type": "Feature", "properties": {"id": 6100552836, "ref": null, "descriptio": null, "operator": null, "wd_operato": null}, "geometry": {"type": "Point", "coordinates": [6.140560095285594, 49.66917676674787]}}, {"id": "165", "type": "Feature", "properties": {"id": 6100552837, "ref": null, "descriptio": null, "operator": null, "wd_operato": null}, "geometry": {"type": "Point", "coordinates": [6.140529920434176, 49.669070735672726]}}, {"id": "166", "type": "Feature", "properties": {"id": 6100552838, "ref": null, "descriptio": null, "operator": null, "wd_operato": null}, "geometry": {"type": "Point", "coordinates": [6.140514833008438, 49.66901776204468]}}, {"id": "167", "type": "Feature", "properties": {"id": 6100552839, "ref": null, "descriptio": null, "operator": null, "wd_operato": null}, "geometry": {"type": "Point", "coordinates": [6.140499829401762, 49.66896462077853]}}, {"id": "168", "type": "Feature", "properties": {"id": 6100552840, "ref": null, "descriptio": null, "operator": null, "wd_operato": null}, "geometry": {"type": "Point", "coordinates": [6.140484741976053, 49.66891164715052]}}, {"id": "169", "type": "Feature", "properties": {"id": 7443606986, "ref": null, "descriptio": null, "operator": null, "wd_operato": null}, "geometry": {"type": "Point", "coordinates": [5.939095185177961, 49.56773562178072]}}, {"id": "170", "type": "Feature", "properties": {"id": 7443606987, "ref": null, "descriptio": null, "operator": null, "wd_operato": null}, "geometry": {"type": "Point", "coordinates": [5.9392606439465965, 49.56768432453334]}}, {"id": "171", "type": "Feature", "properties": {"id": 7443606993, "ref": null, "descriptio": null, "operator": null, "wd_operato": null}, "geometry": {"type": "Point", "coordinates": [5.940338891970839, 49.56698032848579]}}, {"id": "172", "type": "Feature", "properties": {"id": 7443606994, "ref": null, "descriptio": null, "operator": null, "wd_operato": null}, "geometry": {"type": "Point", "coordinates": [5.939931280019522, 49.56710488356694]}}, {"id": "173", "type": "Feature", "properties": {"id": 7443607015, "ref": null, "descriptio": null, "operator": null, "wd_operato": null}, "geometry": {"type": "Point", "coordinates": [5.908541052634689, 49.52288196242347]}}, {"id": "174", "type": "Feature", "properties": {"id": 7443607016, "ref": null, "descriptio": null, "operator": null, "wd_operato": null}, "geometry": {"type": "Point", "coordinates": [5.908545662681433, 49.52293501987057]}}, {"id": "175", "type": "Feature", "properties": {"id": 7443607017, "ref": null, "descriptio": null, "operator": null, "wd_operato": null}, "geometry": {"type": "Point", "coordinates": [5.908746241624384, 49.5228691381116]}}, {"id": "176", "type": "Feature", "properties": {"id": 7443607020, "ref": null, "descriptio": null, "operator": null, "wd_operato": null}, "geometry": {"type": "Point", "coordinates": [5.9087535338801445, 49.52292303374902]}}, {"id": "177", "type": "Feature", "properties": {"id": 7443607027, "ref": null, "descriptio": null, "operator": null, "wd_operato": null}, "geometry": {"type": "Point", "coordinates": [5.860264224021364, 49.55544397987194]}}, {"id": "178", "type": "Feature", "properties": {"id": 7443607028, "ref": null, "descriptio": null, "operator": null, "wd_operato": null}, "geometry": {"type": "Point", "coordinates": [5.860252237899828, 49.555471221057275]}}, {"id": "179", "type": "Feature", "properties": {"id": 7443607030, "ref": null, "descriptio": null, "operator": null, "wd_operato": null}, "geometry": {"type": "Point", "coordinates": [5.860522638096199, 49.55551765680081]}}, {"id": "180", "type": "Feature", "properties": {"id": 7443607031, "ref": null, "descriptio": null, "operator": null, "wd_operato": null}, "geometry": {"type": "Point", "coordinates": [5.860343516825395, 49.555491756720045]}}, {"id": "181", "type": "Feature", "properties": {"id": 7443607032, "ref": null, "descriptio": null, "operator": null, "wd_operato": null}, "geometry": {"type": "Point", "coordinates": [5.860424486010032, 49.555297296566415]}}, {"id": "182", "type": "Feature", "properties": {"id": 7443607033, "ref": null, "descriptio": null, "operator": null, "wd_operato": null}, "geometry": {"type": "Point", "coordinates": [5.860600338338627, 49.555330824179094]}}, {"id": "183", "type": "Feature", "properties": {"id": 7443607034, "ref": null, "descriptio": null, "operator": null, "wd_operato": null}, "geometry": {"type": "Point", "coordinates": [5.86035692787047, 49.55545948639282]}}, {"id": "184", "type": "Feature", "properties": {"id": 7443607035, "ref": null, "descriptio": null, "operator": null, "wd_operato": null}, "geometry": {"type": "Point", "coordinates": [5.860534540398703, 49.555488990691984]}}, {"id": "185", "type": "Feature", "properties": {"id": 7443607036, "ref": null, "descriptio": null, "operator": null, "wd_operato": null}, "geometry": {"type": "Point", "coordinates": [5.860415265916544, 49.55531934097174]}}, {"id": "186", "type": "Feature", "properties": {"id": 7443607037, "ref": null, "descriptio": null, "operator": null, "wd_operato": null}, "geometry": {"type": "Point", "coordinates": [5.860592291711583, 49.55535027019449]}}, {"id": "187", "type": "Feature", "properties": {"id": 7443607047, "ref": null, "descriptio": null, "operator": null, "wd_operato": null}, "geometry": {"type": "Point", "coordinates": [5.925797547250255, 49.53354852094501]}}, {"id": "188", "type": "Feature", "properties": {"id": 7443607048, "ref": null, "descriptio": null, "operator": null, "wd_operato": null}, "geometry": {"type": "Point", "coordinates": [5.925621359645561, 49.53357425338775]}}, {"id": "189", "type": "Feature", "properties": {"id": 7443607049, "ref": null, "descriptio": null, "operator": null, "wd_operato": null}, "geometry": {"type": "Point", "coordinates": [5.925850939973485, 49.53369587480278]}}, {"id": "190", "type": "Feature", "properties": {"id": 7443607050, "ref": null, "descriptio": null, "operator": null, "wd_operato": null}, "geometry": {"type": "Point", "coordinates": [5.925670729055241, 49.53372009850295]}}, {"id": "191", "type": "Feature", "properties": {"id": 7443688967, "ref": null, "descriptio": null, "operator": null, "wd_operato": null}, "geometry": {"type": "Point", "coordinates": [6.2249702188325395, 49.52941775142302]}}, {"id": "192", "type": "Feature", "properties": {"id": 7443688968, "ref": null, "descriptio": null, "operator": null, "wd_operato": null}, "geometry": {"type": "Point", "coordinates": [6.225010787243889, 49.52931716858496]}}, {"id": "193", "type": "Feature", "properties": {"id": 7443692532, "ref": null, "descriptio": null, "operator": null, "wd_operato": null}, "geometry": {"type": "Point", "coordinates": [5.951158420225283, 49.5388431177226]}}, {"id": "194", "type": "Feature", "properties": {"id": 7443692533, "ref": null, "descriptio": null, "operator": null, "wd_operato": null}, "geometry": {"type": "Point", "coordinates": [5.9509128304623, 49.5389183872131]}}, {"id": "195", "type": "Feature", "properties": {"id": 7443692534, "ref": null, "descriptio": null, "operator": null, "wd_operato": null}, "geometry": {"type": "Point", "coordinates": [5.950976030012214, 49.53895845271027]}}, {"id": "196", "type": "Feature", "properties": {"id": 7448586364, "ref": null, "descriptio": null, "operator": null, "wd_operato": null}, "geometry": {"type": "Point", "coordinates": [5.949156570290342, 49.509597064988604]}}, {"id": "197", "type": "Feature", "properties": {"id": 7448586365, "ref": null, "descriptio": null, "operator": null, "wd_operato": null}, "geometry": {"type": "Point", "coordinates": [5.949180291076316, 49.50950159511148]}}, {"id": "198", "type": "Feature", "properties": {"id": 7544442412, "ref": null, "descriptio": null, "operator": null, "wd_operato": null}, "geometry": {"type": "Point", "coordinates": [6.215807960473569, 49.64385235505167]}}, {"id": "199", "type": "Feature", "properties": {"id": 7544442413, "ref": null, "descriptio": null, "operator": null, "wd_operato": null}, "geometry": {"type": "Point", "coordinates": [6.2158529712936, 49.643800135794926]}}, {"id": "200", "type": "Feature", "properties": {"id": 7544442414, "ref": null, "descriptio": null, "operator": null, "wd_operato": null}, "geometry": {"type": "Point", "coordinates": [6.21587786554602, 49.643810194078725]}}, {"id": "201", "type": "Feature", "properties": {"id": 7544442415, "ref": null, "descriptio": null, "operator": null, "wd_operato": null}, "geometry": {"type": "Point", "coordinates": [6.215830172516974, 49.64386082077387]}}, {"id": "202", "type": "Feature", "properties": {"id": 7544442416, "ref": null, "descriptio": null, "operator": null, "wd_operato": null}, "geometry": {"type": "Point", "coordinates": [6.215907118388088, 49.643821844924126]}}, {"id": "203", "type": "Feature", "properties": {"id": 7544442417, "ref": null, "descriptio": null, "operator": null, "wd_operato": null}, "geometry": {"type": "Point", "coordinates": [6.215861437015804, 49.64387289071445]}}, {"id": "204", "type": "Feature", "properties": {"id": 7544442420, "ref": null, "descriptio": null, "operator": null, "wd_operato": null}, "geometry": {"type": "Point", "coordinates": [6.216066039272278, 49.64388496065504]}}, {"id": "205", "type": "Feature", "properties": {"id": 7544442421, "ref": null, "descriptio": null, "operator": null, "wd_operato": null}, "geometry": {"type": "Point", "coordinates": [6.216021699004472, 49.643933827150526]}}, {"id": "206", "type": "Feature", "properties": {"id": 7544442422, "ref": null, "descriptio": null, "operator": null, "wd_operato": null}, "geometry": {"type": "Point", "coordinates": [6.216093029000491, 49.6438956894911]}}, {"id": "207", "type": "Feature", "properties": {"id": 7544442423, "ref": null, "descriptio": null, "operator": null, "wd_operato": null}, "geometry": {"type": "Point", "coordinates": [6.216050365113348, 49.64394463980563]}}, {"id": "208", "type": "Feature", "properties": {"id": 7678488174, "ref": null, "descriptio": null, "operator": null, "wd_operato": null}, "geometry": {"type": "Point", "coordinates": [6.135356023062258, 49.57433687344406]}}, {"id": "209", "type": "Feature", "properties": {"id": 7678488175, "ref": null, "descriptio": null, "operator": null, "wd_operato": null}, "geometry": {"type": "Point", "coordinates": [6.135395418007165, 49.57433595143471]}}, {"id": "210", "type": "Feature", "properties": {"id": 7678488179, "ref": null, "descriptio": null, "operator": null, "wd_operato": null}, "geometry": {"type": "Point", "coordinates": [6.135583256457295, 49.57450526587881]}}, {"id": "211", "type": "Feature", "properties": {"id": 7678488180, "ref": null, "descriptio": null, "operator": null, "wd_operato": null}, "geometry": {"type": "Point", "coordinates": [6.135644192893353, 49.574503589498185]}}, {"id": "212", "type": "Feature", "properties": {"id": 7678488184, "ref": null, "descriptio": null, "operator": null, "wd_operato": null}, "geometry": {"type": "Point", "coordinates": [6.135389466855912, 49.57424919873689]}}, {"id": "213", "type": "Feature", "properties": {"id": 7678492585, "ref": null, "descriptio": null, "operator": null, "wd_operato": null}, "geometry": {"type": "Point", "coordinates": [6.135349820453911, 49.57424986928913]}}, {"id": "214", "type": "Feature", "properties": {"id": 7678492586, "ref": null, "descriptio": null, "operator": null, "wd_operato": null}, "geometry": {"type": "Point", "coordinates": [6.135405560110001, 49.574450364413046]}}, {"id": "215", "type": "Feature", "properties": {"id": 7678492587, "ref": null, "descriptio": null, "operator": null, "wd_operato": null}, "geometry": {"type": "Point", "coordinates": [6.135364656422524, 49.57445145406047]}}, {"id": "216", "type": "Feature", "properties": {"id": 11955704222, "ref": null, "descriptio": null, "operator": null, "wd_operato": null}, "geometry": {"type": "Point", "coordinates": [6.178289220764412, 49.952817687930605]}}, {"id": "217", "type": "Feature", "properties": {"id": 11955704223, "ref": null, "descriptio": null, "operator": null, "wd_operato": null}, "geometry": {"type": "Point", "coordinates": [6.1779704569867135, 49.9529698194732]}}, {"id": "218", "type": "Feature", "properties": {"id": 11955704224, "ref": null, "descriptio": null, "operator": null, "wd_operato": null}, "geometry": {"type": "Point", "coordinates": [6.17753459802168, 49.95326402427455]}}, {"id": "219", "type": "Feature", "properties": {"id": 12160880579, "ref": null, "descriptio": null, "operator": null, "wd_operato": null}, "geometry": {"type": "Point", "coordinates": [6.110481384290325, 49.49545888981068]}}, {"id": "220", "type": "Feature", "properties": {"id": 12160880580, "ref": null, "descriptio": null, "operator": null, "wd_operato": null}, "geometry": {"type": "Point", "coordinates": [6.110525473101035, 49.49540532944943]}}, {"id": "221", "type": "Feature", "properties": {"id": 12160880581, "ref": null, "descriptio": null, "operator": null, "wd_operato": null}, "geometry": {"type": "Point", "coordinates": [6.1106006587724835, 49.495298879279105]}}, {"id": "222", "type": "Feature", "properties": {"id": 12160880582, "ref": null, "descriptio": null, "operator": null, "wd_operato": null}, "geometry": {"type": "Point", "coordinates": [6.110639383165165, 49.49524749821262]}}, {"id": "223", "type": "Feature", "properties": {"id": 12160880583, "ref": null, "descriptio": null, "operator": null, "wd_operato": null}, "geometry": {"type": "Point", "coordinates": [6.1104488625060185, 49.49544899916495]}}, {"id": "224", "type": "Feature", "properties": {"id": 12160880584, "ref": null, "descriptio": null, "operator": null, "wd_operato": null}, "geometry": {"type": "Point", "coordinates": [6.11049202930738, 49.49539552262269]}}, {"id": "225", "type": "Feature", "properties": {"id": 12160880585, "ref": null, "descriptio": null, "operator": null, "wd_operato": null}, "geometry": {"type": "Point", "coordinates": [6.110557156695023, 49.49528588732919]}}, {"id": "226", "type": "Feature", "properties": {"id": 12160880586, "ref": null, "descriptio": null, "operator": null, "wd_operato": null}, "geometry": {"type": "Point", "coordinates": [6.110602335153118, 49.495235847367226]}}, {"id": "227", "type": "Feature", "properties": {"id": 12160880591, "ref": null, "descriptio": null, "operator": null, "wd_operato": null}, "geometry": {"type": "Point", "coordinates": [6.110378035424219, 49.49542754149283]}}, {"id": "228", "type": "Feature", "properties": {"id": 12160880592, "ref": null, "descriptio": null, "operator": null, "wd_operato": null}, "geometry": {"type": "Point", "coordinates": [6.110466632140741, 49.49532268388411]}}, {"id": "229", "type": "Feature", "properties": {"id": 12160880593, "ref": null, "descriptio": null, "operator": null, "wd_operato": null}, "geometry": {"type": "Point", "coordinates": [6.110453472552763, 49.49518823815722]}}, {"id": "230", "type": "Feature", "properties": {"id": 12160880594, "ref": null, "descriptio": null, "operator": null, "wd_operato": null}, "geometry": {"type": "Point", "coordinates": [6.110411060122714, 49.49524238525172]}}, {"id": "231", "type": "Feature", "properties": {"id": 12160880595, "ref": null, "descriptio": null, "operator": null, "wd_operato": null}, "geometry": {"type": "Point", "coordinates": [6.110374766481981, 49.49529175466142]}}, {"id": "232", "type": "Feature", "properties": {"id": 12160880596, "ref": null, "descriptio": null, "operator": null, "wd_operato": null}, "geometry": {"type": "Point", "coordinates": [6.110335455356079, 49.49534933833622]}}, {"id": "233", "type": "Feature", "properties": {"id": 12160880597, "ref": null, "descriptio": null, "operator": null, "wd_operato": null}, "geometry": {"type": "Point", "coordinates": [6.110433439804183, 49.49537825590215]}}, {"id": "234", "type": "Feature", "properties": {"id": 12160880598, "ref": null, "descriptio": null, "operator": null, "wd_operato": null}, "geometry": {"type": "Point", "coordinates": [6.110297317696649, 49.49540323397361]}}, {"id": "235", "type": "Feature", "properties": {"id": 12854181485, "ref": null, "descriptio": null, "operator": null, "wd_operato": null}, "geometry": {"type": "Point", "coordinates": [6.007829138133644, 50.12676765976668]}}, {"id": "236", "type": "Feature", "properties": {"id": 12854181486, "ref": null, "descriptio": null, "operator": null, "wd_operato": null}, "geometry": {"type": "Point", "coordinates": [6.007791838664532, 50.126792973114256]}}, {"id": "237", "type": "Feature", "properties": {"id": 12854181489, "ref": null, "descriptio": null, "operator": null, "wd_operato": null}, "geometry": {"type": "Point", "coordinates": [6.007513056564989, 50.1268023608458]}}, {"id": "238", "type": "Feature", "properties": {"id": 12854181490, "ref": null, "descriptio": null, "operator": null, "wd_operato": null}, "geometry": {"type": "Point", "coordinates": [6.007477265838446, 50.12682566253662]}}, {"id": "239", "type": "Feature", "properties": {"id": 12854181491, "ref": null, "descriptio": null, "operator": null, "wd_operato": null}, "geometry": {"type": "Point", "coordinates": [6.007644317168683, 50.126889616457845]}}, {"id": "240", "type": "Feature", "properties": {"id": 12854181492, "ref": null, "descriptio": null, "operator": null, "wd_operato": null}, "geometry": {"type": "Point", "coordinates": [6.00761288503179, 50.126909565387386]}}, {"id": "241", "type": "Feature", "properties": {"id": 12854181493, "ref": null, "descriptio": null, "operator": null, "wd_operato": null}, "geometry": {"type": "Point", "coordinates": [6.00768522085616, 50.12680705471157]}}, {"id": "242", "type": "Feature", "properties": {"id": 12854181494, "ref": null, "descriptio": null, "operator": null, "wd_operato": null}, "geometry": {"type": "Point", "coordinates": [6.0076486757583325, 50.126782831011404]}}, {"id": "243", "type": "Feature", "properties": {"id": 12854187325, "ref": null, "descriptio": null, "operator": null, "wd_operato": null}, "geometry": {"type": "Point", "coordinates": [6.075688858588365, 50.04425352271759]}}, {"id": "244", "type": "Feature", "properties": {"id": 12854187326, "ref": null, "descriptio": null, "operator": null, "wd_operato": null}, "geometry": {"type": "Point", "coordinates": [6.075710232441452, 50.044214043953595]}}, {"id": "245", "type": "Feature", "properties": {"id": 12854187327, "ref": null, "descriptio": null, "operator": null, "wd_operato": null}, "geometry": {"type": "Point", "coordinates": [6.076027152200453, 50.04427598621807]}}, {"id": "246", "type": "Feature", "properties": {"id": 12854187328, "ref": null, "descriptio": null, "operator": null, "wd_operato": null}, "geometry": {"type": "Point", "coordinates": [6.07607979055237, 50.044287469425406]}}, {"id": "247", "type": "Feature", "properties": {"id": 12854187329, "ref": null, "descriptio": null, "operator": null, "wd_operato": null}, "geometry": {"type": "Point", "coordinates": [6.07650324430071, 50.044296018966634]}}, {"id": "248", "type": "Feature", "properties": {"id": 12854187330, "ref": null, "descriptio": null, "operator": null, "wd_operato": null}, "geometry": {"type": "Point", "coordinates": [6.076484468837605, 50.04432845693192]}}, {"id": "249", "type": "Feature", "properties": {"id": 12854187331, "ref": null, "descriptio": null, "operator": null, "wd_operato": null}, "geometry": {"type": "Point", "coordinates": [6.076510955651628, 50.044277159684505]}}, {"id": "250", "type": "Feature", "properties": {"id": 12854187335, "ref": null, "descriptio": null, "operator": null, "wd_operato": null}, "geometry": {"type": "Point", "coordinates": [6.076099990939013, 50.04435519520307]}}, {"id": "251", "type": "Feature", "properties": {"id": 12854187336, "ref": null, "descriptio": null, "operator": null, "wd_operato": null}, "geometry": {"type": "Point", "coordinates": [6.076126477753064, 50.04430549051724]}}, {"id": "252", "type": "Feature", "properties": {"id": 12854187338, "ref": null, "descriptio": null, "operator": null, "wd_operato": null}, "geometry": {"type": "Point", "coordinates": [6.076186240722676, 50.04436994735265]}}, {"id": "253", "type": "Feature", "properties": {"id": 12854187339, "ref": null, "descriptio": null, "operator": null, "wd_operato": null}, "geometry": {"type": "Point", "coordinates": [6.076214823012492, 50.044321919047455]}}, {"id": "254", "type": "Feature", "properties": {"id": 12854187344, "ref": null, "descriptio": null, "operator": null, "wd_operato": null}, "geometry": {"type": "Point", "coordinates": [6.075874098648512, 50.044258384221415]}}, {"id": "255", "type": "Feature", "properties": {"id": 12854187345, "ref": null, "descriptio": null, "operator": null, "wd_operato": null}, "geometry": {"type": "Point", "coordinates": [6.075866387297566, 50.04427514802775]}}, {"id": "256", "type": "Feature", "properties": {"id": 12854187347, "ref": null, "descriptio": null, "operator": null, "wd_operato": null}, "geometry": {"type": "Point", "coordinates": [6.076374917363126, 50.04437355157101]}}, {"id": "257", "type": "Feature", "properties": {"id": 12854187348, "ref": null, "descriptio": null, "operator": null, "wd_operato": null}, "geometry": {"type": "Point", "coordinates": [6.076366116364795, 50.04439207557703]}}, {"id": "258", "type": "Feature", "properties": {"id": 12860409564, "ref": null, "descriptio": null, "operator": null, "wd_operato": null}, "geometry": {"type": "Point", "coordinates": [5.904284973660282, 49.52626473090623]}}, {"id": "259", "type": "Feature", "properties": {"id": 12860409565, "ref": null, "descriptio": null, "operator": null, "wd_operato": null}, "geometry": {"type": "Point", "coordinates": [5.904181624794148, 49.526247128909574]}}, {"id": "260", "type": "Feature", "properties": {"id": 12860409566, "ref": null, "descriptio": null, "operator": null, "wd_operato": null}, "geometry": {"type": "Point", "coordinates": [5.904069055834526, 49.526228018170336]}}, {"id": "261", "type": "Feature", "properties": {"id": 12860520258, "ref": null, "descriptio": null, "operator": null, "wd_operato": null}, "geometry": {"type": "Point", "coordinates": [5.908650771747233, 49.52290266572434]}}, {"id": "262", "type": "Feature", "properties": {"id": 12860520259, "ref": null, "descriptio": null, "operator": null, "wd_operato": null}, "geometry": {"type": "Point", "coordinates": [5.90859251752019, 49.52293275675671]}}, {"id": "263", "type": "Feature", "properties": {"id": 12860520260, "ref": null, "descriptio": null, "operator": null, "wd_operato": null}, "geometry": {"type": "Point", "coordinates": [5.908587991292478, 49.52287919639541]}}, {"id": "264", "type": "Feature", "properties": {"id": 12860520261, "ref": null, "descriptio": null, "operator": null, "wd_operato": null}, "geometry": {"type": "Point", "coordinates": [5.908777422304183, 49.52292169264452]}}, {"id": "265", "type": "Feature", "properties": {"id": 12860520262, "ref": null, "descriptio": null, "operator": null, "wd_operato": null}, "geometry": {"type": "Point", "coordinates": [5.908776165018708, 49.522867294092926]}}, {"id": "266", "type": "Feature", "properties": {"id": 12860609379, "ref": null, "descriptio": null, "operator": null, "wd_operato": null}, "geometry": {"type": "Point", "coordinates": [5.95184079096262, 49.4969912693489]}}, {"id": "267", "type": "Feature", "properties": {"id": 12860609380, "ref": null, "descriptio": null, "operator": null, "wd_operato": null}, "geometry": {"type": "Point", "coordinates": [5.951913462063147, 49.49713686300699]}}, {"id": "268", "type": "Feature", "properties": {"id": 12860609381, "ref": null, "descriptio": null, "operator": null, "wd_operato": null}, "geometry": {"type": "Point", "coordinates": [5.95200608209322, 49.49711825518195]}}, {"id": "269", "type": "Feature", "properties": {"id": 12860609382, "ref": null, "descriptio": null, "operator": null, "wd_operato": null}, "geometry": {"type": "Point", "coordinates": [5.951934752097203, 49.496972326247715]}}, {"id": "270", "type": "Feature", "properties": {"id": 12860609383, "ref": null, "descriptio": null, "operator": null, "wd_operato": null}, "geometry": {"type": "Point", "coordinates": [5.952213198920617, 49.49707668094218]}}, {"id": "271", "type": "Feature", "properties": {"id": 12860609384, "ref": null, "descriptio": null, "operator": null, "wd_operato": null}, "geometry": {"type": "Point", "coordinates": [5.952148742085228, 49.49692924326538]}}, {"id": "272", "type": "Feature", "properties": {"id": 12860609385, "ref": null, "descriptio": null, "operator": null, "wd_operato": null}, "geometry": {"type": "Point", "coordinates": [5.952303052922645, 49.49697852885605]}}, {"id": "273", "type": "Feature", "properties": {"id": 12860609386, "ref": null, "descriptio": null, "operator": null, "wd_operato": null}, "geometry": {"type": "Point", "coordinates": [5.952365079006142, 49.496740650444]}}, {"id": "274", "type": "Feature", "properties": {"id": 12860609387, "ref": null, "descriptio": null, "operator": null, "wd_operato": null}, "geometry": {"type": "Point", "coordinates": [5.952414951330013, 49.49687635345637]}}, {"id": "275", "type": "Feature", "properties": {"id": 12860609388, "ref": null, "descriptio": null, "operator": null, "wd_operato": null}, "geometry": {"type": "Point", "coordinates": [5.952483180021857, 49.497022030933515]}}, {"id": "276", "type": "Feature", "properties": {"id": 12860609389, "ref": null, "descriptio": null, "operator": null, "wd_operato": null}, "geometry": {"type": "Point", "coordinates": [5.952619888862614, 49.49699462211016]}}, {"id": "277", "type": "Feature", "properties": {"id": 12860609390, "ref": null, "descriptio": null, "operator": null, "wd_operato": null}, "geometry": {"type": "Point", "coordinates": [5.952555348208165, 49.49684793880462]}}, {"id": "278", "type": "Feature", "properties": {"id": 12860609391, "ref": null, "descriptio": null, "operator": null, "wd_operato": null}, "geometry": {"type": "Point", "coordinates": [5.952505140608167, 49.49670988885933]}}, {"id": "279", "type": "Feature", "properties": {"id": 12860703101, "ref": null, "descriptio": null, "operator": null, "wd_operato": null}, "geometry": {"type": "Point", "coordinates": [6.017580644285715, 49.52037652774588]}}, {"id": "280", "type": "Feature", "properties": {"id": 12860703102, "ref": null, "descriptio": null, "operator": null, "wd_operato": null}, "geometry": {"type": "Point", "coordinates": [6.017663289851015, 49.52047426073687]}}, {"id": "281", "type": "Feature", "properties": {"id": 12860703103, "ref": null, "descriptio": null, "operator": null, "wd_operato": null}, "geometry": {"type": "Point", "coordinates": [6.017698326206272, 49.52052052884241]}}, {"id": "282", "type": "Feature", "properties": {"id": 12860703104, "ref": null, "descriptio": null, "operator": null, "wd_operato": null}, "geometry": {"type": "Point", "coordinates": [6.017812739184593, 49.52066327265345]}}, {"id": "283", "type": "Feature", "properties": {"id": 12860703131, "ref": null, "descriptio": null, "operator": null, "wd_operato": null}, "geometry": {"type": "Point", "coordinates": [6.019411335757837, 49.52002733765967]}}, {"id": "284", "type": "Feature", "properties": {"id": 12860703132, "ref": null, "descriptio": null, "operator": null, "wd_operato": null}, "geometry": {"type": "Point", "coordinates": [6.0193303665732, 49.52005399211177]}}, {"id": "285", "type": "Feature", "properties": {"id": 12860703134, "ref": null, "descriptio": null, "operator": null, "wd_operato": null}, "geometry": {"type": "Point", "coordinates": [6.019499345741168, 49.52014703123698]}}, {"id": "286", "type": "Feature", "properties": {"id": 12860703136, "ref": null, "descriptio": null, "operator": null, "wd_operato": null}, "geometry": {"type": "Point", "coordinates": [6.019559946901126, 49.520277788926506]}}, {"id": "287", "type": "Feature", "properties": {"id": 12860703137, "ref": null, "descriptio": null, "operator": null, "wd_operato": null}, "geometry": {"type": "Point", "coordinates": [6.019512924424304, 49.52029388218059]}}, {"id": "288", "type": "Feature", "properties": {"id": 12860703139, "ref": null, "descriptio": null, "operator": null, "wd_operato": null}, "geometry": {"type": "Point", "coordinates": [6.019669163099479, 49.520397482503824]}}, {"id": "289", "type": "Feature", "properties": {"id": 12860703140, "ref": null, "descriptio": null, "operator": null, "wd_operato": null}, "geometry": {"type": "Point", "coordinates": [6.019611998519821, 49.520415168319516]}}, {"id": "290", "type": "Feature", "properties": {"id": 12860703141, "ref": null, "descriptio": null, "operator": null, "wd_operato": null}, "geometry": {"type": "Point", "coordinates": [6.019422148412956, 49.52017234458456]}}, {"id": "291", "type": "Feature", "properties": {"id": 12865336266, "ref": null, "descriptio": null, "operator": null, "wd_operato": null}, "geometry": {"type": "Point", "coordinates": [6.257513460817876, 49.802945990245924]}}, {"id": "292", "type": "Feature", "properties": {"id": 12865336267, "ref": null, "descriptio": null, "operator": null, "wd_operato": null}, "geometry": {"type": "Point", "coordinates": [6.25754698843059, 49.802921850364775]}}, {"id": "293", "type": "Feature", "properties": {"id": 12865336268, "ref": null, "descriptio": null, "operator": null, "wd_operato": null}, "geometry": {"type": "Point", "coordinates": [6.257449842172805, 49.8029132170045]}}, {"id": "294", "type": "Feature", "properties": {"id": 12865336269, "ref": null, "descriptio": null, "operator": null, "wd_operato": null}, "geometry": {"type": "Point", "coordinates": [6.257475155520382, 49.80289452536044]}}, {"id": "295", "type": "Feature", "properties": {"id": 12865336270, "ref": null, "descriptio": null, "operator": null, "wd_operato": null}, "geometry": {"type": "Point", "coordinates": [6.257408938485326, 49.80289209460854]}}, {"id": "296", "type": "Feature", "properties": {"id": 12865336271, "ref": null, "descriptio": null, "operator": null, "wd_operato": null}, "geometry": {"type": "Point", "coordinates": [6.257430982890668, 49.80287566607829]}}, {"id": "297", "type": "Feature", "properties": {"id": 12865336272, "ref": null, "descriptio": null, "operator": null, "wd_operato": null}, "geometry": {"type": "Point", "coordinates": [6.257570876854628, 49.80290475128231]}}, {"id": "298", "type": "Feature", "properties": {"id": 12865336273, "ref": null, "descriptio": null, "operator": null, "wd_operato": null}, "geometry": {"type": "Point", "coordinates": [6.257505078914704, 49.80287248095509]}}, {"id": "299", "type": "Feature", "properties": {"id": 12865336274, "ref": null, "descriptio": null, "operator": null, "wd_operato": null}, "geometry": {"type": "Point", "coordinates": [6.257468198540749, 49.80284792197876]}}, {"id": "300", "type": "Feature", "properties": {"id": 12865336275, "ref": null, "descriptio": null, "operator": null, "wd_operato": null}, "geometry": {"type": "Point", "coordinates": [6.257323359253917, 49.80277047319347]}}, {"id": "301", "type": "Feature", "properties": {"id": 12865336276, "ref": null, "descriptio": null, "operator": null, "wd_operato": null}, "geometry": {"type": "Point", "coordinates": [6.2572449884592345, 49.80273845432337]}}, {"id": "302", "type": "Feature", "properties": {"id": 12865336277, "ref": null, "descriptio": null, "operator": null, "wd_operato": null}, "geometry": {"type": "Point", "coordinates": [6.257202324572091, 49.80277349067862]}}, {"id": "303", "type": "Feature", "properties": {"id": 12865336278, "ref": null, "descriptio": null, "operator": null, "wd_operato": null}, "geometry": {"type": "Point", "coordinates": [6.257287484708343, 49.8027998936736]}}, {"id": "304", "type": "Feature", "properties": {"id": 12865336279, "ref": null, "descriptio": null, "operator": null, "wd_operato": null}, "geometry": {"type": "Point", "coordinates": [6.257264769750719, 49.802818333860586]}}, {"id": "305", "type": "Feature", "properties": {"id": 12865336280, "ref": null, "descriptio": null, "operator": null, "wd_operato": null}, "geometry": {"type": "Point", "coordinates": [6.257187320965413, 49.8027858958953]}}, {"id": "306", "type": "Feature", "properties": {"id": 12865336284, "ref": null, "descriptio": null, "operator": null, "wd_operato": null}, "geometry": {"type": "Point", "coordinates": [6.257622760835261, 49.802866697441914]}}, {"id": "307", "type": "Feature", "properties": {"id": 12865336290, "ref": null, "descriptio": null, "operator": null, "wd_operato": null}, "geometry": {"type": "Point", "coordinates": [6.257394186335717, 49.80270936911933]}}, {"id": "308", "type": "Feature", "properties": {"id": 12865336291, "ref": null, "descriptio": null, "operator": null, "wd_operato": null}, "geometry": {"type": "Point", "coordinates": [6.257413045617882, 49.802692772951055]}}, {"id": "309", "type": "Feature", "properties": {"id": 12865336292, "ref": null, "descriptio": null, "operator": null, "wd_operato": null}, "geometry": {"type": "Point", "coordinates": [6.257362083646569, 49.802737699952075]}}, {"id": "310", "type": "Feature", "properties": {"id": 12865336294, "ref": null, "descriptio": null, "operator": null, "wd_operato": null}, "geometry": {"type": "Point", "coordinates": [6.257416649836244, 49.802763180937696]}}, {"id": "311", "type": "Feature", "properties": {"id": 12865369944, "ref": null, "descriptio": null, "operator": null, "wd_operato": null}, "geometry": {"type": "Point", "coordinates": [6.082998883984061, 49.77580664505557]}}, {"id": "312", "type": "Feature", "properties": {"id": 12865369949, "ref": null, "descriptio": null, "operator": null, "wd_operato": null}, "geometry": {"type": "Point", "coordinates": [6.083198792374731, 49.77582298976673]}}, {"id": "313", "type": "Feature", "properties": {"id": 12865369957, "ref": null, "descriptio": null, "operator": null, "wd_operato": null}, "geometry": {"type": "Point", "coordinates": [6.083387971929369, 49.77583883156376]}}, {"id": "314", "type": "Feature", "properties": {"id": 12865369970, "ref": null, "descriptio": null, "operator": null, "wd_operato": null}, "geometry": {"type": "Point", "coordinates": [6.0833126186198285, 49.777150850867486]}}, {"id": "315", "type": "Feature", "properties": {"id": 12865369971, "ref": null, "descriptio": null, "operator": null, "wd_operato": null}, "geometry": {"type": "Point", "coordinates": [6.0833651731527425, 49.77716744703579]}}, {"id": "316", "type": "Feature", "properties": {"id": 12865369974, "ref": null, "descriptio": null, "operator": null, "wd_operato": null}, "geometry": {"type": "Point", "coordinates": [6.08320507880211, 49.77731362742713]}}, {"id": "317", "type": "Feature", "properties": {"id": 12865369975, "ref": null, "descriptio": null, "operator": null, "wd_operato": null}, "geometry": {"type": "Point", "coordinates": [6.083247994146376, 49.777326787015106]}}, {"id": "318", "type": "Feature", "properties": {"id": 12865369978, "ref": null, "descriptio": null, "operator": null, "wd_operato": null}, "geometry": {"type": "Point", "coordinates": [6.08377035435214, 49.77722603653898]}}, {"id": "319", "type": "Feature", "properties": {"id": 12865369980, "ref": null, "descriptio": null, "operator": null, "wd_operato": null}, "geometry": {"type": "Point", "coordinates": [6.083796338251972, 49.77723416698503]}}, {"id": "320", "type": "Feature", "properties": {"id": 12865369983, "ref": null, "descriptio": null, "operator": null, "wd_operato": null}, "geometry": {"type": "Point", "coordinates": [6.083813940248632, 49.7771761642151]}}, {"id": "321", "type": "Feature", "properties": {"id": 12865369984, "ref": null, "descriptio": null, "operator": null, "wd_operato": null}, "geometry": {"type": "Point", "coordinates": [6.083857945240312, 49.777187060689215]}}, {"id": "322", "type": "Feature", "properties": {"id": 12865369990, "ref": null, "descriptio": null, "operator": null, "wd_operato": null}, "geometry": {"type": "Point", "coordinates": [6.083891053757838, 49.77706803766414]}}, {"id": "323", "type": "Feature", "properties": {"id": 12865369991, "ref": null, "descriptio": null, "operator": null, "wd_operato": null}, "geometry": {"type": "Point", "coordinates": [6.083928017950825, 49.777079185595376]}}, {"id": "324", "type": "Feature", "properties": {"id": 12865369999, "ref": null, "descriptio": null, "operator": null, "wd_operato": null}, "geometry": {"type": "Point", "coordinates": [6.083996162823638, 49.77690668602804]}}, {"id": "325", "type": "Feature", "properties": {"id": 12865370000, "ref": null, "descriptio": null, "operator": null, "wd_operato": null}, "geometry": {"type": "Point", "coordinates": [6.084038491434654, 49.77691867214958]}}, {"id": "326", "type": "Feature", "properties": {"id": 12865393003, "ref": null, "descriptio": null, "operator": null, "wd_operato": null}, "geometry": {"type": "Point", "coordinates": [6.084042430929145, 49.77685589169482]}}, {"id": "327", "type": "Feature", "properties": {"id": 12865393004, "ref": null, "descriptio": null, "operator": null, "wd_operato": null}, "geometry": {"type": "Point", "coordinates": [6.08409599129044, 49.77687206876794]}}, {"id": "328", "type": "Feature", "properties": {"id": 12865393005, "ref": null, "descriptio": null, "operator": null, "wd_operato": null}, "geometry": {"type": "Point", "coordinates": [6.083843360728793, 49.77660393168543]}}, {"id": "329", "type": "Feature", "properties": {"id": 12865393015, "ref": null, "descriptio": null, "operator": null, "wd_operato": null}, "geometry": {"type": "Point", "coordinates": [6.083919133133463, 49.77649857116253]}}, {"id": "330", "type": "Feature", "properties": {"id": 12865393028, "ref": null, "descriptio": null, "operator": null, "wd_operato": null}, "geometry": {"type": "Point", "coordinates": [6.084404864422367, 49.77638566692678]}}, {"id": "331", "type": "Feature", "properties": {"id": 12865393029, "ref": null, "descriptio": null, "operator": null, "wd_operato": null}, "geometry": {"type": "Point", "coordinates": [6.084384244940566, 49.77637963195649]}}, {"id": "332", "type": "Feature", "properties": {"id": 12865415710, "ref": null, "descriptio": null, "operator": null, "wd_operato": null}, "geometry": {"type": "Point", "coordinates": [6.1333705178385, 49.64011327186498]}}, {"id": "333", "type": "Feature", "properties": {"id": 12865415711, "ref": null, "descriptio": null, "operator": null, "wd_operato": null}, "geometry": {"type": "Point", "coordinates": [6.133398261937998, 49.640111427846314]}}, {"id": "334", "type": "Feature", "properties": {"id": 12865415713, "ref": null, "descriptio": null, "operator": null, "wd_operato": null}, "geometry": {"type": "Point", "coordinates": [6.1333739544188, 49.640170855539814]}}, {"id": "335", "type": "Feature", "properties": {"id": 12865415714, "ref": null, "descriptio": null, "operator": null, "wd_operato": null}, "geometry": {"type": "Point", "coordinates": [6.1333960826431735, 49.640169765892416]}}, {"id": "336", "type": "Feature", "properties": {"id": 12865415716, "ref": null, "descriptio": null, "operator": null, "wd_operato": null}, "geometry": {"type": "Point", "coordinates": [6.133375630799435, 49.64022517027235]}}, {"id": "337", "type": "Feature", "properties": {"id": 12865415717, "ref": null, "descriptio": null, "operator": null, "wd_operato": null}, "geometry": {"type": "Point", "coordinates": [6.133401195604108, 49.64022408062496]}}, {"id": "338", "type": "Feature", "properties": {"id": 12865415719, "ref": null, "descriptio": null, "operator": null, "wd_operato": null}, "geometry": {"type": "Point", "coordinates": [6.1335930573677615, 49.64022148223496]}}, {"id": "339", "type": "Feature", "properties": {"id": 12865415722, "ref": null, "descriptio": null, "operator": null, "wd_operato": null}, "geometry": {"type": "Point", "coordinates": [6.133590878072937, 49.640163982379214]}}, {"id": "340", "type": "Feature", "properties": {"id": 12865427326, "ref": null, "descriptio": null, "operator": null, "wd_operato": null}, "geometry": {"type": "Point", "coordinates": [6.069836697611635, 49.60619246409307]}}, {"id": "341", "type": "Feature", "properties": {"id": 12865427327, "ref": null, "descriptio": null, "operator": null, "wd_operato": null}, "geometry": {"type": "Point", "coordinates": [6.069791938248698, 49.60608157151409]}}, {"id": "342", "type": "Feature", "properties": {"id": 12865427328, "ref": null, "descriptio": null, "operator": null, "wd_operato": null}, "geometry": {"type": "Point", "coordinates": [6.069862178597305, 49.60607075885899]}}, {"id": "343", "type": "Feature", "properties": {"id": 12865427329, "ref": null, "descriptio": null, "operator": null, "wd_operato": null}, "geometry": {"type": "Point", "coordinates": [6.069772995147531, 49.60602918461927]}}, {"id": "344", "type": "Feature", "properties": {"id": 12865427330, "ref": null, "descriptio": null, "operator": null, "wd_operato": null}, "geometry": {"type": "Point", "coordinates": [6.06984239730582, 49.60601795286901]}}, {"id": "345", "type": "Feature", "properties": {"id": 12865427331, "ref": null, "descriptio": null, "operator": null, "wd_operato": null}, "geometry": {"type": "Point", "coordinates": [6.069730834174578, 49.6059289370573]}}, {"id": "346", "type": "Feature", "properties": {"id": 12865427332, "ref": null, "descriptio": null, "operator": null, "wd_operato": null}, "geometry": {"type": "Point", "coordinates": [6.069799733418647, 49.605915945107384]}}, {"id": "347", "type": "Feature", "properties": {"id": 12865427333, "ref": null, "descriptio": null, "operator": null, "wd_operato": null}, "geometry": {"type": "Point", "coordinates": [6.069909536350223, 49.60618106470478]}}, {"id": "348", "type": "Feature", "properties": {"id": 12865427334, "ref": null, "descriptio": null, "operator": null, "wd_operato": null}, "geometry": {"type": "Point", "coordinates": [6.06993426296458, 49.606239486569855]}}, {"id": "349", "type": "Feature", "properties": {"id": 12865427335, "ref": null, "descriptio": null, "operator": null, "wd_operato": null}, "geometry": {"type": "Point", "coordinates": [6.069863687339876, 49.606251053596274]}}]}