{"type": "FeatureCollection", "features": [{"id": "0", "type": "Feature", "properties": {"id": 283000759, "name": null, "name_en": null, "descriptio": "Station de pompage avec bassin de r\u00e9tention de Trois Ponts", "ref": null, "wikidata": null, "operator": "Sidero", "wd_operato": null, "start_date": null}, "geometry": {"type": "Polygon", "coordinates": [[[5.887485795681869, 49.68772264952864], [5.887572296922599, 49.68791677440615], [5.888116030981479, 49.68781543719678], [5.888036235263257, 49.68762734728954], [5.887530135949646, 49.68771435144447], [5.887485795681869, 49.68772264952864]]]}}, {"id": "1", "type": "Feature", "properties": {"id": 292171365, "name": null, "name_en": null, "descriptio": null, "ref": null, "wikidata": null, "operator": null, "wd_operato": null, "start_date": null}, "geometry": {"type": "Polygon", "coordinates": [[[5.917578755912501, 49.69708406190702], [5.917748489451782, 49.697132844583486], [5.917861980420753, 49.69696797254805], [5.91769216306244, 49.69691918987157], [5.917578755912501, 49.69708406190702]]]}}, {"id": "2", "type": "Feature", "properties": {"id": 316105619, "name": null, "name_en": null, "descriptio": null, "ref": null, "wikidata": null, "operator": "Gemeinde Monnerich", "wd_operato": null, "start_date": null}, "geometry": {"type": "Polygon", "coordinates": [[[6.037943053122235, 49.537017287754324], [6.038125024240146, 49.537023658000734], [6.038137597094902, 49.53687228082941], [6.0381100206334395, 49.536871275001026], [6.03811488213728, 49.53681243404076], [6.037991668160629, 49.53680815927013], [6.037986722837758, 49.536867167868465], [6.03795554215796, 49.53686607822108], [6.037943053122235, 49.537017287754324]]]}}, {"id": "3", "type": "Feature", "properties": {"id": 361319550, "name": null, "name_en": null, "descriptio": null, "ref": null, "wikidata": null, "operator": null, "wd_operato": null, "start_date": null}, "geometry": {"type": "Polygon", "coordinates": [[[6.239431684015841, 49.588347978969885], [6.239525645150422, 49.58836792789942], [6.239552048145413, 49.58831562482365], [6.239458170829892, 49.588295675894095], [6.239431684015841, 49.588347978969885]]]}}, {"id": "4", "type": "Feature", "properties": {"id": 396128320, "name": null, "name_en": null, "descriptio": null, "ref": null, "wikidata": null, "operator": null, "wd_operato": null, "start_date": null}, "geometry": {"type": "Polygon", "coordinates": [[[5.996730324865467, 49.92478516713802], [5.996773324028767, 49.9247998354686], [5.9967934405963765, 49.92477745578713], [5.996749184147631, 49.924763541827865], [5.996730324865467, 49.92478516713802]]]}}, {"id": "5", "type": "Feature", "properties": {"id": 402112305, "name": null, "name_en": null, "descriptio": null, "ref": null, "wikidata": null, "operator": null, "wd_operato": null, "start_date": null}, "geometry": {"type": "Polygon", "coordinates": [[[6.041059025626993, 49.62533379727527], [6.041067156073069, 49.625368833630546], [6.041093056153869, 49.625399930491305], [6.041133792203312, 49.625423651277316], [6.041180060308818, 49.62543639177012], [6.0412300164517205, 49.62543899016011], [6.04127896676627, 49.62543144644727], [6.041321630653413, 49.62541434736476], [6.041354068618689, 49.62538953693137], [6.041372927900853, 49.62535936207997], [6.0413763644811525, 49.62532692411467], [6.041363875445398, 49.625295324339696], [6.041336969536218, 49.62526799933537], [6.041298077505502, 49.62524737985356], [6.041246780258064, 49.62523505845589], [6.041192130249386, 49.62523463936072], [6.0411404977258485, 49.62524637402518], [6.041098085295772, 49.62526866988762], [6.041069754463051, 49.62529909619612], [6.041059025626993, 49.62533379727527]]]}}, {"id": "6", "type": "Feature", "properties": {"id": 402112309, "name": null, "name_en": null, "descriptio": null, "ref": null, "wikidata": null, "operator": null, "wd_operato": null, "start_date": null}, "geometry": {"type": "Polygon", "coordinates": [[[6.041132870193962, 49.62556748473576], [6.04113664205039, 49.6255995874249], [6.041155752789622, 49.62562925936213], [6.041191962611322, 49.62565574617615], [6.041239823278431, 49.62567267762058], [6.041293886553917, 49.625677958219605], [6.0413473630961505, 49.62567108505899], [6.041394050296844, 49.62565272869103], [6.041428499918879, 49.625625319867666], [6.041446269553603, 49.625591959893015], [6.041445431363286, 49.62555658826165], [6.041426152985991, 49.625523479744075], [6.041394469392003, 49.62549875312971], [6.041352476057085, 49.62548157022822], [6.04130428011385, 49.62547377505828], [6.041254659247073, 49.62547595435309], [6.041208642598634, 49.62548802429367], [6.041170672577267, 49.62550889523257], [6.041144521039372, 49.62553613641787], [6.041132870193962, 49.62556748473576]]]}}, {"id": "7", "type": "Feature", "properties": {"id": 402112315, "name": null, "name_en": null, "descriptio": null, "ref": null, "wikidata": null, "operator": null, "wd_operato": null, "start_date": null}, "geometry": {"type": "Polygon", "coordinates": [[[6.040564158063631, 49.62483046398973], [6.040697849419246, 49.62494227857807], [6.040696340676676, 49.62497144760109], [6.0406714464242555, 49.62498217643714], [6.040917036187238, 49.62520303958577], [6.041204786923175, 49.625072198077255], [6.040828439470687, 49.624709596945976], [6.040564158063631, 49.62483046398973]]]}}, {"id": "8", "type": "Feature", "properties": {"id": 407666374, "name": null, "name_en": null, "descriptio": null, "ref": null, "wikidata": null, "operator": null, "wd_operato": null, "start_date": null}, "geometry": {"type": "Polygon", "coordinates": [[[6.085276163257248, 49.780220387628674], [6.085290580130732, 49.78025148448944], [6.0853205873440865, 49.78027755220829], [6.085358054451262, 49.78029414837658], [6.085401724166815, 49.78030244646074], [6.085447237901036, 49.7803015244514], [6.085490153245274, 49.78029163380563], [6.085526027790877, 49.78027369653284], [6.085551676414583, 49.78024938901364], [6.085564333088371, 49.78022114199995], [6.0855628243458, 49.78019172151981], [6.085547234005901, 49.78016406123933], [6.0855192384492796, 49.780140927186565], [6.085477077476327, 49.78012324137089], [6.085428127161805, 49.78011594911512], [6.085378254837906, 49.78011988860961], [6.085333327836906, 49.78013447312111], [6.085298962033903, 49.78015819390708], [6.085279180742418, 49.7801879496634], [6.085276163257248, 49.780220387628674]]]}}, {"id": "9", "type": "Feature", "properties": {"id": 407666375, "name": null, "name_en": null, "descriptio": null, "ref": null, "wikidata": null, "operator": null, "wd_operato": null, "start_date": null}, "geometry": {"type": "Polygon", "coordinates": [[[6.084837622083228, 49.78010857304032], [6.084840052835148, 49.78013765824435], [6.084856565184395, 49.78016473179158], [6.0848874944070985, 49.78018803348242], [6.0849285657326675, 49.78020337236521], [6.084975169114301, 49.78020898824036], [6.08502202395303, 49.78020429437458], [6.085063849649885, 49.78018962604404], [6.085095784700968, 49.780166994905436], [6.085114057249882, 49.7801386640727], [6.085116739458897, 49.78010807012614], [6.085103496051886, 49.780078649646015], [6.0850774283330225, 49.78005484504097], [6.085041050873257, 49.78003757832045], [6.08499813552899, 49.78002869350307], [6.0849530408899275, 49.7800290287792], [6.084910460821789, 49.78003858414881], [6.084874753914278, 49.78005635378355], [6.084849692023795, 49.780080493664684], [6.084837622083228, 49.78010857304032]]]}}, {"id": "10", "type": "Feature", "properties": {"id": 407666378, "name": null, "name_en": null, "descriptio": null, "ref": null, "wikidata": null, "operator": null, "wd_operato": null, "start_date": null}, "geometry": {"type": "Polygon", "coordinates": [[[6.085049181319335, 49.78024896991849], [6.0850517797093175, 49.78026967321931], [6.085064352564076, 49.78028878395856], [6.085086983702638, 49.7803049610317], [6.085116488001802, 49.780315270772576], [6.08514968033836, 49.78031862353387], [6.085182788855918, 49.78031485167743], [6.085211957878955, 49.78030403902236], [6.0852339184652635, 49.780287694311134], [6.085246323681958, 49.7802674939245], [6.085247580967434, 49.780245784795284], [6.085237522683628, 49.78022508149445], [6.0852185795824605, 49.780208233869075], [6.085192260406501, 49.78019624774754], [6.085161498821861, 49.78019038041532], [6.085129396132686, 49.780190967148556], [6.085099137462237, 49.78019825940431], [6.0850741593907856, 49.78021133517323], [6.085056892670253, 49.78022885335087], [6.085049181319335, 49.78024896991849]]]}}, {"id": "11", "type": "Feature", "properties": {"id": 407666379, "name": null, "name_en": null, "descriptio": null, "ref": null, "wikidata": null, "operator": null, "wd_operato": null, "start_date": null}, "geometry": {"type": "Polygon", "coordinates": [[[6.085146579034188, 49.780130952721805], [6.085148255414821, 49.780144950500095], [6.085156721137025, 49.78015794245002], [6.085171892381794, 49.78016875510511], [6.085191673673279, 49.78017579590377], [6.0852138857166835, 49.78017814283667], [6.085236097760089, 49.78017562826571], [6.085255795232541, 49.78016867128607], [6.085270631201154, 49.78015777481193], [6.085279348380482, 49.78014436376687], [6.085280521846926, 49.78012977925536], [6.08527431923855, 49.7801158652961], [6.085261830202824, 49.7801042982697], [6.085244228206164, 49.78009583254751], [6.085223357267267, 49.780091641595924], [6.0852015643190205, 49.780091893053026], [6.085180944837219, 49.78009667073785], [6.08516384575475, 49.780105387917125], [6.085151943452217, 49.78011729021962], [6.085146579034188, 49.780130952721805]]]}}, {"id": "12", "type": "Feature", "properties": {"id": 512384240, "name": null, "name_en": null, "descriptio": null, "ref": null, "wikidata": null, "operator": null, "wd_operato": null, "start_date": null}, "geometry": {"type": "Polygon", "coordinates": [[[6.238620399607696, 49.73848831665127], [6.238621, 49.7388021], [6.238620986340919, 49.73882024001694], [6.23936907119915, 49.73908284504337], [6.239872823579873, 49.7393237409406], [6.239930574892753, 49.73933681670952], [6.239997294841999, 49.739334218319556], [6.240060242934846, 49.73931074899064], [6.240098548232339, 49.73927814338729], [6.2401096961635565, 49.739242771755926], [6.240113635658048, 49.739194659631714], [6.240146073623322, 49.73918887611854], [6.240245650633029, 49.73914537404102], [6.239731756149467, 49.738841865327124], [6.239290448947372, 49.73866081621857], [6.2389891195282985, 49.738548163439916], [6.23897302627421, 49.738494351621576], [6.238620399607696, 49.73848831665127]]]}}, {"id": "13", "type": "Feature", "properties": {"id": 527532544, "name": null, "name_en": null, "descriptio": null, "ref": null, "wikidata": null, "operator": null, "wd_operato": null, "start_date": null}, "geometry": {"type": "Polygon", "coordinates": [[[6.215781976573709, 49.56047815091796], [6.215958918549716, 49.56074436016274], [6.216171232157109, 49.56068493246924], [6.215994290181101, 49.56041872322446], [6.215781976573709, 49.56047815091796]]]}}, {"id": "14", "type": "Feature", "properties": {"id": 540159069, "name": null, "name_en": null, "descriptio": null, "ref": null, "wikidata": null, "operator": null, "wd_operato": null, "start_date": null}, "geometry": {"type": "Polygon", "coordinates": [[[6.1109505, 49.67490609999999], [6.1109906, 49.6749115], [6.1109948, 49.674898100000014], [6.1110859, 49.674910399999966], [6.111081700000001, 49.674923500000006], [6.1111198, 49.67492859999999], [6.1111559, 49.6748393], [6.1109693, 49.67485089999998], [6.1109505, 49.67490609999999]]]}}, {"id": "15", "type": "Feature", "properties": {"id": 612298968, "name": null, "name_en": null, "descriptio": null, "ref": null, "wikidata": null, "operator": null, "wd_operato": null, "start_date": null}, "geometry": {"type": "Polygon", "coordinates": [[[6.219963791886016, 49.72844193514557], [6.220018441894724, 49.72847755823405], [6.220099578717423, 49.72853019658599], [6.220220026666027, 49.72845266398162], [6.22008423983462, 49.72836448636024], [6.219963791886016, 49.72844193514557]]]}}, {"id": "16", "type": "Feature", "properties": {"id": 617576248, "name": null, "name_en": null, "descriptio": null, "ref": null, "wikidata": null, "operator": null, "wd_operato": null, "start_date": null}, "geometry": {"type": "Polygon", "coordinates": [[[6.024195223175099, 49.655797991997474], [6.024344672508676, 49.65582087459315], [6.024519099913732, 49.65588851655175], [6.0248489278036175, 49.656105524024916], [6.024887819834333, 49.656096890664635], [6.024899219222648, 49.656053472406185], [6.0250065914023025, 49.65606462033744], [6.025103737660088, 49.656074762440284], [6.025303562231727, 49.6557383966659], [6.025201219193974, 49.65548828067523], [6.0249119597154674, 49.65478068040933], [6.024824787922454, 49.654616562745176], [6.024682630844638, 49.65451505789775], [6.024516333885685, 49.654470717629955], [6.024323298655589, 49.65448546977954], [6.024258841820199, 49.65460357079524], [6.024209220953396, 49.654796354568234], [6.024207879848888, 49.65504638673992], [6.024269570656259, 49.65544838281608], [6.024195223175099, 49.655797991997474]]]}}, {"id": "17", "type": "Feature", "properties": {"id": 688594332, "name": null, "name_en": null, "descriptio": null, "ref": null, "wikidata": null, "operator": null, "wd_operato": null, "start_date": null}, "geometry": {"type": "Polygon", "coordinates": [[[6.192788739788142, 49.60535653688959], [6.192860488879291, 49.605410851622175], [6.192904745328065, 49.60541512639278], [6.192938272940752, 49.60540439755672], [6.192960568803187, 49.60542686105723], [6.1929872232552725, 49.60545385078543], [6.192957048403854, 49.6054677647447], [6.193174977886373, 49.605662476355434], [6.19436059809027, 49.605199292386054], [6.194081564533633, 49.60486544118264], [6.192835762264935, 49.60533876725488], [6.192788739788142, 49.60535653688959]]]}}, {"id": "18", "type": "Feature", "properties": {"id": 690456519, "name": null, "name_en": null, "descriptio": null, "ref": null, "wikidata": null, "operator": null, "wd_operato": null, "start_date": null}, "geometry": {"type": "Polygon", "coordinates": [[[6.081354354581407, 49.91256602869169], [6.081381176671556, 49.912626462213595], [6.0814267742248385, 49.9126180803104], [6.08139995213466, 49.91255764678855], [6.081354354581407, 49.91256602869169]]]}}, {"id": "19", "type": "Feature", "properties": {"id": 762553753, "name": null, "name_en": null, "descriptio": null, "ref": null, "wikidata": null, "operator": null, "wd_operato": null, "start_date": null}, "geometry": {"type": "Polygon", "coordinates": [[[6.053680663063744, 49.686948496951544], [6.053817455723531, 49.687038267134504], [6.054197742670509, 49.687179921298174], [6.0543243932274615, 49.68703047196455], [6.0541976588514785, 49.68698353330679], [6.054160778477524, 49.68699836927542], [6.054084335520571, 49.68697054135687], [6.054087017729586, 49.68695017333218], [6.053781916454056, 49.68683785582964], [6.053680663063744, 49.686948496951544]]]}}, {"id": "20", "type": "Feature", "properties": {"id": 814913041, "name": null, "name_en": null, "descriptio": null, "ref": null, "wikidata": null, "operator": null, "wd_operato": null, "start_date": null}, "geometry": {"type": "Polygon", "coordinates": [[[5.882561762843551, 49.561069494186846], [5.882642229114026, 49.56109924994311], [5.882729820002169, 49.56113168790841], [5.882809448082327, 49.56095021970468], [5.882628985706986, 49.560915770082666], [5.882561762843551, 49.561069494186846]]]}}, {"id": "21", "type": "Feature", "properties": {"id": 828689927, "name": null, "name_en": null, "descriptio": null, "ref": null, "wikidata": null, "operator": null, "wd_operato": null, "start_date": null}, "geometry": {"type": "Polygon", "coordinates": [[[6.1268671668042325, 50.095550183406246], [6.126976550640649, 50.09564456363598], [6.126947549255674, 50.09565923196654], [6.1270909636189685, 50.095772974392624], [6.127401848407686, 50.09555185978687], [6.12737955254525, 50.095518751269346], [6.127358262511165, 50.0954900851605], [6.127394472332895, 50.095376091277345], [6.127463539215029, 50.09537684564864], [6.127527828412384, 50.09534206075045], [6.127705189483521, 50.095101919224525], [6.127488265829386, 50.09504492228297], [6.1272797240784485, 50.09523326364726], [6.127208729358556, 50.09536485952706], [6.127093226732826, 50.09543317203795], [6.1268671668042325, 50.095550183406246]]]}}, {"id": "22", "type": "Feature", "properties": {"id": 1017316952, "name": null, "name_en": null, "descriptio": null, "ref": null, "wikidata": null, "operator": null, "wd_operato": null, "start_date": null}, "geometry": {"type": "Polygon", "coordinates": [[[5.949512382080058, 49.522337893088476], [5.949614976574907, 49.52237225889149], [5.949641128112802, 49.52233931801204], [5.949538533617955, 49.52230495220903], [5.949512382080058, 49.522337893088476]]]}}, {"id": "23", "type": "Feature", "properties": {"id": 1025613317, "name": null, "name_en": null, "descriptio": null, "ref": null, "wikidata": null, "operator": null, "wd_operato": null, "start_date": null}, "geometry": {"type": "Polygon", "coordinates": [[[6.1038962258811, 49.52273444092761], [6.103917935010315, 49.522780625214125], [6.103983230036051, 49.52277517697705], [6.104237369340267, 49.52274793579172], [6.104233262207714, 49.522729244147634], [6.104223036285845, 49.52268314368023], [6.104144833129226, 49.52269035211693], [6.104130248617707, 49.522634025727584], [6.103941823434353, 49.52265137626717], [6.1038962258811, 49.52273444092761]]]}}, {"id": "24", "type": "Feature", "properties": {"id": 1026459869, "name": null, "name_en": null, "descriptio": null, "ref": null, "wikidata": null, "operator": null, "wd_operato": null, "start_date": null}, "geometry": {"type": "Polygon", "coordinates": [[[6.106308537614439, 49.52581152140166], [6.106341897589062, 49.525812527230045], [6.106344663617109, 49.525773635199315], [6.106311387461516, 49.52577254555188], [6.106308537614439, 49.52581152140166]]]}}, {"id": "25", "type": "Feature", "properties": {"id": 1026459870, "name": null, "name_en": null, "descriptio": null, "ref": null, "wikidata": null, "operator": null, "wd_operato": null, "start_date": null}, "geometry": {"type": "Polygon", "coordinates": [[[6.106178366658156, 49.525647236099424], [6.106219354164665, 49.52567447728476], [6.106243829321926, 49.52565888694485], [6.106202841815417, 49.52563164575954], [6.106178366658156, 49.525647236099424]]]}}, {"id": "26", "type": "Feature", "properties": {"id": 1027002607, "name": null, "name_en": null, "descriptio": null, "ref": null, "wikidata": null, "operator": null, "wd_operato": null, "start_date": null}, "geometry": {"type": "Polygon", "coordinates": [[[6.096807818005317, 49.5603549369413], [6.096815361718172, 49.56036625251058], [6.09682407889747, 49.56036382175866], [6.096833047533864, 49.56036139100676], [6.096825671459072, 49.56035024307552], [6.096807818005317, 49.5603549369413]]]}}, {"id": "27", "type": "Feature", "properties": {"id": 1031352737, "name": null, "name_en": null, "descriptio": null, "ref": null, "wikidata": null, "operator": null, "wd_operato": null, "start_date": null}, "geometry": {"type": "Polygon", "coordinates": [[[6.139441446488065, 49.60777664379286], [6.139464664359849, 49.607801035131104], [6.1394937495638535, 49.60778946810472], [6.139562648807954, 49.60785794825366], [6.139628362928818, 49.60783338927737], [6.139546555553834, 49.60774143979956], [6.139537586917442, 49.607744876379826], [6.139483188365858, 49.60776574731873], [6.139479248871368, 49.60776164018618], [6.139441446488065, 49.60777664379286]]]}}, {"id": "28", "type": "Feature", "properties": {"id": 1287718183, "name": null, "name_en": null, "descriptio": null, "ref": null, "wikidata": null, "operator": null, "wd_operato": null, "start_date": null}, "geometry": {"type": "Polygon", "coordinates": [[[6.271176298266852, 49.87170969895786], [6.271262883326614, 49.87171414136655], [6.271269588849152, 49.8716614191956], [6.271182919970358, 49.871656892967906], [6.271176298266852, 49.87170969895786]]]}}, {"id": "29", "type": "Feature", "properties": {"id": 1287718184, "name": null, "name_en": null, "descriptio": null, "ref": null, "wikidata": null, "operator": null, "wd_operato": null, "start_date": null}, "geometry": {"type": "Polygon", "coordinates": [[[6.269482147997422, 49.871490847466056], [6.269486087491914, 49.87156159072881], [6.269601590117644, 49.87155899233881], [6.2695976506231545, 49.87148816525699], [6.269482147997422, 49.871490847466056]]]}}, {"id": "30", "type": "Feature", "properties": {"id": 1289746322, "name": null, "name_en": null, "descriptio": null, "ref": null, "wikidata": null, "operator": null, "wd_operato": null, "start_date": null}, "geometry": {"type": "Polygon", "coordinates": [[[6.114776187657412, 49.54020928412086], [6.114825640886124, 49.54024951725608], [6.1148799556187035, 49.54026527523408], [6.114981544285172, 49.540261922472794], [6.115221769630125, 49.54017634324139], [6.115424444048841, 49.54011733464305], [6.115305756299904, 49.53993754281997], [6.115204419090559, 49.539887167581874], [6.114869226782646, 49.54003896384838], [6.114852462976303, 49.540060337701476], [6.114828323095138, 49.540107360178254], [6.1148124, 49.540138699999986], [6.1147911, 49.54018020000001], [6.114776187657412, 49.54020928412086]]]}}]}