{"type": "FeatureCollection", "features": [{"id": "0", "type": "Feature", "properties": {"id": 34959860, "type": "data_center", "name": "Verizon Luxembourg", "name_en": null, "descriptio": null, "wikidata": null, "operator": null, "wd_operato": null, "start_date": null}, "geometry": {"type": "Polygon", "coordinates": [[[6.216865756654045, 49.59523203604628], [6.216903139942218, 49.59549874820528], [6.217965797626562, 49.59543605156954], [6.217916679673948, 49.59508644238816], [6.217859263637223, 49.595057943917396], [6.2172623883122355, 49.595093147910696], [6.217278481566326, 49.59520764470807], [6.216865756654045, 49.59523203604628]]]}}, {"id": "1", "type": "Feature", "properties": {"id": 103443262, "type": "data_center", "name": "Visual Online", "name_en": null, "descriptio": null, "wikidata": null, "operator": null, "wd_operato": null, "start_date": null}, "geometry": {"type": "Polygon", "coordinates": [[[6.2232107735373745, 49.59509289645361], [6.22346332027999, 49.59516833358219], [6.223555521214905, 49.59503874935913], [6.223302974472291, 49.59496322841154], [6.2232107735373745, 49.59509289645361]]]}}, {"id": "2", "type": "Feature", "properties": {"id": 128851542, "type": "data_center", "name": "EBRC Resilience Centre Luxembourg West", "name_en": null, "descriptio": null, "wikidata": null, "operator": null, "wd_operato": null, "start_date": null}, "geometry": {"type": "Polygon", "coordinates": [[[5.957345689690868, 49.6484050695794], [5.957369075200718, 49.648926256318724], [5.958509265489425, 49.64890479864659], [5.95849769846302, 49.648645965476604], [5.958485879979548, 49.64838352808825], [5.957345689690868, 49.6484050695794]]]}}, {"id": "3", "type": "Feature", "properties": {"id": 136336823, "type": "exchange", "name": "Centre de t\u00e9l\u00e9communications", "name_en": null, "descriptio": null, "wikidata": null, "operator": "POST Luxembourg", "wd_operato": null, "start_date": null}, "geometry": {"type": "Polygon", "coordinates": [[[6.336378033406191, 49.778556579848726], [6.336422373673997, 49.7785694879796], [6.336390941537076, 49.778615336989965], [6.336547766945472, 49.77866437112352], [6.336607446096054, 49.77858247992952], [6.336554472468009, 49.778565129389946], [6.336577774158825, 49.7785346192624], [6.336583725310079, 49.778526153540206], [6.336449028126082, 49.778486590957215], [6.336429498291692, 49.77848072362499], [6.336378033406191, 49.778556579848726]]]}}, {"id": "4", "type": "Feature", "properties": {"id": 162870888, "type": "data_center", "name": "ICT Campus Bettembourg DC 1.2", "name_en": null, "descriptio": null, "wikidata": null, "operator": "LuxConnect", "wd_operato": null, "start_date": null}, "geometry": {"type": "Polygon", "coordinates": [[[6.112941556690799, 49.505485741482005], [6.113501551641803, 49.50559923245097], [6.11381335843987, 49.50495055696439], [6.113874546333051, 49.50482315203614], [6.113182033492847, 49.50468275515798], [6.1131614978300775, 49.50472558668322], [6.11312587474157, 49.50479959888823], [6.1132153934674704, 49.50481761998006], [6.113181279121562, 49.50488853088089], [6.113224362103865, 49.504897248060175], [6.113214387639091, 49.50491803518006], [6.112941556690799, 49.505485741482005]]]}}, {"id": "5", "type": "Feature", "properties": {"id": 162870889, "type": "data_center", "name": "ICT Campus Bettembourg DC 1.1", "name_en": null, "descriptio": null, "wikidata": null, "operator": "LuxConnect", "wd_operato": null, "start_date": null}, "geometry": {"type": "Polygon", "coordinates": [[[6.11161503669456, 49.50518692663388], [6.112124153493311, 49.505294047356436], [6.112165392456916, 49.50530242925961], [6.11265497942128, 49.50540502375446], [6.112912555305825, 49.50485676346787], [6.112930576397645, 49.50481795525617], [6.112537297500722, 49.50473757280474], [6.112552636383555, 49.504717875332275], [6.112319954751456, 49.50467051757935], [6.112309896467651, 49.50468845485214], [6.111904128535002, 49.504606898934256], [6.11161503669456, 49.50518692663388]]]}}, {"id": "6", "type": "Feature", "properties": {"id": 163871453, "type": "exchange", "name": "Centre de t\u00e9l\u00e9communications", "name_en": null, "descriptio": null, "wikidata": null, "operator": "POST Luxembourg", "wd_operato": null, "start_date": null}, "geometry": {"type": "Polygon", "coordinates": [[[6.102834574025138, 49.606702921996344], [6.103128275912326, 49.60680618704343], [6.103367830705026, 49.60652463891586], [6.103065579276603, 49.60642162532583], [6.102834574025138, 49.606702921996344]]]}}, {"id": "7", "type": "Feature", "properties": {"id": 166476032, "type": "data_center", "name": "EBRC Resilience Centre Luxembourg South", "name_en": null, "descriptio": null, "wikidata": null, "operator": null, "wd_operato": null, "start_date": null}, "geometry": {"type": "Polygon", "coordinates": [[[6.051376142605193, 49.497459063364985], [6.05211098405644, 49.498095920368115], [6.052977253749418, 49.49767447827653], [6.05224249611723, 49.49703745363535], [6.051376142605193, 49.497459063364985]]]}}, {"id": "8", "type": "Feature", "properties": {"id": 174875462, "type": "exchange", "name": "Centre de t\u00e9l\u00e9communications", "name_en": null, "descriptio": null, "wikidata": null, "operator": "POST Luxembourg", "wd_operato": null, "start_date": null}, "geometry": {"type": "Polygon", "coordinates": [[[6.039778187003038, 49.47551918035123], [6.039839291077186, 49.475619930827364], [6.040160317968713, 49.47553762053821], [6.040007432054836, 49.4752856605288], [6.03983116063111, 49.47533075516788], [6.039922942470837, 49.475482048520135], [6.039778187003038, 49.47551918035123]]]}}, {"id": "9", "type": "Feature", "properties": {"id": 205663472, "type": "exchange", "name": null, "name_en": null, "descriptio": null, "wikidata": null, "operator": "Post", "wd_operato": null, "start_date": null}, "geometry": {"type": "Polygon", "coordinates": [[[6.158561992550375, 49.618230972526035], [6.158622174615175, 49.61832392783225], [6.158709094951065, 49.61830037468431], [6.158648829067261, 49.618207335559106], [6.158561992550375, 49.618230972526035]]]}}, {"id": "10", "type": "Feature", "properties": {"id": 218247529, "type": "data_center", "name": "EBRC Resilience Centre Luxembourg East", "name_en": null, "descriptio": null, "wikidata": null, "operator": null, "wd_operato": null, "start_date": null}, "geometry": {"type": "Polygon", "coordinates": [[[6.323852955494004, 49.69385828647067], [6.32404297323896, 49.6943755337155], [6.325453479905008, 49.69415877769944], [6.325263462160052, 49.69364144663558], [6.323852955494004, 49.69385828647067]]]}}, {"id": "11", "type": "Feature", "properties": {"id": 275569928, "type": "data_center", "name": "ICT Campus Bettembourg DC 1.3", "name_en": null, "descriptio": null, "wikidata": null, "operator": "LuxConnect", "wd_operato": null, "start_date": null}, "geometry": {"type": "Polygon", "coordinates": [[[6.111271378664441, 49.50584758824199], [6.113187146453782, 49.506237430558585], [6.113248921080156, 49.506109438897134], [6.1131941872524465, 49.5060982909659], [6.11328772929187, 49.50590424990746], [6.113342546938612, 49.505915397838685], [6.113408847792726, 49.50577801844569], [6.112067575646904, 49.505505019859285], [6.112026336683272, 49.50549672177515], [6.111493080003385, 49.50538825994809], [6.1114264438731425, 49.5055263937124], [6.111453768877482, 49.50553184194947], [6.111345139412379, 49.50575706368771], [6.111317730588979, 49.50575144781259], [6.111271378664441, 49.50584758824199]]]}}, {"id": "12", "type": "Feature", "properties": {"id": 322916925, "type": "exchange", "name": "POP 171", "name_en": null, "descriptio": null, "wikidata": null, "operator": null, "wd_operato": null, "start_date": null}, "geometry": {"type": "Polygon", "coordinates": [[[6.3854950639936305, 49.69918842251773], [6.38581039119103, 49.69920828762827], [6.385818940732265, 49.69915112304863], [6.38608322213932, 49.69916788685498], [6.386073582950671, 49.699232176052305], [6.386203670087923, 49.699240222679336], [6.386213225457539, 49.69917593348201], [6.3862436517660806, 49.69917786131977], [6.386253961506981, 49.699109129713705], [6.3858615208003755, 49.6990844869184], [6.38582849610188, 49.69908239144261], [6.385833692881846, 49.699047522725415], [6.385519120055762, 49.69902782525296], [6.3854950639936305, 49.69918842251773]]]}}, {"id": "13", "type": "Feature", "properties": {"id": 361292083, "type": "exchange", "name": null, "name_en": null, "descriptio": null, "wikidata": null, "operator": null, "wd_operato": null, "start_date": null}, "geometry": {"type": "Polygon", "coordinates": [[[5.811528067114126, 49.84099463387369], [5.81155908015586, 49.841073759039645], [5.81181523111684, 49.84103193334284], [5.811784218075105, 49.84095289199588], [5.811528067114126, 49.84099463387369]]]}}, {"id": "14", "type": "Feature", "properties": {"id": 401425977, "type": "exchange", "name": "POP 155 / CT 55", "name_en": null, "descriptio": null, "wikidata": null, "operator": null, "wd_operato": null, "start_date": null}, "geometry": {"type": "Polygon", "coordinates": [[[5.976312763106081, 49.505256664068256], [5.976315948229284, 49.505340483100014], [5.97635676809776, 49.50533989636678], [5.9763642279915805, 49.50553754164363], [5.976482329007297, 49.50553569762492], [5.97647763514152, 49.505412818924405], [5.976546031471401, 49.50541172927698], [5.976544019814639, 49.505358420372794], [5.97666924544805, 49.50535649253508], [5.976670167457399, 49.505379375130744], [5.97670922712618, 49.5053787883975], [5.976711741697131, 49.5054450892516], [5.97715765894597, 49.505437880814895], [5.977151540156655, 49.50527719973105], [5.976726661484804, 49.50528398907263], [5.9767282540464075, 49.50532631768364], [5.97663353854054, 49.50532782642623], [5.97663261653119, 49.50530335126896], [5.976582157474069, 49.505304189459274], [5.976583079483419, 49.505326988235915], [5.976541840519815, 49.505327574969115], [5.976540918510466, 49.50530477619249], [5.976491046186595, 49.505305530563774], [5.976489034529834, 49.50525389804023], [5.976312763106081, 49.505256664068256]]]}}, {"id": "15", "type": "Feature", "properties": {"id": 570961967, "type": "exchange", "name": "POP 136 / CT 36", "name_en": null, "descriptio": null, "wikidata": null, "operator": null, "wd_operato": null, "start_date": null}, "geometry": {"type": "Polygon", "coordinates": [[[6.1625165, 49.564829], [6.1626966, 49.56487509999998], [6.1627851, 49.56472969999998], [6.1626333, 49.564690900000016], [6.1625979, 49.56474900000002], [6.1625925, 49.564757899999975], [6.162564199999999, 49.56475059999998], [6.1625165, 49.564829]]]}}, {"id": "16", "type": "Feature", "properties": {"id": 726990479, "type": "exchange", "name": "Centre de t\u00e9l\u00e9communications", "name_en": null, "descriptio": null, "wikidata": null, "operator": null, "wd_operato": null, "start_date": null}, "geometry": {"type": "Polygon", "coordinates": [[[6.100005094970867, 49.84600231810568], [6.100367947559248, 49.84595035030603], [6.100320841263397, 49.8458380328035], [6.10029267806874, 49.845770977578105], [6.100304580371244, 49.84576703808361], [6.100259821008308, 49.845639130241175], [6.100051530714438, 49.845670646197114], [6.100114143531129, 49.84584213993605], [6.100010459388899, 49.84585798173304], [6.100005094970867, 49.84600231810568]]]}}, {"id": "17", "type": "Feature", "properties": {"id": 727193506, "type": "exchange", "name": "Centre de t\u00e9l\u00e9communications", "name_en": null, "descriptio": null, "wikidata": null, "operator": null, "wd_operato": null, "start_date": null}, "geometry": {"type": "Polygon", "coordinates": [[[6.302333424924399, 49.666701842197845], [6.30240492255848, 49.66670377003557], [6.3025225206600055, 49.66670594933039], [6.302530651106082, 49.66660008589332], [6.302363851232911, 49.66659488911334], [6.302363096861626, 49.666629590192464], [6.3023355204001925, 49.66664828183657], [6.302365359975482, 49.666670829156075], [6.302335185124065, 49.66667015860383], [6.302333424924399, 49.666701842197845]]]}}, {"id": "18", "type": "Feature", "properties": {"id": 834727625, "type": "data_center", "name": null, "name_en": null, "descriptio": null, "wikidata": null, "operator": null, "wd_operato": null, "start_date": null}, "geometry": {"type": "Polygon", "coordinates": [[[6.088618195690599, 49.7880955209363], [6.08968948673521, 49.788332644977075], [6.090365822502292, 49.787185078613604], [6.090392728411473, 49.78690109973409], [6.0902693467967595, 49.78658241977543], [6.089432497583914, 49.7866222338155], [6.088618195690599, 49.7880955209363]]]}}, {"id": "19", "type": "Feature", "properties": {"id": 884129623, "type": "exchange", "name": null, "name_en": null, "descriptio": null, "wikidata": null, "operator": null, "wd_operato": null, "start_date": null}, "geometry": {"type": "Polygon", "coordinates": [[[6.130911937999656, 49.599277477793976], [6.131005060943921, 49.599449893542236], [6.131132046776997, 49.599683245726574], [6.131504119458867, 49.59959221825811], [6.131371433931633, 49.599333049811996], [6.131304294887201, 49.59920304649377], [6.131293146955984, 49.599181421183594], [6.130911937999656, 49.599277477793976]]]}}, {"id": "20", "type": "Feature", "properties": {"id": 904662713, "type": "exchange", "name": "POP 281", "name_en": null, "descriptio": null, "wikidata": null, "operator": null, "wd_operato": null, "start_date": null}, "geometry": {"type": "Polygon", "coordinates": [[[6.092445791774793, 49.84732917337803], [6.09245291639249, 49.8473741841981], [6.092716191971164, 49.84735666602046], [6.092708983534436, 49.84731165520043], [6.092445791774793, 49.84732917337803]]]}}, {"id": "21", "type": "Feature", "properties": {"id": 987761689, "type": "exchange", "name": "POP 275", "name_en": null, "descriptio": null, "wikidata": null, "operator": "POST Luxembourg", "wd_operato": null, "start_date": null}, "geometry": {"type": "Polygon", "coordinates": [[[6.446575333523555, 49.67971214848475], [6.446616823944254, 49.67977375547306], [6.446682621884178, 49.67975724312381], [6.446642388748926, 49.67969303774549], [6.446575333523555, 49.67971214848475]]]}}, {"id": "22", "type": "Feature", "properties": {"id": 1313142832, "type": "exchange", "name": null, "name_en": null, "descriptio": null, "wikidata": null, "operator": null, "wd_operato": null, "start_date": null}, "geometry": {"type": "Polygon", "coordinates": [[[5.922577220051011, 50.104699617453385], [5.9226388270393215, 50.10471822527842], [5.922695572523821, 50.104656785928164], [5.922638575582226, 50.10463943538858], [5.922625667451342, 50.104635579713126], [5.922577220051011, 50.104699617453385]]]}}]}