{"type": "FeatureCollection", "features": [{"id": "0", "type": "Feature", "properties": {"id": 387313808, "ref": null, "descriptio": null, "operator": "Creos", "wd_operato": "Q21036415", "transforme": "main", "v_primary": 65000.0, "v_secondar": null, "v_tertiary": null, "rating": null}, "geometry": {"type": "Point", "coordinates": [5.938670222687051, 49.56728467539001]}}, {"id": "1", "type": "Feature", "properties": {"id": 1067015725, "ref": null, "descriptio": null, "operator": null, "wd_operato": null, "transforme": null, "v_primary": 220000.0, "v_secondar": 65000.0, "v_tertiary": null, "rating": null}, "geometry": {"type": "Point", "coordinates": [6.083473467341747, 49.77634878655284]}}, {"id": "2", "type": "Feature", "properties": {"id": 1067018561, "ref": null, "descriptio": null, "operator": null, "wd_operato": null, "transforme": null, "v_primary": 220000.0, "v_secondar": 65000.0, "v_tertiary": null, "rating": null}, "geometry": {"type": "Point", "coordinates": [6.0833933363474, 49.77647443128138]}}, {"id": "3", "type": "Feature", "properties": {"id": 1069296327, "ref": null, "descriptio": null, "operator": null, "wd_operato": null, "transforme": null, "v_primary": 220000.0, "v_secondar": 65000.0, "v_tertiary": null, "rating": null}, "geometry": {"type": "Point", "coordinates": [6.140034885232723, 49.6692462527252]}}, {"id": "4", "type": "Feature", "properties": {"id": 1069296488, "ref": null, "descriptio": null, "operator": null, "wd_operato": null, "transforme": null, "v_primary": null, "v_secondar": null, "v_tertiary": null, "rating": null}, "geometry": {"type": "Point", "coordinates": [6.11450914022231, 49.905232366329074]}}, {"id": "5", "type": "Feature", "properties": {"id": 1069296539, "ref": null, "descriptio": null, "operator": null, "wd_operato": null, "transforme": null, "v_primary": 220000.0, "v_secondar": 65000.0, "v_tertiary": null, "rating": null}, "geometry": {"type": "Point", "coordinates": [6.035238799701375, 49.60480232545174]}}, {"id": "6", "type": "Feature", "properties": {"id": 1069296668, "ref": null, "descriptio": null, "operator": null, "wd_operato": null, "transforme": null, "v_primary": 220000.0, "v_secondar": 65000.0, "v_tertiary": null, "rating": null}, "geometry": {"type": "Point", "coordinates": [6.139974619348918, 49.66898138458491]}}, {"id": "7", "type": "Feature", "properties": {"id": 1069296715, "ref": null, "descriptio": null, "operator": null, "wd_operato": null, "transforme": null, "v_primary": 220000.0, "v_secondar": 65000.0, "v_tertiary": null, "rating": null}, "geometry": {"type": "Point", "coordinates": [6.0352327647310915, 49.60454935961396]}}, {"id": "8", "type": "Feature", "properties": {"id": 1069296791, "ref": null, "descriptio": null, "operator": null, "wd_operato": null, "transforme": null, "v_primary": 220000.0, "v_secondar": 65000.0, "v_tertiary": null, "rating": null}, "geometry": {"type": "Point", "coordinates": [6.1399999326964965, 49.669114070112165]}}, {"id": "9", "type": "Feature", "properties": {"id": 1069296847, "ref": null, "descriptio": null, "operator": null, "wd_operato": null, "transforme": null, "v_primary": null, "v_secondar": null, "v_tertiary": null, "rating": null}, "geometry": {"type": "Point", "coordinates": [6.018457223719621, 49.520517678995326]}}, {"id": "10", "type": "Feature", "properties": {"id": 1069296873, "ref": null, "descriptio": null, "operator": null, "wd_operato": null, "transforme": null, "v_primary": null, "v_secondar": null, "v_tertiary": null, "rating": null}, "geometry": {"type": "Point", "coordinates": [6.114421884610266, 49.905106470143416]}}, {"id": "11", "type": "Feature", "properties": {"id": 1069296986, "ref": null, "descriptio": null, "operator": null, "wd_operato": null, "transforme": null, "v_primary": null, "v_secondar": null, "v_tertiary": null, "rating": null}, "geometry": {"type": "Point", "coordinates": [6.0183491809877125, 49.52038423909681]}}, {"id": "12", "type": "Feature", "properties": {"id": 1069297002, "ref": null, "descriptio": null, "operator": null, "wd_operato": null, "transforme": null, "v_primary": null, "v_secondar": null, "v_tertiary": null, "rating": null}, "geometry": {"type": "Point", "coordinates": [6.018749165407143, 49.52088254324046]}}, {"id": "13", "type": "Feature", "properties": {"id": 1303363937, "ref": null, "descriptio": null, "operator": null, "wd_operato": null, "transforme": null, "v_primary": null, "v_secondar": null, "v_tertiary": null, "rating": null}, "geometry": {"type": "Point", "coordinates": [5.860494893996702, 49.55558454438818]}}, {"id": "14", "type": "Feature", "properties": {"id": 1303363949, "ref": null, "descriptio": null, "operator": null, "wd_operato": null, "transforme": null, "v_primary": null, "v_secondar": null, "v_tertiary": null, "rating": null}, "geometry": {"type": "Point", "coordinates": [5.860317030011344, 49.55555545918416]}}, {"id": "15", "type": "Feature", "properties": {"id": 1366952824, "ref": null, "descriptio": null, "operator": null, "wd_operato": null, "transforme": null, "v_primary": null, "v_secondar": null, "v_tertiary": null, "rating": null}, "geometry": {"type": "Point", "coordinates": [6.002336393165025, 49.64159049848033]}}, {"id": "16", "type": "Feature", "properties": {"id": 1724542156, "ref": null, "descriptio": null, "operator": null, "wd_operato": null, "transforme": null, "v_primary": 65000.0, "v_secondar": null, "v_tertiary": null, "rating": null}, "geometry": {"type": "Point", "coordinates": [6.257527877691331, 49.802672153469224]}}, {"id": "17", "type": "Feature", "properties": {"id": 1724542165, "ref": null, "descriptio": null, "operator": null, "wd_operato": null, "transforme": null, "v_primary": 65000.0, "v_secondar": null, "v_tertiary": null, "rating": null}, "geometry": {"type": "Point", "coordinates": [6.257691240984201, 49.80281959114604]}}, {"id": "18", "type": "Feature", "properties": {"id": 1736852480, "ref": null, "descriptio": null, "operator": null, "wd_operato": null, "transforme": "main", "v_primary": null, "v_secondar": null, "v_tertiary": null, "rating": null}, "geometry": {"type": "Point", "coordinates": [5.952717789491686, 49.496663034020585]}}, {"id": "19", "type": "Feature", "properties": {"id": 1736852483, "ref": null, "descriptio": null, "operator": null, "wd_operato": null, "transforme": "main", "v_primary": null, "v_secondar": null, "v_tertiary": null, "rating": null}, "geometry": {"type": "Point", "coordinates": [5.952802362894687, 49.49679798266168]}}, {"id": "20", "type": "Feature", "properties": {"id": 1736852491, "ref": null, "descriptio": null, "operator": null, "wd_operato": null, "transforme": "main", "v_primary": null, "v_secondar": null, "v_tertiary": null, "rating": null}, "geometry": {"type": "Point", "coordinates": [5.952880482232274, 49.49694257049143]}}, {"id": "21", "type": "Feature", "properties": {"id": 1736852527, "ref": null, "descriptio": null, "operator": null, "wd_operato": null, "transforme": null, "v_primary": null, "v_secondar": null, "v_tertiary": null, "rating": null}, "geometry": {"type": "Point", "coordinates": [5.947868942324817, 49.509546270655385]}}, {"id": "22", "type": "Feature", "properties": {"id": 1736852530, "ref": null, "descriptio": null, "operator": null, "wd_operato": null, "transforme": null, "v_primary": null, "v_secondar": null, "v_tertiary": null, "rating": null}, "geometry": {"type": "Point", "coordinates": [5.9491262278008605, 49.50971575273754]}}, {"id": "23", "type": "Feature", "properties": {"id": 1736852535, "ref": null, "descriptio": null, "operator": null, "wd_operato": null, "transforme": null, "v_primary": null, "v_secondar": null, "v_tertiary": null, "rating": null}, "geometry": {"type": "Point", "coordinates": [5.949436944951486, 49.5097418204564]}}, {"id": "24", "type": "Feature", "properties": {"id": 1736852580, "ref": null, "descriptio": null, "operator": null, "wd_operato": null, "transforme": null, "v_primary": null, "v_secondar": null, "v_tertiary": null, "rating": null}, "geometry": {"type": "Point", "coordinates": [6.225029478887961, 49.52927081666037]}}, {"id": "25", "type": "Feature", "properties": {"id": 2041614771, "ref": null, "descriptio": null, "operator": null, "wd_operato": null, "transforme": null, "v_primary": null, "v_secondar": null, "v_tertiary": null, "rating": null}, "geometry": {"type": "Point", "coordinates": [5.983244597030591, 50.06571303886047]}}, {"id": "26", "type": "Feature", "properties": {"id": 2041614775, "ref": null, "descriptio": null, "operator": null, "wd_operato": null, "transforme": null, "v_primary": null, "v_secondar": null, "v_tertiary": null, "rating": null}, "geometry": {"type": "Point", "coordinates": [5.983214673636241, 50.06582468581075]}}, {"id": "27", "type": "Feature", "properties": {"id": 3188163383, "ref": null, "descriptio": null, "operator": null, "wd_operato": null, "transforme": null, "v_primary": null, "v_secondar": null, "v_tertiary": null, "rating": null}, "geometry": {"type": "Point", "coordinates": [5.912168572690121, 49.661299118869294]}}, {"id": "28", "type": "Feature", "properties": {"id": 3822722463, "ref": null, "descriptio": null, "operator": "Creos", "wd_operato": "Q21036415", "transforme": null, "v_primary": null, "v_secondar": null, "v_tertiary": null, "rating": null}, "geometry": {"type": "Point", "coordinates": [6.265975243528658, 49.720921356342146]}}, {"id": "29", "type": "Feature", "properties": {"id": 4460876700, "ref": null, "descriptio": null, "operator": "Creos", "wd_operato": null, "transforme": null, "v_primary": null, "v_secondar": null, "v_tertiary": null, "rating": null}, "geometry": {"type": "Point", "coordinates": [5.982901861009822, 49.7252030839403]}}, {"id": "30", "type": "Feature", "properties": {"id": 5292686380, "ref": null, "descriptio": null, "operator": null, "wd_operato": null, "transforme": null, "v_primary": null, "v_secondar": null, "v_tertiary": null, "rating": null}, "geometry": {"type": "Point", "coordinates": [6.176612672491644, 49.63699335986575]}}, {"id": "31", "type": "Feature", "properties": {"id": 5292686382, "ref": null, "descriptio": null, "operator": null, "wd_operato": null, "transforme": null, "v_primary": null, "v_secondar": null, "v_tertiary": null, "rating": null}, "geometry": {"type": "Point", "coordinates": [6.1765099941777635, 49.63698112228711]}}, {"id": "32", "type": "Feature", "properties": {"id": 5292686384, "ref": null, "descriptio": null, "operator": null, "wd_operato": null, "transforme": null, "v_primary": null, "v_secondar": null, "v_tertiary": null, "rating": null}, "geometry": {"type": "Point", "coordinates": [6.176376219003117, 49.63697676369745]}}, {"id": "33", "type": "Feature", "properties": {"id": 5292686391, "ref": null, "descriptio": null, "operator": null, "wd_operato": null, "transforme": null, "v_primary": 65000.0, "v_secondar": 20000.0, "v_tertiary": null, "rating": null}, "geometry": {"type": "Point", "coordinates": [6.140117027883832, 49.66846229332135]}}, {"id": "34", "type": "Feature", "properties": {"id": 5292686393, "ref": null, "descriptio": null, "operator": null, "wd_operato": null, "transforme": null, "v_primary": 65000.0, "v_secondar": 20000.0, "v_tertiary": null, "rating": null}, "geometry": {"type": "Point", "coordinates": [6.1402074686190815, 49.66878021890876]}}, {"id": "35", "type": "Feature", "properties": {"id": 5399173116, "ref": null, "descriptio": null, "operator": null, "wd_operato": null, "transforme": null, "v_primary": null, "v_secondar": null, "v_tertiary": null, "rating": null}, "geometry": {"type": "Point", "coordinates": [6.014072147255348, 49.5150751416267]}}, {"id": "36", "type": "Feature", "properties": {"id": 5766418160, "ref": null, "descriptio": null, "operator": null, "wd_operato": null, "transforme": null, "v_primary": null, "v_secondar": null, "v_tertiary": null, "rating": null}, "geometry": {"type": "Point", "coordinates": [6.219356774458191, 49.70558431755332]}}, {"id": "37", "type": "Feature", "properties": {"id": 5768738899, "ref": null, "descriptio": null, "operator": null, "wd_operato": null, "transforme": null, "v_primary": null, "v_secondar": null, "v_tertiary": null, "rating": null}, "geometry": {"type": "Point", "coordinates": [6.216620166891062, 49.59281117477172]}}, {"id": "38", "type": "Feature", "properties": {"id": 5796509574, "ref": null, "descriptio": null, "operator": null, "wd_operato": null, "transforme": null, "v_primary": null, "v_secondar": null, "v_tertiary": null, "rating": null}, "geometry": {"type": "Point", "coordinates": [6.148278487003893, 49.56099338650601]}}, {"id": "39", "type": "Feature", "properties": {"id": 5801268623, "ref": null, "descriptio": null, "operator": null, "wd_operato": null, "transforme": null, "v_primary": null, "v_secondar": null, "v_tertiary": null, "rating": null}, "geometry": {"type": "Point", "coordinates": [6.008055281881269, 49.52301716252168]}}, {"id": "40", "type": "Feature", "properties": {"id": 6100151841, "ref": null, "descriptio": null, "operator": null, "wd_operato": null, "transforme": null, "v_primary": 65000.0, "v_secondar": 20000.0, "v_tertiary": null, "rating": null}, "geometry": {"type": "Point", "coordinates": [6.035458321745466, 49.60451524526805]}}, {"id": "41", "type": "Feature", "properties": {"id": 6100151842, "ref": null, "descriptio": null, "operator": null, "wd_operato": null, "transforme": null, "v_primary": 65000.0, "v_secondar": 20000.0, "v_tertiary": null, "rating": null}, "geometry": {"type": "Point", "coordinates": [6.035456645364832, 49.604456823402934]}}, {"id": "42", "type": "Feature", "properties": {"id": 6103000643, "ref": null, "descriptio": null, "operator": null, "wd_operato": null, "transforme": null, "v_primary": null, "v_secondar": null, "v_tertiary": null, "rating": null}, "geometry": {"type": "Point", "coordinates": [6.139049341057586, 49.55105094059968]}}, {"id": "43", "type": "Feature", "properties": {"id": 6103000644, "ref": null, "descriptio": null, "operator": null, "wd_operato": null, "transforme": null, "v_primary": null, "v_secondar": null, "v_tertiary": null, "rating": null}, "geometry": {"type": "Point", "coordinates": [6.1392310607184015, 49.55092479295692]}}, {"id": "44", "type": "Feature", "properties": {"id": 6114052138, "ref": null, "descriptio": null, "operator": null, "wd_operato": null, "transforme": null, "v_primary": null, "v_secondar": null, "v_tertiary": null, "rating": null}, "geometry": {"type": "Point", "coordinates": [6.017323990410547, 49.52015767625402]}}, {"id": "45", "type": "Feature", "properties": {"id": 6114052150, "ref": null, "descriptio": null, "operator": null, "wd_operato": null, "transforme": null, "v_primary": null, "v_secondar": null, "v_tertiary": null, "rating": null}, "geometry": {"type": "Point", "coordinates": [6.018218423298209, 49.52132209024288]}}, {"id": "46", "type": "Feature", "properties": {"id": 6140814940, "ref": null, "descriptio": null, "operator": null, "wd_operato": null, "transforme": null, "v_primary": 65000.0, "v_secondar": 20000.0, "v_tertiary": null, "rating": null}, "geometry": {"type": "Point", "coordinates": [5.917011384886706, 49.960646385494655]}}, {"id": "47", "type": "Feature", "properties": {"id": 6140814950, "ref": null, "descriptio": null, "operator": null, "wd_operato": null, "transforme": null, "v_primary": 65000.0, "v_secondar": 20000.0, "v_tertiary": null, "rating": null}, "geometry": {"type": "Point", "coordinates": [5.917975639027787, 49.95203741656418]}}, {"id": "48", "type": "Feature", "properties": {"id": 6140814951, "ref": null, "descriptio": null, "operator": null, "wd_operato": null, "transforme": null, "v_primary": 65000.0, "v_secondar": 20000.0, "v_tertiary": null, "rating": null}, "geometry": {"type": "Point", "coordinates": [5.9178254353228965, 49.95197404937619]}}, {"id": "49", "type": "Feature", "properties": {"id": 6140824917, "ref": null, "descriptio": null, "operator": null, "wd_operato": null, "transforme": "main", "v_primary": 65000.0, "v_secondar": null, "v_tertiary": null, "rating": null}, "geometry": {"type": "Point", "coordinates": [6.007566784564318, 50.12693772858202]}}, {"id": "50", "type": "Feature", "properties": {"id": 6140824918, "ref": null, "descriptio": null, "operator": null, "wd_operato": null, "transforme": "main", "v_primary": 65000.0, "v_secondar": null, "v_tertiary": null, "rating": null}, "geometry": {"type": "Point", "coordinates": [6.007436697427067, 50.12685139497937]}}, {"id": "51", "type": "Feature", "properties": {"id": 6189780117, "ref": null, "descriptio": null, "operator": null, "wd_operato": null, "transforme": null, "v_primary": null, "v_secondar": null, "v_tertiary": null, "rating": null}, "geometry": {"type": "Point", "coordinates": [6.015366648381473, 49.545782830636085]}}, {"id": "52", "type": "Feature", "properties": {"id": 6206475718, "ref": null, "descriptio": null, "operator": null, "wd_operato": null, "transforme": null, "v_primary": null, "v_secondar": null, "v_tertiary": null, "rating": null}, "geometry": {"type": "Point", "coordinates": [5.9831828224041885, 50.06594018843647]}}, {"id": "53", "type": "Feature", "properties": {"id": 6801845971, "ref": null, "descriptio": null, "operator": null, "wd_operato": null, "transforme": null, "v_primary": null, "v_secondar": null, "v_tertiary": null, "rating": null}, "geometry": {"type": "Point", "coordinates": [6.080463861188263, 49.50178194610771]}}, {"id": "54", "type": "Feature", "properties": {"id": 6801845972, "ref": null, "descriptio": null, "operator": null, "wd_operato": null, "transforme": null, "v_primary": null, "v_secondar": null, "v_tertiary": null, "rating": null}, "geometry": {"type": "Point", "coordinates": [6.080363948902431, 49.501782868117076]}}, {"id": "55", "type": "Feature", "properties": {"id": 6844596785, "ref": null, "descriptio": null, "operator": null, "wd_operato": null, "transforme": null, "v_primary": null, "v_secondar": null, "v_tertiary": null, "rating": null}, "geometry": {"type": "Point", "coordinates": [5.96398952142232, 49.69950383353417]}}, {"id": "56", "type": "Feature", "properties": {"id": 7443585184, "ref": null, "descriptio": null, "operator": "Creos", "wd_operato": "Q21036415", "transforme": "main", "v_primary": 65000.0, "v_secondar": null, "v_tertiary": null, "rating": null}, "geometry": {"type": "Point", "coordinates": [5.9388157325261375, 49.56789303392235]}}, {"id": "57", "type": "Feature", "properties": {"id": 7443607006, "ref": null, "descriptio": null, "operator": "Creos", "wd_operato": "Q21036415", "transforme": "main", "v_primary": 65000.0, "v_secondar": null, "v_tertiary": null, "rating": null}, "geometry": {"type": "Point", "coordinates": [5.939303224014707, 49.567738136351686]}}, {"id": "58", "type": "Feature", "properties": {"id": 7443607007, "ref": null, "descriptio": null, "operator": "Creos", "wd_operato": "Q21036415", "transforme": "main", "v_primary": 65000.0, "v_secondar": null, "v_tertiary": null, "rating": null}, "geometry": {"type": "Point", "coordinates": [5.939136256503502, 49.56779219962717]}}, {"id": "59", "type": "Feature", "properties": {"id": 7443607009, "ref": null, "descriptio": null, "operator": "Creos", "wd_operato": "Q21036415", "transforme": "main", "v_primary": 65000.0, "v_secondar": null, "v_tertiary": null, "rating": null}, "geometry": {"type": "Point", "coordinates": [5.9385857331030545, 49.56730982109954]}}, {"id": "60", "type": "Feature", "properties": {"id": 7443607025, "ref": null, "descriptio": null, "operator": null, "wd_operato": null, "transforme": null, "v_primary": null, "v_secondar": null, "v_tertiary": null, "rating": null}, "geometry": {"type": "Point", "coordinates": [5.908449773709151, 49.522887662117625]}}, {"id": "61", "type": "Feature", "properties": {"id": 7443607026, "ref": null, "descriptio": null, "operator": null, "wd_operato": null, "transforme": null, "v_primary": null, "v_secondar": null, "v_tertiary": null, "rating": null}, "geometry": {"type": "Point", "coordinates": [5.908452958832356, 49.52294046810764]}}, {"id": "62", "type": "Feature", "properties": {"id": 7443607038, "ref": null, "descriptio": null, "operator": null, "wd_operato": null, "transforme": null, "v_primary": null, "v_secondar": null, "v_tertiary": null, "rating": null}, "geometry": {"type": "Point", "coordinates": [5.860222398324538, 49.5555389468349]}}, {"id": "63", "type": "Feature", "properties": {"id": 7443607053, "ref": null, "descriptio": null, "operator": null, "wd_operato": null, "transforme": null, "v_primary": null, "v_secondar": null, "v_tertiary": null, "rating": null}, "geometry": {"type": "Point", "coordinates": [5.925979350730102, 49.53345028503981]}}, {"id": "64", "type": "Feature", "properties": {"id": 7443607054, "ref": null, "descriptio": null, "operator": null, "wd_operato": null, "transforme": null, "v_primary": null, "v_secondar": null, "v_tertiary": null, "rating": null}, "geometry": {"type": "Point", "coordinates": [5.925594453736379, 49.53349806188787]}}, {"id": "65", "type": "Feature", "properties": {"id": 7443607055, "ref": null, "descriptio": null, "operator": null, "wd_operato": null, "transforme": null, "v_primary": null, "v_secondar": null, "v_tertiary": null, "rating": null}, "geometry": {"type": "Point", "coordinates": [5.925771479531392, 49.53347668803479]}}, {"id": "66", "type": "Feature", "properties": {"id": 7443692535, "ref": null, "descriptio": null, "operator": null, "wd_operato": null, "transforme": null, "v_primary": null, "v_secondar": null, "v_tertiary": null, "rating": null}, "geometry": {"type": "Point", "coordinates": [5.9512181831948965, 49.53880539915831]}}, {"id": "67", "type": "Feature", "properties": {"id": 7544442429, "ref": null, "descriptio": null, "operator": null, "wd_operato": null, "transforme": null, "v_primary": 65000.0, "v_secondar": null, "v_tertiary": null, "rating": null}, "geometry": {"type": "Point", "coordinates": [6.2161282329938095, 49.643974144104796]}}, {"id": "68", "type": "Feature", "properties": {"id": 7544442430, "ref": null, "descriptio": null, "operator": null, "wd_operato": null, "transforme": null, "v_primary": 65000.0, "v_secondar": null, "v_tertiary": null, "rating": null}, "geometry": {"type": "Point", "coordinates": [6.216173159994838, 49.643927373085084]}}, {"id": "69", "type": "Feature", "properties": {"id": 7678492590, "ref": null, "descriptio": null, "operator": null, "wd_operato": null, "transforme": null, "v_primary": 65000.0, "v_secondar": null, "v_tertiary": null, "rating": null}, "geometry": {"type": "Point", "coordinates": [6.1352566975096465, 49.574454136269466]}}, {"id": "70", "type": "Feature", "properties": {"id": 7678492591, "ref": null, "descriptio": null, "operator": null, "wd_operato": null, "transforme": null, "v_primary": 65000.0, "v_secondar": null, "v_tertiary": null, "rating": null}, "geometry": {"type": "Point", "coordinates": [6.135248650882602, 49.574251964764905]}}, {"id": "71", "type": "Feature", "properties": {"id": 7779406600, "ref": null, "descriptio": null, "operator": null, "wd_operato": null, "transforme": null, "v_primary": null, "v_secondar": null, "v_tertiary": null, "rating": null}, "geometry": {"type": "Point", "coordinates": [6.443040098222043, 49.803243463989546]}}, {"id": "72", "type": "Feature", "properties": {"id": 7779406601, "ref": null, "descriptio": null, "operator": null, "wd_operato": null, "transforme": null, "v_primary": null, "v_secondar": null, "v_tertiary": null, "rating": null}, "geometry": {"type": "Point", "coordinates": [6.442905736314174, 49.803318398203906]}}, {"id": "73", "type": "Feature", "properties": {"id": 7847333092, "ref": null, "descriptio": null, "operator": null, "wd_operato": null, "transforme": null, "v_primary": null, "v_secondar": null, "v_tertiary": null, "rating": null}, "geometry": {"type": "Point", "coordinates": [5.903922875443186, 49.526203291555966]}}, {"id": "74", "type": "Feature", "properties": {"id": 8226136181, "ref": null, "descriptio": null, "operator": null, "wd_operato": null, "transforme": null, "v_primary": null, "v_secondar": null, "v_tertiary": null, "rating": null}, "geometry": {"type": "Point", "coordinates": [6.138511558149986, 49.61833742269636]}}, {"id": "75", "type": "Feature", "properties": {"id": 10031378642, "ref": null, "descriptio": null, "operator": null, "wd_operato": null, "transforme": null, "v_primary": null, "v_secondar": null, "v_tertiary": null, "rating": null}, "geometry": {"type": "Point", "coordinates": [6.2177183638448525, 49.64214429082299]}}, {"id": "76", "type": "Feature", "properties": {"id": 11955704231, "ref": null, "descriptio": null, "operator": null, "wd_operato": null, "transforme": null, "v_primary": null, "v_secondar": null, "v_tertiary": null, "rating": null}, "geometry": {"type": "Point", "coordinates": [6.194196396607082, 49.94526609608545]}}, {"id": "77", "type": "Feature", "properties": {"id": 12160880587, "ref": null, "descriptio": null, "operator": null, "wd_operato": null, "transforme": null, "v_primary": null, "v_secondar": null, "v_tertiary": null, "rating": null}, "geometry": {"type": "Point", "coordinates": [6.110166057092954, 49.495299466012334]}}, {"id": "78", "type": "Feature", "properties": {"id": 12160880588, "ref": null, "descriptio": null, "operator": null, "wd_operato": null, "transforme": null, "v_primary": null, "v_secondar": null, "v_tertiary": null, "rating": null}, "geometry": {"type": "Point", "coordinates": [6.110123728481909, 49.495350763259744]}}, {"id": "79", "type": "Feature", "properties": {"id": 12160880589, "ref": null, "descriptio": null, "operator": null, "wd_operato": null, "transforme": null, "v_primary": null, "v_secondar": null, "v_tertiary": null, "rating": null}, "geometry": {"type": "Point", "coordinates": [6.110280889166433, 49.49514054512813]}}, {"id": "80", "type": "Feature", "properties": {"id": 12160880590, "ref": null, "descriptio": null, "operator": null, "wd_operato": null, "transforme": null, "v_primary": null, "v_secondar": null, "v_tertiary": null, "rating": null}, "geometry": {"type": "Point", "coordinates": [6.110344340173441, 49.49504733836486]}}, {"id": "81", "type": "Feature", "properties": {"id": 12854187332, "ref": null, "descriptio": null, "operator": null, "wd_operato": null, "transforme": "main", "v_primary": 65000.0, "v_secondar": null, "v_tertiary": null, "rating": null}, "geometry": {"type": "Point", "coordinates": [6.076344323416522, 50.04443775694931]}}, {"id": "82", "type": "Feature", "properties": {"id": 12854187333, "ref": null, "descriptio": null, "operator": null, "wd_operato": null, "transforme": "main", "v_primary": 65000.0, "v_secondar": null, "v_tertiary": null, "rating": null}, "geometry": {"type": "Point", "coordinates": [6.0758329435039125, 50.04434723239507]}}, {"id": "83", "type": "Feature", "properties": {"id": 12860409596, "ref": null, "descriptio": null, "operator": null, "wd_operato": null, "transforme": "main", "v_primary": null, "v_secondar": null, "v_tertiary": null, "rating": null}, "geometry": {"type": "Point", "coordinates": [5.902560564720403, 49.52523023641657]}}, {"id": "84", "type": "Feature", "properties": {"id": 12860655932, "ref": null, "descriptio": null, "operator": null, "wd_operato": null, "transforme": null, "v_primary": null, "v_secondar": null, "v_tertiary": null, "rating": null}, "geometry": {"type": "Point", "coordinates": [5.954983585557528, 49.504334151805004]}}, {"id": "85", "type": "Feature", "properties": {"id": 12860655933, "ref": null, "descriptio": null, "operator": null, "wd_operato": null, "transforme": null, "v_primary": null, "v_secondar": null, "v_tertiary": null, "rating": null}, "geometry": {"type": "Point", "coordinates": [5.955300589135561, 49.50444747513591]}}, {"id": "86", "type": "Feature", "properties": {"id": 12860655936, "ref": null, "descriptio": null, "operator": null, "wd_operato": null, "transforme": null, "v_primary": null, "v_secondar": null, "v_tertiary": null, "rating": null}, "geometry": {"type": "Point", "coordinates": [5.956005339554395, 49.50448636716661]}}, {"id": "87", "type": "Feature", "properties": {"id": 12860655956, "ref": null, "descriptio": null, "operator": null, "wd_operato": null, "transforme": null, "v_primary": null, "v_secondar": null, "v_tertiary": null, "rating": null}, "geometry": {"type": "Point", "coordinates": [5.955409972971978, 49.50413944019429]}}, {"id": "88", "type": "Feature", "properties": {"id": 12860695291, "ref": null, "descriptio": null, "operator": null, "wd_operato": null, "transforme": null, "v_primary": null, "v_secondar": null, "v_tertiary": null, "rating": null}, "geometry": {"type": "Point", "coordinates": [6.019309579453335, 49.52144295728662]}}, {"id": "89", "type": "Feature", "properties": {"id": 12860695292, "ref": null, "descriptio": null, "operator": null, "wd_operato": null, "transforme": null, "v_primary": null, "v_secondar": null, "v_tertiary": null, "rating": null}, "geometry": {"type": "Point", "coordinates": [6.017929080000642, 49.52092822461275]}}, {"id": "90", "type": "Feature", "properties": {"id": 12860695296, "ref": null, "descriptio": null, "operator": null, "wd_operato": null, "transforme": null, "v_primary": null, "v_secondar": null, "v_tertiary": null, "rating": null}, "geometry": {"type": "Point", "coordinates": [6.0175710889161, 49.520561432529895]}}, {"id": "91", "type": "Feature", "properties": {"id": 12865336261, "ref": null, "descriptio": null, "operator": null, "wd_operato": null, "transforme": null, "v_primary": null, "v_secondar": null, "v_tertiary": null, "rating": null}, "geometry": {"type": "Point", "coordinates": [6.2575772471010405, 49.80307892723022]}}, {"id": "92", "type": "Feature", "properties": {"id": 12865336262, "ref": null, "descriptio": null, "operator": null, "wd_operato": null, "transforme": null, "v_primary": null, "v_secondar": null, "v_tertiary": null, "rating": null}, "geometry": {"type": "Point", "coordinates": [6.257618569883675, 49.80309644540786]}}, {"id": "93", "type": "Feature", "properties": {"id": 12865349060, "ref": null, "descriptio": null, "operator": null, "wd_operato": null, "transforme": null, "v_primary": 65000.0, "v_secondar": null, "v_tertiary": null, "rating": null}, "geometry": {"type": "Point", "coordinates": [6.114930330856766, 49.90546177901894]}}, {"id": "94", "type": "Feature", "properties": {"id": 12865349063, "ref": null, "descriptio": null, "operator": null, "wd_operato": null, "transforme": null, "v_primary": 65000.0, "v_secondar": null, "v_tertiary": null, "rating": null}, "geometry": {"type": "Point", "coordinates": [6.11488464948448, 49.90539422087937]}}, {"id": "95", "type": "Feature", "properties": {"id": 12865393019, "ref": null, "descriptio": null, "operator": null, "wd_operato": null, "transforme": null, "v_primary": 65000.0, "v_secondar": null, "v_tertiary": null, "rating": null}, "geometry": {"type": "Point", "coordinates": [6.083842271081379, 49.7763635387024]}}, {"id": "96", "type": "Feature", "properties": {"id": 12865393024, "ref": null, "descriptio": null, "operator": null, "wd_operato": null, "transforme": null, "v_primary": 65000.0, "v_secondar": null, "v_tertiary": null, "rating": null}, "geometry": {"type": "Point", "coordinates": [6.083892730138473, 49.77628231806064]}}, {"id": "97", "type": "Feature", "properties": {"id": 12865415720, "ref": null, "descriptio": null, "operator": null, "wd_operato": null, "transforme": null, "v_primary": 65000.0, "v_secondar": null, "v_tertiary": null, "rating": null}, "geometry": {"type": "Point", "coordinates": [6.133668326858271, 49.640217794197575]}}, {"id": "98", "type": "Feature", "properties": {"id": 12865415723, "ref": null, "descriptio": null, "operator": null, "wd_operato": null, "transforme": null, "v_primary": 65000.0, "v_secondar": null, "v_tertiary": null, "rating": null}, "geometry": {"type": "Point", "coordinates": [6.133665141735065, 49.640159120875374]}}, {"id": "99", "type": "Feature", "properties": {"id": 12865427336, "ref": null, "descriptio": null, "operator": null, "wd_operato": null, "transforme": null, "v_primary": 65000.0, "v_secondar": null, "v_tertiary": null, "rating": null}, "geometry": {"type": "Point", "coordinates": [6.070093854401022, 49.606211574832294]}}, {"id": "100", "type": "Feature", "properties": {"id": 12865427337, "ref": null, "descriptio": null, "operator": null, "wd_operato": null, "transforme": null, "v_primary": 65000.0, "v_secondar": null, "v_tertiary": null, "rating": null}, "geometry": {"type": "Point", "coordinates": [6.070082790288836, 49.606151644224646]}}, {"id": "101", "type": "Feature", "properties": {"id": 12869263745, "ref": null, "descriptio": null, "operator": null, "wd_operato": null, "transforme": null, "v_primary": null, "v_secondar": null, "v_tertiary": null, "rating": null}, "geometry": {"type": "Point", "coordinates": [6.179690172060817, 49.5970267691538]}}, {"id": "102", "type": "Feature", "properties": {"id": 12869263746, "ref": null, "descriptio": null, "operator": null, "wd_operato": null, "transforme": null, "v_primary": null, "v_secondar": null, "v_tertiary": null, "rating": null}, "geometry": {"type": "Point", "coordinates": [6.179774661644813, 49.59708896287538]}}, {"id": "103", "type": "Feature", "properties": {"id": 12869263747, "ref": null, "descriptio": null, "operator": null, "wd_operato": null, "transforme": null, "v_primary": null, "v_secondar": null, "v_tertiary": null, "rating": null}, "geometry": {"type": "Point", "coordinates": [6.179605682476819, 49.59727068253615]}}, {"id": "104", "type": "Feature", "properties": {"id": 12869263748, "ref": null, "descriptio": null, "operator": null, "wd_operato": null, "transforme": null, "v_primary": null, "v_secondar": null, "v_tertiary": null, "rating": null}, "geometry": {"type": "Point", "coordinates": [6.179425974472792, 49.59713975720859]}}, {"id": "105", "type": "Feature", "properties": {"id": 13110286373, "ref": null, "descriptio": null, "operator": null, "wd_operato": null, "transforme": null, "v_primary": null, "v_secondar": null, "v_tertiary": null, "rating": null}, "geometry": {"type": "Point", "coordinates": [6.17688047429803, 49.6368130651285]}}, {"id": "106", "type": "Feature", "properties": {"id": 13110286374, "ref": null, "descriptio": null, "operator": null, "wd_operato": null, "transforme": null, "v_primary": null, "v_secondar": null, "v_tertiary": null, "rating": null}, "geometry": {"type": "Point", "coordinates": [6.17699731802827, 49.63682295577425]}}]}