{"type": "FeatureCollection", "features": [{"id": "0", "type": "Feature", "properties": {"id": 6100151843, "ref": null, "descriptio": null, "operator": null, "wd_operato": null}, "geometry": {"type": "Point", "coordinates": [6.036123258124235, 49.60544152938779]}}, {"id": "1", "type": "Feature", "properties": {"id": 6100151844, "ref": null, "descriptio": null, "operator": null, "wd_operato": null}, "geometry": {"type": "Point", "coordinates": [6.036119821543934, 49.605324769476546]}}, {"id": "2", "type": "Feature", "properties": {"id": 6100151864, "ref": null, "descriptio": null, "operator": null, "wd_operato": null}, "geometry": {"type": "Point", "coordinates": [6.035525544608931, 49.60539056741646]}}, {"id": "3", "type": "Feature", "properties": {"id": 6100552596, "ref": null, "descriptio": null, "operator": null, "wd_operato": null}, "geometry": {"type": "Point", "coordinates": [6.140363036741975, 49.66910426328546]}}, {"id": "4", "type": "Feature", "properties": {"id": 6100552625, "ref": null, "descriptio": null, "operator": null, "wd_operato": null}, "geometry": {"type": "Point", "coordinates": [6.140492118050843, 49.669458817789696]}}, {"id": "5", "type": "Feature", "properties": {"id": 6100552626, "ref": null, "descriptio": null, "operator": null, "wd_operato": null}, "geometry": {"type": "Point", "coordinates": [6.140461943199426, 49.66935287053356]}}, {"id": "6", "type": "Feature", "properties": {"id": 6101455924, "ref": null, "descriptio": null, "operator": null, "wd_operato": null}, "geometry": {"type": "Point", "coordinates": [6.084334959349918, 49.776559088503426]}}, {"id": "7", "type": "Feature", "properties": {"id": 6101455925, "ref": null, "descriptio": null, "operator": null, "wd_operato": null}, "geometry": {"type": "Point", "coordinates": [6.08425784584071, 49.77666511957857]}}, {"id": "8", "type": "Feature", "properties": {"id": 6101455928, "ref": null, "descriptio": null, "operator": null, "wd_operato": null}, "geometry": {"type": "Point", "coordinates": [6.083449159822521, 49.77700115007682]}}, {"id": "9", "type": "Feature", "properties": {"id": 12762421136, "ref": null, "descriptio": null, "operator": null, "wd_operato": null}, "geometry": {"type": "Point", "coordinates": [6.11484408107313, 49.905290285279996]}}, {"id": "10", "type": "Feature", "properties": {"id": 12762421141, "ref": null, "descriptio": null, "operator": null, "wd_operato": null}, "geometry": {"type": "Point", "coordinates": [6.115230151533297, 49.904854258676906]}}, {"id": "11", "type": "Feature", "properties": {"id": 12762421186, "ref": null, "descriptio": null, "operator": null, "wd_operato": null}, "geometry": {"type": "Point", "coordinates": [6.113110619677798, 49.905288525080366]}}, {"id": "12", "type": "Feature", "properties": {"id": 12762421189, "ref": null, "descriptio": null, "operator": null, "wd_operato": null}, "geometry": {"type": "Point", "coordinates": [6.113009198649394, 49.90513781846125]}}, {"id": "13", "type": "Feature", "properties": {"id": 12854181495, "ref": null, "descriptio": null, "operator": null, "wd_operato": null}, "geometry": {"type": "Point", "coordinates": [6.0075884936935315, 50.126536654515206]}}, {"id": "14", "type": "Feature", "properties": {"id": 12854181496, "ref": null, "descriptio": null, "operator": null, "wd_operato": null}, "geometry": {"type": "Point", "coordinates": [6.007618920002073, 50.12655593289249]}}, {"id": "15", "type": "Feature", "properties": {"id": 12860409568, "ref": null, "descriptio": null, "operator": null, "wd_operato": null}, "geometry": {"type": "Point", "coordinates": [5.903031627678756, 49.526082927426415]}}, {"id": "16", "type": "Feature", "properties": {"id": 12860409569, "ref": null, "descriptio": null, "operator": null, "wd_operato": null}, "geometry": {"type": "Point", "coordinates": [5.903064149463063, 49.526026936313215]}}, {"id": "17", "type": "Feature", "properties": {"id": 12860409570, "ref": null, "descriptio": null, "operator": null, "wd_operato": null}, "geometry": {"type": "Point", "coordinates": [5.902977983498431, 49.52603917389184]}}, {"id": "18", "type": "Feature", "properties": {"id": 12860409571, "ref": null, "descriptio": null, "operator": null, "wd_operato": null}, "geometry": {"type": "Point", "coordinates": [5.902738931619923, 49.525772126456715]}}, {"id": "19", "type": "Feature", "properties": {"id": 12860409572, "ref": null, "descriptio": null, "operator": null, "wd_operato": null}, "geometry": {"type": "Point", "coordinates": [5.902799532779881, 49.525782017102465]}}, {"id": "20", "type": "Feature", "properties": {"id": 12860409573, "ref": null, "descriptio": null, "operator": null, "wd_operato": null}, "geometry": {"type": "Point", "coordinates": [5.902846471437641, 49.525791572472095]}}, {"id": "21", "type": "Feature", "properties": {"id": 12860409574, "ref": null, "descriptio": null, "operator": null, "wd_operato": null}, "geometry": {"type": "Point", "coordinates": [5.903030873307472, 49.525839181682116]}}, {"id": "22", "type": "Feature", "properties": {"id": 12860409575, "ref": null, "descriptio": null, "operator": null, "wd_operato": null}, "geometry": {"type": "Point", "coordinates": [5.903087199696784, 49.52584965906107]}}, {"id": "23", "type": "Feature", "properties": {"id": 12860409576, "ref": null, "descriptio": null, "operator": null, "wd_operato": null}, "geometry": {"type": "Point", "coordinates": [5.903144364276444, 49.52585904679263]}}, {"id": "24", "type": "Feature", "properties": {"id": 12860409577, "ref": null, "descriptio": null, "operator": null, "wd_operato": null}, "geometry": {"type": "Point", "coordinates": [5.903214353167925, 49.5258707814571]}}, {"id": "25", "type": "Feature", "properties": {"id": 12860409578, "ref": null, "descriptio": null, "operator": null, "wd_operato": null}, "geometry": {"type": "Point", "coordinates": [5.903268081167284, 49.52588519833054]}}, {"id": "26", "type": "Feature", "properties": {"id": 12860409579, "ref": null, "descriptio": null, "operator": null, "wd_operato": null}, "geometry": {"type": "Point", "coordinates": [5.903327844136896, 49.525893496414675]}}, {"id": "27", "type": "Feature", "properties": {"id": 12860409580, "ref": null, "descriptio": null, "operator": null, "wd_operato": null}, "geometry": {"type": "Point", "coordinates": [5.903391881877155, 49.525905650174266]}}, {"id": "28", "type": "Feature", "properties": {"id": 12860409581, "ref": null, "descriptio": null, "operator": null, "wd_operato": null}, "geometry": {"type": "Point", "coordinates": [5.903452483037086, 49.52591679810552]}}, {"id": "29", "type": "Feature", "properties": {"id": 12860409582, "ref": null, "descriptio": null, "operator": null, "wd_operato": null}, "geometry": {"type": "Point", "coordinates": [5.903513084197044, 49.525924425637406]}}, {"id": "30", "type": "Feature", "properties": {"id": 12860409583, "ref": null, "descriptio": null, "operator": null, "wd_operato": null}, "geometry": {"type": "Point", "coordinates": [5.9035668960154055, 49.525938842510854]}}, {"id": "31", "type": "Feature", "properties": {"id": 12860409584, "ref": null, "descriptio": null, "operator": null, "wd_operato": null}, "geometry": {"type": "Point", "coordinates": [5.903624898785381, 49.52594823024243]}}, {"id": "32", "type": "Feature", "properties": {"id": 12860409585, "ref": null, "descriptio": null, "operator": null, "wd_operato": null}, "geometry": {"type": "Point", "coordinates": [5.903681141355662, 49.52595778561202]}}, {"id": "33", "type": "Feature", "properties": {"id": 12860409597, "ref": null, "descriptio": null, "operator": null, "wd_operato": null}, "geometry": {"type": "Point", "coordinates": [5.902590152838598, 49.52516334882922]}}, {"id": "34", "type": "Feature", "properties": {"id": 12860409598, "ref": null, "descriptio": null, "operator": null, "wd_operato": null}, "geometry": {"type": "Point", "coordinates": [5.902612364882003, 49.52509796998449]}}, {"id": "35", "type": "Feature", "properties": {"id": 12860409599, "ref": null, "descriptio": null, "operator": null, "wd_operato": null}, "geometry": {"type": "Point", "coordinates": [5.902636840039264, 49.5250272267217]}}, {"id": "36", "type": "Feature", "properties": {"id": 12860655937, "ref": null, "descriptio": null, "operator": null, "wd_operato": null}, "geometry": {"type": "Point", "coordinates": [5.955526816702218, 49.504002060801255]}}, {"id": "37", "type": "Feature", "properties": {"id": 12860655938, "ref": null, "descriptio": null, "operator": null, "wd_operato": null}, "geometry": {"type": "Point", "coordinates": [5.955603594935269, 49.503986554280395]}}, {"id": "38", "type": "Feature", "properties": {"id": 12860655939, "ref": null, "descriptio": null, "operator": null, "wd_operato": null}, "geometry": {"type": "Point", "coordinates": [5.955657490572691, 49.503971634492764]}}, {"id": "39", "type": "Feature", "properties": {"id": 12860655940, "ref": null, "descriptio": null, "operator": null, "wd_operato": null}, "geometry": {"type": "Point", "coordinates": [5.955585657662482, 49.50437354674992]}}, {"id": "40", "type": "Feature", "properties": {"id": 12860655941, "ref": null, "descriptio": null, "operator": null, "wd_operato": null}, "geometry": {"type": "Point", "coordinates": [5.955560428133936, 49.504365835399]}}, {"id": "41", "type": "Feature", "properties": {"id": 12860655942, "ref": null, "descriptio": null, "operator": null, "wd_operato": null}, "geometry": {"type": "Point", "coordinates": [5.9555763537499615, 49.504347730488156]}}, {"id": "42", "type": "Feature", "properties": {"id": 12860655943, "ref": null, "descriptio": null, "operator": null, "wd_operato": null}, "geometry": {"type": "Point", "coordinates": [5.9555430775943705, 49.5042948406791]}}, {"id": "43", "type": "Feature", "properties": {"id": 12860655944, "ref": null, "descriptio": null, "operator": null, "wd_operato": null}, "geometry": {"type": "Point", "coordinates": [5.955512651285858, 49.50428712932817]}}, {"id": "44", "type": "Feature", "properties": {"id": 12860655945, "ref": null, "descriptio": null, "operator": null, "wd_operato": null}, "geometry": {"type": "Point", "coordinates": [5.955381977415384, 49.50405067583966]}}, {"id": "45", "type": "Feature", "properties": {"id": 12860655946, "ref": null, "descriptio": null, "operator": null, "wd_operato": null}, "geometry": {"type": "Point", "coordinates": [5.955414247742595, 49.504055034429314]}}, {"id": "46", "type": "Feature", "properties": {"id": 12860659242, "ref": null, "descriptio": null, "operator": null, "wd_operato": null}, "geometry": {"type": "Point", "coordinates": [5.990587647124755, 49.50422292394988]}}, {"id": "47", "type": "Feature", "properties": {"id": 12860659243, "ref": null, "descriptio": null, "operator": null, "wd_operato": null}, "geometry": {"type": "Point", "coordinates": [5.990550850569832, 49.50419367110778]}}, {"id": "48", "type": "Feature", "properties": {"id": 12860659244, "ref": null, "descriptio": null, "operator": null, "wd_operato": null}, "geometry": {"type": "Point", "coordinates": [5.990526040136444, 49.50416735193184]}}, {"id": "49", "type": "Feature", "properties": {"id": 12860659245, "ref": null, "descriptio": null, "operator": null, "wd_operato": null}, "geometry": {"type": "Point", "coordinates": [5.990471138670672, 49.504126364425325]}}, {"id": "50", "type": "Feature", "properties": {"id": 12860659246, "ref": null, "descriptio": null, "operator": null, "wd_operato": null}, "geometry": {"type": "Point", "coordinates": [5.9904478369798255, 49.50410683459095]}}, {"id": "51", "type": "Feature", "properties": {"id": 12860659247, "ref": null, "descriptio": null, "operator": null, "wd_operato": null}, "geometry": {"type": "Point", "coordinates": [5.990421517803867, 49.504090238422656]}}, {"id": "52", "type": "Feature", "properties": {"id": 12860659248, "ref": null, "descriptio": null, "operator": null, "wd_operato": null}, "geometry": {"type": "Point", "coordinates": [5.990388576924403, 49.504243459612645]}}, {"id": "53", "type": "Feature", "properties": {"id": 12860659249, "ref": null, "descriptio": null, "operator": null, "wd_operato": null}, "geometry": {"type": "Point", "coordinates": [5.990358485892018, 49.50421655370347]}}, {"id": "54", "type": "Feature", "properties": {"id": 12860659250, "ref": null, "descriptio": null, "operator": null, "wd_operato": null}, "geometry": {"type": "Point", "coordinates": [5.990323952450921, 49.50419124035587]}}, {"id": "55", "type": "Feature", "properties": {"id": 12860659251, "ref": null, "descriptio": null, "operator": null, "wd_operato": null}, "geometry": {"type": "Point", "coordinates": [5.990444819494684, 49.504284363300144]}}, {"id": "56", "type": "Feature", "properties": {"id": 12860659252, "ref": null, "descriptio": null, "operator": null, "wd_operato": null}, "geometry": {"type": "Point", "coordinates": [5.990464433148106, 49.50430045655422]}}, {"id": "57", "type": "Feature", "properties": {"id": 12860659253, "ref": null, "descriptio": null, "operator": null, "wd_operato": null}, "geometry": {"type": "Point", "coordinates": [5.9904877348389505, 49.50431906437931]}}, {"id": "58", "type": "Feature", "properties": {"id": 12860716120, "ref": null, "descriptio": null, "operator": null, "wd_operato": null}, "geometry": {"type": "Point", "coordinates": [6.139690221374253, 49.55116074353128]}}, {"id": "59", "type": "Feature", "properties": {"id": 12860716121, "ref": null, "descriptio": null, "operator": null, "wd_operato": null}, "geometry": {"type": "Point", "coordinates": [6.139563319360207, 49.55102939910851]}}, {"id": "60", "type": "Feature", "properties": {"id": 12865369960, "ref": null, "descriptio": null, "operator": null, "wd_operato": null}, "geometry": {"type": "Point", "coordinates": [6.084315848610686, 49.77658146818492]}}, {"id": "61", "type": "Feature", "properties": {"id": 12865369961, "ref": null, "descriptio": null, "operator": null, "wd_operato": null}, "geometry": {"type": "Point", "coordinates": [6.084349376223372, 49.776533523698774]}}, {"id": "62", "type": "Feature", "properties": {"id": 12865369962, "ref": null, "descriptio": null, "operator": null, "wd_operato": null}, "geometry": {"type": "Point", "coordinates": [6.08423974092986, 49.77668448177495]}}, {"id": "63", "type": "Feature", "properties": {"id": 12865369963, "ref": null, "descriptio": null, "operator": null, "wd_operato": null}, "geometry": {"type": "Point", "coordinates": [6.084272765628356, 49.77663846512649]}}, {"id": "64", "type": "Feature", "properties": {"id": 12865369964, "ref": null, "descriptio": null, "operator": null, "wd_operato": null}, "geometry": {"type": "Point", "coordinates": [6.083429127073942, 49.777023194482155]}}, {"id": "65", "type": "Feature", "properties": {"id": 12865369965, "ref": null, "descriptio": null, "operator": null, "wd_operato": null}, "geometry": {"type": "Point", "coordinates": [6.083461397401152, 49.77697709401471]}}]}