{"type": "FeatureCollection", "features": [{"id": "0", "type": "Feature", "properties": {"id": 790769487, "name": null, "name_en": null, "descriptio": null, "ref": null, "wikidata": null, "operator": null, "wd_operato": null, "start_date": null}, "geometry": {"type": "Point", "coordinates": [6.248778679520768, 49.67981843101696]}}, {"id": "1", "type": "Feature", "properties": {"id": 1811317003, "name": "Schmitzbuer", "name_en": null, "descriptio": null, "ref": null, "wikidata": null, "operator": null, "wd_operato": null, "start_date": null}, "geometry": {"type": "Point", "coordinates": [6.219063575485194, 49.702953824880375]}}, {"id": "2", "type": "Feature", "properties": {"id": 1833932620, "name": null, "name_en": null, "descriptio": null, "ref": null, "wikidata": null, "operator": null, "wd_operato": null, "start_date": null}, "geometry": {"type": "Point", "coordinates": [5.988575487448941, 49.64547978537185]}}, {"id": "3", "type": "Feature", "properties": {"id": 1833932645, "name": null, "name_en": null, "descriptio": null, "ref": null, "wikidata": null, "operator": null, "wd_operato": null, "start_date": null}, "geometry": {"type": "Point", "coordinates": [5.989132129638677, 49.64552228162093]}}, {"id": "4", "type": "Feature", "properties": {"id": 3023986368, "name": null, "name_en": null, "descriptio": null, "ref": null, "wikidata": null, "operator": null, "wd_operato": null, "start_date": null}, "geometry": {"type": "Point", "coordinates": [5.936974898951178, 49.5263000187186]}}, {"id": "5", "type": "Feature", "properties": {"id": 3705484594, "name": null, "name_en": null, "descriptio": null, "ref": null, "wikidata": null, "operator": null, "wd_operato": null, "start_date": null}, "geometry": {"type": "Point", "coordinates": [6.059604573131623, 49.49047006486084]}}, {"id": "6", "type": "Feature", "properties": {"id": 3705484595, "name": null, "name_en": null, "descriptio": null, "ref": null, "wikidata": null, "operator": null, "wd_operato": null, "start_date": null}, "geometry": {"type": "Point", "coordinates": [6.060158449293311, 49.490256661606054]}}, {"id": "7", "type": "Feature", "properties": {"id": 4227106489, "name": null, "name_en": null, "descriptio": null, "ref": null, "wikidata": null, "operator": null, "wd_operato": null, "start_date": null}, "geometry": {"type": "Point", "coordinates": [5.9825917305923895, 49.725751595683946]}}, {"id": "8", "type": "Feature", "properties": {"id": 4239813209, "name": null, "name_en": null, "descriptio": null, "ref": null, "wikidata": null, "operator": null, "wd_operato": null, "start_date": null}, "geometry": {"type": "Point", "coordinates": [5.97951146499517, 49.677043434333314]}}, {"id": "9", "type": "Feature", "properties": {"id": 4239840689, "name": null, "name_en": null, "descriptio": null, "ref": null, "wikidata": null, "operator": null, "wd_operato": null, "start_date": null}, "geometry": {"type": "Point", "coordinates": [5.979959477719775, 49.677874583852]}}, {"id": "10", "type": "Feature", "properties": {"id": 4680128265, "name": "Uechtlach", "name_en": null, "descriptio": null, "ref": null, "wikidata": null, "operator": "Commune de Hobscheid", "wd_operato": null, "start_date": null}, "geometry": {"type": "Point", "coordinates": [5.904194365286968, 49.69700644548361]}}, {"id": "11", "type": "Feature", "properties": {"id": 4709543832, "name": "Kl\u00e9ngelbuer", "name_en": null, "descriptio": null, "ref": null, "wikidata": null, "operator": null, "wd_operato": null, "start_date": null}, "geometry": {"type": "Point", "coordinates": [6.14890075949549, 49.57114563144884]}}, {"id": "12", "type": "Feature", "properties": {"id": 4768039264, "name": null, "name_en": null, "descriptio": null, "ref": null, "wikidata": null, "operator": null, "wd_operato": null, "start_date": null}, "geometry": {"type": "Point", "coordinates": [6.0927371467290925, 49.685005236519764]}}, {"id": "13", "type": "Feature", "properties": {"id": 4768039269, "name": null, "name_en": null, "descriptio": null, "ref": null, "wikidata": null, "operator": null, "wd_operato": null, "start_date": null}, "geometry": {"type": "Point", "coordinates": [6.092608652153445, 49.68449846665391]}}, {"id": "14", "type": "Feature", "properties": {"id": 4768039270, "name": null, "name_en": null, "descriptio": null, "ref": null, "wikidata": null, "operator": null, "wd_operato": null, "start_date": null}, "geometry": {"type": "Point", "coordinates": [6.092826246359834, 49.684555966509684]}}, {"id": "15", "type": "Feature", "properties": {"id": 4881799313, "name": null, "name_en": null, "descriptio": null, "ref": null, "wikidata": null, "operator": null, "wd_operato": null, "start_date": null}, "geometry": {"type": "Point", "coordinates": [6.107981230211749, 49.77044733998546]}}, {"id": "16", "type": "Feature", "properties": {"id": 4909177014, "name": null, "name_en": null, "descriptio": null, "ref": null, "wikidata": null, "operator": null, "wd_operato": null, "start_date": null}, "geometry": {"type": "Point", "coordinates": [6.091595699154936, 49.68229503194767]}}, {"id": "17", "type": "Feature", "properties": {"id": 4909177015, "name": null, "name_en": null, "descriptio": null, "ref": null, "wikidata": null, "operator": null, "wd_operato": null, "start_date": null}, "geometry": {"type": "Point", "coordinates": [6.091403921210315, 49.683106735450984]}}, {"id": "18", "type": "Feature", "properties": {"id": 4909177016, "name": null, "name_en": null, "descriptio": null, "ref": null, "wikidata": null, "operator": null, "wd_operato": null, "start_date": null}, "geometry": {"type": "Point", "coordinates": [6.092943425366202, 49.68517195257389]}}, {"id": "19", "type": "Feature", "properties": {"id": 4916569071, "name": null, "name_en": null, "descriptio": null, "ref": null, "wikidata": null, "operator": null, "wd_operato": null, "start_date": null}, "geometry": {"type": "Point", "coordinates": [6.062446876497746, 49.65417642900954]}}, {"id": "20", "type": "Feature", "properties": {"id": 5028319512, "name": null, "name_en": null, "descriptio": null, "ref": null, "wikidata": null, "operator": null, "wd_operato": null, "start_date": null}, "geometry": {"type": "Point", "coordinates": [6.319937517064574, 49.738923421245]}}, {"id": "21", "type": "Feature", "properties": {"id": 5768920457, "name": "Source Rolesfeld 1", "name_en": null, "descriptio": null, "ref": null, "wikidata": null, "operator": null, "wd_operato": null, "start_date": null}, "geometry": {"type": "Point", "coordinates": [6.139520739292067, 49.65142842205409]}}, {"id": "22", "type": "Feature", "properties": {"id": 5768956513, "name": null, "name_en": null, "descriptio": null, "ref": null, "wikidata": null, "operator": null, "wd_operato": null, "start_date": null}, "geometry": {"type": "Point", "coordinates": [6.178184363155709, 49.689430043205085]}}, {"id": "23", "type": "Feature", "properties": {"id": 5773801937, "name": null, "name_en": null, "descriptio": null, "ref": null, "wikidata": null, "operator": null, "wd_operato": null, "start_date": null}, "geometry": {"type": "Point", "coordinates": [5.93869754769139, 49.9667223432861]}}, {"id": "24", "type": "Feature", "properties": {"id": 5774614158, "name": null, "name_en": null, "descriptio": null, "ref": null, "wikidata": null, "operator": null, "wd_operato": null, "start_date": null}, "geometry": {"type": "Point", "coordinates": [6.0451446166908624, 49.92548731916692]}}, {"id": "25", "type": "Feature", "properties": {"id": 5999901672, "name": null, "name_en": null, "descriptio": null, "ref": null, "wikidata": null, "operator": null, "wd_operato": null, "start_date": null}, "geometry": {"type": "Point", "coordinates": [6.120745862916635, 49.61583458640874]}}, {"id": "26", "type": "Feature", "properties": {"id": 5999924931, "name": null, "name_en": null, "descriptio": null, "ref": null, "wikidata": null, "operator": null, "wd_operato": null, "start_date": null}, "geometry": {"type": "Point", "coordinates": [6.121193624184144, 49.616162570279926]}}, {"id": "27", "type": "Feature", "properties": {"id": 5999929250, "name": null, "name_en": null, "descriptio": null, "ref": null, "wikidata": null, "operator": null, "wd_operato": null, "start_date": null}, "geometry": {"type": "Point", "coordinates": [6.120434056118568, 49.61668794797082]}}, {"id": "28", "type": "Feature", "properties": {"id": 5999939455, "name": null, "name_en": null, "descriptio": null, "ref": null, "wikidata": null, "operator": null, "wd_operato": null, "start_date": null}, "geometry": {"type": "Point", "coordinates": [6.118572938337935, 49.6155335922658]}}, {"id": "29", "type": "Feature", "properties": {"id": 5999946134, "name": null, "name_en": null, "descriptio": null, "ref": null, "wikidata": null, "operator": null, "wd_operato": null, "start_date": null}, "geometry": {"type": "Point", "coordinates": [6.117622681975149, 49.61607891888624]}}, {"id": "30", "type": "Feature", "properties": {"id": 5999961482, "name": null, "name_en": null, "descriptio": null, "ref": null, "wikidata": null, "operator": null, "wd_operato": null, "start_date": null}, "geometry": {"type": "Point", "coordinates": [6.11991873671147, 49.61528573938891]}}, {"id": "31", "type": "Feature", "properties": {"id": 7345477019, "name": null, "name_en": null, "descriptio": null, "ref": null, "wikidata": null, "operator": null, "wd_operato": null, "start_date": null}, "geometry": {"type": "Point", "coordinates": [6.135168938983411, 49.65972759584328]}}, {"id": "32", "type": "Feature", "properties": {"id": 7358769954, "name": null, "name_en": null, "descriptio": null, "ref": null, "wikidata": null, "operator": null, "wd_operato": null, "start_date": null}, "geometry": {"type": "Point", "coordinates": [5.9937178688649055, 49.686849925770204]}}, {"id": "33", "type": "Feature", "properties": {"id": 7358769955, "name": null, "name_en": null, "descriptio": null, "ref": null, "wikidata": null, "operator": null, "wd_operato": null, "start_date": null}, "geometry": {"type": "Point", "coordinates": [5.994215334818279, 49.68691672953849]}}, {"id": "34", "type": "Feature", "properties": {"id": 7358769956, "name": null, "name_en": null, "descriptio": null, "ref": null, "wikidata": null, "operator": null, "wd_operato": null, "start_date": null}, "geometry": {"type": "Point", "coordinates": [5.9942462640409815, 49.6866737381655]}}, {"id": "35", "type": "Feature", "properties": {"id": 7358769958, "name": null, "name_en": null, "descriptio": null, "ref": null, "wikidata": null, "operator": null, "wd_operato": null, "start_date": null}, "geometry": {"type": "Point", "coordinates": [5.995673283056278, 49.6856473741219]}}, {"id": "36", "type": "Feature", "properties": {"id": 7425509681, "name": null, "name_en": null, "descriptio": null, "ref": null, "wikidata": null, "operator": null, "wd_operato": null, "start_date": null}, "geometry": {"type": "Point", "coordinates": [5.980360467967614, 49.76820912038101]}}, {"id": "37", "type": "Feature", "properties": {"id": 7544825440, "name": null, "name_en": null, "descriptio": null, "ref": null, "wikidata": null, "operator": null, "wd_operato": null, "start_date": null}, "geometry": {"type": "Point", "coordinates": [6.321625297087593, 49.75846222427567]}}, {"id": "38", "type": "Feature", "properties": {"id": 7544825441, "name": null, "name_en": null, "descriptio": null, "ref": null, "wikidata": null, "operator": null, "wd_operato": null, "start_date": null}, "geometry": {"type": "Point", "coordinates": [6.321405355948315, 49.75841503416084]}}, {"id": "39", "type": "Feature", "properties": {"id": 7598037739, "name": null, "name_en": null, "descriptio": null, "ref": null, "wikidata": null, "operator": null, "wd_operato": null, "start_date": null}, "geometry": {"type": "Point", "coordinates": [6.1458742218976, 49.71152046519982]}}, {"id": "40", "type": "Feature", "properties": {"id": 7598037740, "name": null, "name_en": null, "descriptio": null, "ref": null, "wikidata": null, "operator": null, "wd_operato": null, "start_date": null}, "geometry": {"type": "Point", "coordinates": [6.14640865204393, 49.71128677773936]}}, {"id": "41", "type": "Feature", "properties": {"id": 7727269019, "name": null, "name_en": null, "descriptio": null, "ref": null, "wikidata": null, "operator": null, "wd_operato": null, "start_date": null}, "geometry": {"type": "Point", "coordinates": [6.112970725713836, 49.861905219177764]}}, {"id": "42", "type": "Feature", "properties": {"id": 7731289872, "name": null, "name_en": null, "descriptio": null, "ref": null, "wikidata": null, "operator": null, "wd_operato": null, "start_date": null}, "geometry": {"type": "Point", "coordinates": [6.14863429879361, 49.71268814813096]}}, {"id": "43", "type": "Feature", "properties": {"id": 8102330149, "name": null, "name_en": null, "descriptio": null, "ref": null, "wikidata": null, "operator": null, "wd_operato": null, "start_date": null}, "geometry": {"type": "Point", "coordinates": [5.77882598806363, 49.90386636756888]}}, {"id": "44", "type": "Feature", "properties": {"id": 8148770129, "name": null, "name_en": null, "descriptio": null, "ref": null, "wikidata": null, "operator": null, "wd_operato": null, "start_date": null}, "geometry": {"type": "Point", "coordinates": [5.994193960965163, 49.68704346391448]}}, {"id": "45", "type": "Feature", "properties": {"id": 8149435072, "name": null, "name_en": null, "descriptio": null, "ref": null, "wikidata": null, "operator": null, "wd_operato": null, "start_date": null}, "geometry": {"type": "Point", "coordinates": [6.365048333211206, 49.47072682721175]}}, {"id": "46", "type": "Feature", "properties": {"id": 8302839976, "name": null, "name_en": null, "descriptio": null, "ref": null, "wikidata": null, "operator": null, "wd_operato": null, "start_date": null}, "geometry": {"type": "Point", "coordinates": [5.879448388728775, 49.97214199805906]}}, {"id": "47", "type": "Feature", "properties": {"id": 8309476538, "name": null, "name_en": null, "descriptio": null, "ref": null, "wikidata": null, "operator": null, "wd_operato": null, "start_date": null}, "geometry": {"type": "Point", "coordinates": [5.877222825798157, 49.911132639429994]}}, {"id": "48", "type": "Feature", "properties": {"id": 8449408384, "name": null, "name_en": null, "descriptio": null, "ref": null, "wikidata": null, "operator": null, "wd_operato": null, "start_date": null}, "geometry": {"type": "Point", "coordinates": [5.842279677296148, 49.972819926387764]}}, {"id": "49", "type": "Feature", "properties": {"id": 8579727924, "name": null, "name_en": null, "descriptio": null, "ref": null, "wikidata": null, "operator": null, "wd_operato": null, "start_date": null}, "geometry": {"type": "Point", "coordinates": [5.979387077552077, 49.55863798789524]}}, {"id": "50", "type": "Feature", "properties": {"id": 8718904208, "name": null, "name_en": null, "descriptio": null, "ref": null, "wikidata": null, "operator": null, "wd_operato": null, "start_date": null}, "geometry": {"type": "Point", "coordinates": [5.9776299791898, 50.15500344171115]}}, {"id": "51", "type": "Feature", "properties": {"id": 8729247234, "name": null, "name_en": null, "descriptio": null, "ref": null, "wikidata": null, "operator": null, "wd_operato": null, "start_date": null}, "geometry": {"type": "Point", "coordinates": [5.969565498689462, 49.71942149858829]}}, {"id": "52", "type": "Feature", "properties": {"id": 8734844703, "name": null, "name_en": null, "descriptio": null, "ref": null, "wikidata": null, "operator": null, "wd_operato": null, "start_date": null}, "geometry": {"type": "Point", "coordinates": [5.888220553314057, 50.01398823055768]}}, {"id": "53", "type": "Feature", "properties": {"id": 8735725854, "name": null, "name_en": null, "descriptio": null, "ref": null, "wikidata": null, "operator": null, "wd_operato": null, "start_date": null}, "geometry": {"type": "Point", "coordinates": [5.9470708175046525, 49.99820879491934]}}, {"id": "54", "type": "Feature", "properties": {"id": 8761968289, "name": null, "name_en": null, "descriptio": null, "ref": null, "wikidata": null, "operator": null, "wd_operato": null, "start_date": null}, "geometry": {"type": "Point", "coordinates": [5.815133039850025, 49.88820754751724]}}, {"id": "55", "type": "Feature", "properties": {"id": 8766168863, "name": null, "name_en": null, "descriptio": null, "ref": null, "wikidata": null, "operator": null, "wd_operato": null, "start_date": null}, "geometry": {"type": "Point", "coordinates": [6.082493622860739, 49.67840574505612]}}, {"id": "56", "type": "Feature", "properties": {"id": 8766168864, "name": null, "name_en": null, "descriptio": null, "ref": null, "wikidata": null, "operator": null, "wd_operato": null, "start_date": null}, "geometry": {"type": "Point", "coordinates": [6.082804759106552, 49.67853021631825]}}, {"id": "57", "type": "Feature", "properties": {"id": 9402211630, "name": "M\u00e4scheierchen", "name_en": null, "descriptio": null, "ref": null, "wikidata": null, "operator": null, "wd_operato": null, "start_date": null}, "geometry": {"type": "Point", "coordinates": [5.969493162865092, 49.84699532217464]}}, {"id": "58", "type": "Feature", "properties": {"id": 9681844193, "name": null, "name_en": null, "descriptio": null, "ref": null, "wikidata": null, "operator": null, "wd_operato": null, "start_date": null}, "geometry": {"type": "Point", "coordinates": [6.243790273666094, 49.82403368516404]}}, {"id": "59", "type": "Feature", "properties": {"id": 10020949103, "name": null, "name_en": null, "descriptio": null, "ref": null, "wikidata": null, "operator": null, "wd_operato": null, "start_date": null}, "geometry": {"type": "Point", "coordinates": [6.082318524903457, 49.67840742143677]}}, {"id": "60", "type": "Feature", "properties": {"id": 10636703184, "name": "Rouschtgronn", "name_en": null, "descriptio": null, "ref": "Source 3", "wikidata": null, "operator": "Commune de Mersch", "wd_operato": null, "start_date": null}, "geometry": {"type": "Point", "coordinates": [6.130882182243397, 49.764948895322625]}}, {"id": "61", "type": "Feature", "properties": {"id": 11207616171, "name": null, "name_en": null, "descriptio": null, "ref": null, "wikidata": null, "operator": null, "wd_operato": null, "start_date": null}, "geometry": {"type": "Point", "coordinates": [5.940731919410638, 49.839211719249676]}}, {"id": "62", "type": "Feature", "properties": {"id": 11207616172, "name": null, "name_en": null, "descriptio": null, "ref": null, "wikidata": null, "operator": null, "wd_operato": null, "start_date": null}, "geometry": {"type": "Point", "coordinates": [5.940311650785532, 49.8394698818674]}}, {"id": "63", "type": "Feature", "properties": {"id": 11235354993, "name": null, "name_en": null, "descriptio": null, "ref": null, "wikidata": null, "operator": null, "wd_operato": null, "start_date": null}, "geometry": {"type": "Point", "coordinates": [5.988720997288027, 49.70424807454939]}}, {"id": "64", "type": "Feature", "properties": {"id": 11289256882, "name": null, "name_en": null, "descriptio": null, "ref": null, "wikidata": null, "operator": null, "wd_operato": null, "start_date": null}, "geometry": {"type": "Point", "coordinates": [6.463538042432873, 49.75161043752653]}}, {"id": "65", "type": "Feature", "properties": {"id": 11618208393, "name": "K2", "name_en": null, "descriptio": null, "ref": "SCC-208-02", "wikidata": null, "operator": null, "wd_operato": null, "start_date": null}, "geometry": {"type": "Point", "coordinates": [6.078399230798539, 49.66992183412095]}}, {"id": "66", "type": "Feature", "properties": {"id": 11909790121, "name": null, "name_en": null, "descriptio": null, "ref": null, "wikidata": null, "operator": null, "wd_operato": null, "start_date": null}, "geometry": {"type": "Point", "coordinates": [6.0096937763136395, 49.71937975671046]}}, {"id": "67", "type": "Feature", "properties": {"id": 12099592164, "name": null, "name_en": null, "descriptio": null, "ref": null, "wikidata": null, "operator": null, "wd_operato": null, "start_date": null}, "geometry": {"type": "Point", "coordinates": [5.924055284856622, 49.51012772327853]}}, {"id": "68", "type": "Feature", "properties": {"id": 12425531159, "name": null, "name_en": null, "descriptio": null, "ref": null, "wikidata": null, "operator": null, "wd_operato": null, "start_date": null}, "geometry": {"type": "Point", "coordinates": [6.005076353493422, 50.06669338625565]}}, {"id": "69", "type": "Feature", "properties": {"id": 13048838199, "name": null, "name_en": null, "descriptio": null, "ref": null, "wikidata": null, "operator": null, "wd_operato": null, "start_date": null}, "geometry": {"type": "Point", "coordinates": [6.051258628322699, 49.858033366644825]}}]}