{"type": "FeatureCollection", "features": [{"id": "0", "type": "Feature", "properties": {"name": "Kismaayo", "country": "Nyumba", "status": "NOTIONAL", "region": "Africa", "version": "GIS version 1.4; November 2021"}, "geometry": {"type": "Point", "coordinates": [42.51832433957582, -0.3566332815604056]}}, {"id": "1", "type": "Feature", "properties": {"name": "Kisumu", "country": "Amari", "status": "NOTIONAL", "region": "Africa", "version": "GIS version 1.4; November 2021"}, "geometry": {"type": "Point", "coordinates": [34.75001297886769, -0.09003456736699889]}}, {"id": "2", "type": "Feature", "properties": {"name": "Mwanza", "country": "Ziwa", "status": "NOTIONAL", "region": "Africa", "version": "GIS version 1.4; November 2021"}, "geometry": {"type": "Point", "coordinates": [32.93002070998011, -2.520015443027539]}}, {"id": "3", "type": "Feature", "properties": {"name": "Dar es Salaam", "country": "Kujenga", "status": "NOTIONAL", "region": "Africa", "version": "GIS version 1.4; November 2021"}, "geometry": {"type": "Point", "coordinates": [39.26639597769457, -6.7980667361243965]}}]}