{"type": "FeatureCollection", "features": [{"id": "0", "type": "Feature", "properties": {"name": "Tbilisi", "country": "Georgia", "status": "NOTIONAL", "region": "Eurasia", "version": "GIS version 1.5; May 2024"}, "geometry": {"type": "Point", "coordinates": [44.78884959099795, 41.72695584707746]}}, {"id": "1", "type": "Feature", "properties": {"name": "Yerevan", "country": "Limaria", "status": "NOTIONAL", "region": "Eurasia", "version": "GIS version 1.5; May 2024"}, "geometry": {"type": "Point", "coordinates": [44.51160553175214, 40.18309659414214]}}, {"id": "2", "type": "Feature", "properties": {"name": "Baku", "country": "Atropia", "status": "NOTIONAL", "region": "Eurasia", "version": "GIS version 1.5; May 2024"}, "geometry": {"type": "Point", "coordinates": [49.86027130325782, 40.39721789134318]}}, {"id": "3", "type": "Feature", "properties": {"name": "Kiev", "country": "Pirtuni", "status": "NOTIONAL", "region": "Eurasia", "version": "GIS version 1.5; May 2024"}, "geometry": {"type": "Point", "coordinates": [30.514682110472087, 50.43531318760692]}}, {"id": "4", "type": "Feature", "properties": {"name": "Tehran", "country": "Ariana", "status": "NOTIONAL", "region": "Eurasia", "version": "GIS version 1.5; May 2024"}, "geometry": {"type": "Point", "coordinates": [51.42239817500899, 35.673888627001304]}}, {"id": "5", "type": "Feature", "properties": {"name": "Moscow", "country": "Donovia", "status": "NOTIONAL", "region": "Eurasia", "version": "GIS version 1.5; May 2024"}, "geometry": {"type": "Point", "coordinates": [37.6135769672714, 55.75410998124818]}}]}