{"type": "FeatureCollection", "features": [{"id": "0", "type": "Feature", "properties": {"name": "Baguio City", "country": "North Torbia", "status": "NOTIONAL", "region": "Indo-Pacfic", "version": "GIS version 1.4; November 2021"}, "geometry": {"type": "Point", "coordinates": [120.56994258533086, 16.429990660563938]}}, {"id": "1", "type": "Feature", "properties": {"name": "Davao", "country": "Belesia", "status": "NOTIONAL", "region": "Indo-Pacfic", "version": "GIS version 1.4; November 2021"}, "geometry": {"type": "Point", "coordinates": [125.6280496238735, 7.111962764256781]}}, {"id": "2", "type": "Feature", "properties": {"name": "Manila", "country": "South Torbia", "status": "NOTIONAL", "region": "Indo-Pacfic", "version": "GIS version 1.4; November 2021"}, "geometry": {"type": "Point", "coordinates": [120.9802713035424, 14.606104813440414]}}, {"id": "3", "type": "Feature", "properties": {"name": "Shanghai", "country": "Olvana", "status": "NOTIONAL", "region": "Indo-Pacfic", "version": "GIS version 1.4; November 2021"}, "geometry": {"type": "Point", "coordinates": [121.43455881982014, 31.21839831122821]}}, {"id": "4", "type": "Feature", "properties": {"name": "Coron", "country": "Gabal", "status": "NOTIONAL", "region": "Indo-Pacfic", "version": "GIS version 1.4; November 2021"}, "geometry": {"type": "Point", "coordinates": [120.20256572171482, 11.9975663690456]}}, {"id": "5", "type": "Feature", "properties": {"name": "Lucknow", "country": "Himaldesh", "status": "NOTIONAL", "region": "Indo-Pacfic", "version": "GIS version 1.4; November 2021"}, "geometry": {"type": "Point", "coordinates": [80.91305287890293, 26.85698494044243]}}, {"id": "6", "type": "Feature", "properties": {"name": "Mandalay", "country": "Bagansait", "status": "NOTIONAL", "region": "Indo-Pacfic", "version": "GIS version 1.4; November 2021"}, "geometry": {"type": "Point", "coordinates": [96.08308298964084, 21.971934281243307]}}, {"id": "7", "type": "Feature", "properties": {"name": "Bangkok", "country": "Khorathidin", "status": "NOTIONAL", "region": "Indo-Pacfic", "version": "GIS version 1.4; November 2021"}, "geometry": {"type": "Point", "coordinates": [100.51469879369489, 13.751945064087977]}}, {"id": "8", "type": "Feature", "properties": {"name": "Da Nang", "country": "Sungzon", "status": "NOTIONAL", "region": "Indo-Pacfic", "version": "GIS version 1.4; November 2021"}, "geometry": {"type": "Point", "coordinates": [108.24997106835434, 16.0600390817865]}}]}